[{"id":530973349,"lat":37.84076,"lon":62.59423,"name":"61-nji duralga","type":"station"},{"id":3967853445,"lat":29.80375,"lon":67.40316,"name":"Aab-e-Gum","nameLocal":"آبِ گم","type":"station"},{"id":12697139014,"lat":31.32887,"lon":72.94569,"name":"Abbaspur","nameLocal":"عباس پور ریلوے اسٹیشن","type":"station"},{"id":12719320747,"lat":30.5544,"lon":72.13186,"name":"Abdul Hakim","nameLocal":"عبدالحکیم ریلوے اسٹیشن","type":"station"},{"id":13363811450,"lat":29.58317,"lon":66.07169,"name":"Ablak","nameLocal":"ابلک","type":"station"},{"id":168242251,"lat":30.13942,"lon":74.19535,"name":"Abohar Junction","type":"station"},{"id":12723689032,"lat":29.46708,"lon":71.64517,"name":"Adam Wahan","nameLocal":"آدم واہن ریلوے اسٹیشن","type":"station"},{"id":2447748747,"lat":32.57318,"lon":73.3934,"name":"Ahla","type":"station"},{"id":13363900231,"lat":29.39539,"lon":65.94274,"name":"Ahmedwal","nameLocal":"احمد وال","type":"station"},{"id":2447846977,"lat":32.20231,"lon":72.82638,"name":"Ajnalah","type":"station"},{"id":2433508564,"lat":30.92128,"lon":73.68131,"name":"Akhtar Abad","nameLocal":"اختر آباد","type":"station"},{"id":913354353,"lat":32.66579,"lon":73.87373,"name":"Akhtar Karnana Railway Station","nameLocal":"اختر کرنانہ ریلوے سٹیشن","type":"station"},{"id":9787590343,"lat":37.22083,"lon":65.24289,"name":"Akinah","type":"station"},{"id":13301788545,"lat":33.99468,"lon":72.14715,"name":"Akora Khattak","nameLocal":"اکوڑا خٹک","type":"station"},{"id":11564935732,"lat":32.25545,"lon":73.81643,"name":"Alipur Chatha","nameLocal":"علی پور چٹھہ ریلوے اسٹیشن","type":"station"},{"id":4292829944,"lat":32.36496,"lon":71.41851,"name":"Alluwali","nameLocal":"علو والی","type":"station"},{"id":3221948990,"lat":37.53605,"lon":61.87946,"name":"Altyn Asyr","type":"station"},{"id":13357635367,"lat":29.67547,"lon":71.97409,"name":"Amirpur Halt","nameLocal":"امیر پور ہالٹ","type":"halt"},{"id":2669084974,"lat":31.63321,"lon":74.86714,"name":"Amritsar Junction","type":"station"},{"id":720622613,"lat":30.28913,"lon":73.88875,"name":"Amruka","type":"station"},{"id":12448326576,"lat":37.20351,"lon":67.79467,"name":"Amu-Zang","type":"station"},{"id":3145081581,"lat":37.88531,"lon":65.24965,"name":"Amyderýa","type":"station"},{"id":611921783,"lat":31.56248,"lon":74.30933,"name":"Anarkali","type":"station"},{"id":9787560276,"lat":37.01444,"lon":65.13498,"name":"Andkhoy","nameLocal":"اندخوی","type":"station"},{"id":2420118480,"lat":30.29331,"lon":73.06536,"name":"Arifwala","nameLocal":"عارف والہ","type":"station"},{"id":12435265071,"lat":37.69032,"lon":67.49282,"name":"Arlyaki","type":"halt"},{"id":2916288871,"lat":30.64891,"lon":70.95127,"name":"Ashanpur","nameLocal":"احسان پور","type":"station"},{"id":13357635328,"lat":29.75513,"lon":72.11059,"name":"Ashraf Shah","nameLocal":"اشرف شاہ","type":"station"},{"id":2794217340,"lat":36.81812,"lon":61.08444,"name":"Ata","type":"station"},{"id":13356172402,"lat":31.16137,"lon":74.38721,"name":"Athilpur","nameLocal":"اتھل پور","type":"station"},{"id":99903377,"lat":31.59455,"lon":74.60662,"name":"Attari","type":"station"},{"id":2279562922,"lat":33.77451,"lon":72.35162,"name":"Attock City Junction","nameLocal":"اٹک سٹی جنکشن","type":"station"},{"id":2432160530,"lat":33.87368,"lon":72.24094,"name":"Attock Khurd","nameLocal":"اٹک خورد","type":"station"},{"id":3885992911,"lat":37.77411,"lon":65.33524,"name":"Azatlyk","type":"station"},{"id":13316937427,"lat":29.57014,"lon":70.53371,"name":"Azmatwala","nameLocal":"عظمت والا","type":"station"},{"id":13359948526,"lat":29.79227,"lon":67.98641,"name":"Babar Kachh","nameLocal":"بابر کچھ","type":"station"},{"id":876097302,"lat":33.52942,"lon":71.57571,"name":"Babari Banda","nameLocal":"بابری بانڈہ","type":"station"},{"id":2433364438,"lat":31.59603,"lon":74.31719,"name":"Badami Bagh","nameLocal":"بادامی باغ","type":"station"},{"id":1064270841,"lat":34.03852,"lon":74.73602,"name":"Badgam station","type":"station"},{"id":13347265859,"lat":33.99865,"lon":71.32482,"name":"Bagiari","nameLocal":"باگیاری","type":"station"},{"id":8896037632,"lat":38.08976,"lon":62.80316,"name":"Bagtyyarlyk","nameLocal":"Bagtyýarlyk (Üçaji)","type":"station"},{"id":6300594171,"lat":30.03477,"lon":74.77461,"name":"Bagwali","type":"station"},{"id":1973008394,"lat":31.73859,"lon":73.68603,"name":"Bahalike","nameLocal":"بہالیکے","type":"station"},{"id":6297955759,"lat":30.14663,"lon":74.2763,"name":"Bahawalbas","type":"station"},{"id":545092993,"lat":29.40295,"lon":71.65232,"name":"Bahawalpur","nameLocal":"بہاولپور ریلوے اسٹیشن","type":"station"},{"id":6334703898,"lat":30.53293,"lon":74.16881,"name":"Bahmni Wala","type":"station"},{"id":11633742021,"lat":33.07535,"lon":73.44863,"name":"Bakrala","nameLocal":"بکٹرالہ ریلوے اسٹیشن","type":"station"},{"id":12436906624,"lat":37.33978,"lon":67.3856,"name":"Baktriya","type":"station"},{"id":636204241,"lat":34.0082,"lon":73.08905,"name":"Baldher Station","type":"station"},{"id":2447813891,"lat":32.5382,"lon":73.17231,"name":"Banna Mianwala","type":"station"},{"id":1939878661,"lat":29.92009,"lon":74.03001,"name":"Banwali","type":"station"},{"id":13363563914,"lat":29.81174,"lon":66.4833,"name":"Barag Khurd","nameLocal":"برگ خرد","type":"station"},{"id":1015429214,"lat":34.22069,"lon":74.38831,"name":"Baramula","type":"station"},{"id":6008179332,"lat":30.53085,"lon":74.65494,"name":"Bariwala","type":"station"},{"id":876044190,"lat":33.5573,"lon":72.23229,"name":"Basal Junction","nameLocal":"بسال جنکشن ریلوے اسٹیشن","type":"station"},{"id":11622061375,"lat":33.54915,"lon":72.25774,"name":"Basal Sharif Railway Station","nameLocal":"بسال شریف ریلوے اسٹیشن","type":"station"},{"id":5228663607,"lat":30.57666,"lon":73.83989,"name":"Basirpur","nameLocal":"بصیر پور","type":"station"},{"id":13316926495,"lat":30.25068,"lon":70.65464,"name":"Basti Laghar","type":"station"},{"id":13356535308,"lat":30.78571,"lon":74.16164,"name":"Basti Qutab","nameLocal":"بستی قطب","type":"station"},{"id":12723659561,"lat":29.6183,"lon":71.56006,"name":"Basti Shahnal","nameLocal":"بستی شاہ نال ریلوے اسٹیشن","type":"station"},{"id":1596543477,"lat":38.10454,"lon":67.19883,"name":"Baysun","nameLocal":"Boysun","type":"station"},{"id":9575871374,"lat":32.46311,"lon":74.28386,"name":"Begowala Ghartal","type":"station"},{"id":12834745144,"lat":31.41244,"lon":71.02288,"name":"Behal","nameLocal":"بہل","type":"station"},{"id":253252090,"lat":30.26945,"lon":66.93507,"name":"Beleli","nameLocal":"بیلیلی","type":"station"},{"id":530969630,"lat":37.95218,"lon":62.66203,"name":"Berkarar (Çygaji)","type":"station"},{"id":6334653355,"lat":30.45206,"lon":74.40173,"name":"Bhagsar","type":"station"},{"id":6058725857,"lat":31.60894,"lon":74.86434,"name":"Bhagtanwala","type":"station"},{"id":2977745605,"lat":31.62211,"lon":71.06506,"name":"Bhakkar","nameLocal":"بھکر","type":"station"},{"id":1975133224,"lat":32.26479,"lon":72.90625,"name":"Bhalwal","nameLocal":"بھلوال","type":"station"},{"id":2669031285,"lat":30.00234,"lon":73.2529,"name":"Bhawalnagar","nameLocal":"بہاولنگر","type":"station"},{"id":2433482217,"lat":31.13023,"lon":74.03572,"name":"Bhoe Asal","nameLocal":"بھوئے آصل","type":"station"},{"id":11613746520,"lat":32.30084,"lon":72.05357,"name":"Bijar Railway Station","nameLocal":"بجار ریلوے اسٹیشن","type":"station"},{"id":6300601461,"lat":29.91223,"lon":74.63563,"name":"Birang Khera","type":"station"},{"id":11613826097,"lat":32.63283,"lon":71.55219,"name":"Biruli Railway Station","nameLocal":"بیٹرولی ریلوے اسٹیشن","type":"station"},{"id":1584542556,"lat":37.40157,"lon":66.73066,"name":"Boldir","type":"station"},{"id":6382657246,"lat":31.2431,"lon":74.78221,"name":"Boparai","type":"station"},{"id":2668980904,"lat":30.43143,"lon":67.00703,"name":"Bostan","type":"station"},{"id":13301973862,"lat":33.79475,"lon":72.76792,"name":"Budho","nameLocal":"بودھو","type":"station"},{"id":6029135970,"lat":30.21796,"lon":74.78294,"name":"Bulluana","type":"station"},{"id":3886004619,"lat":37.73379,"lon":65.40928,"name":"Burguchy","nameLocal":"Burguçy","type":"station"},{"id":2432186137,"lat":33.82145,"lon":72.58788,"name":"Burhan","nameLocal":"برہان","type":"station"},{"id":2440113843,"lat":31.65855,"lon":73.09841,"name":"Burj","type":"station"},{"id":4441605693,"lat":30.29267,"lon":73.06541,"name":"Cargo Station Arifwala","type":"station"},{"id":3221954730,"lat":35.45361,"lon":62.39969,"name":"Çemenabat","type":"station"},{"id":13347265847,"lat":34.01007,"lon":71.30395,"name":"Chaghi","nameLocal":"چاغی","type":"station"},{"id":13357282470,"lat":30.38299,"lon":73.48655,"name":"Chah Nor Mohammad","type":"station"},{"id":2445623557,"lat":32.6132,"lon":73.6247,"name":"Chailianwala","type":"station"},{"id":12723596766,"lat":29.94648,"lon":71.32426,"name":"Chak","nameLocal":"چک ریلوے اسٹیشن","type":"station"},{"id":6334659073,"lat":30.43077,"lon":74.17508,"name":"Chak Banwala","type":"station"},{"id":2440113847,"lat":31.57037,"lon":73.18721,"name":"Chak Jhumra","nameLocal":"چک جھمرہ ریلوے اسٹیشن","type":"station"},{"id":13357282423,"lat":30.42632,"lon":73.59575,"name":"Chak Kambo","nameLocal":"چک کمبو","type":"station"},{"id":2447813886,"lat":32.57241,"lon":73.16257,"name":"Chak Nizam","type":"station"},{"id":6334659072,"lat":30.43398,"lon":74.19396,"name":"Chak Pakhewala","type":"station"},{"id":2433212973,"lat":32.75126,"lon":73.90746,"name":"Chak Pirana","nameLocal":"چک پیرانا ریلوے اسٹیشن","type":"station"},{"id":248036851,"lat":33.60092,"lon":73.09645,"name":"Chaklala","nameLocal":"چک لالہ ریلوے اسٹیشن","type":"station"},{"id":3955477797,"lat":30.92494,"lon":66.44053,"name":"Chaman","nameLocal":"چمن","type":"station"},{"id":2433482220,"lat":31.08478,"lon":73.96434,"name":"Changa Manga","nameLocal":"چھانگا مانگا","type":"station"},{"id":6334646022,"lat":30.50191,"lon":74.5804,"name":"Chargwan","type":"station"},{"id":1973009269,"lat":32.01912,"lon":72.64149,"name":"Charnali","type":"station"},{"id":2671932802,"lat":34.15095,"lon":71.75929,"name":"Charsadda","nameLocal":"چارسدہ","type":"station"},{"id":1646616368,"lat":38.2984,"lon":66.69302,"name":"Chashmaihafizon","type":"station"},{"id":12719104875,"lat":30.86834,"lon":72.35222,"name":"Chatiana","nameLocal":"چٹیانہ ریلوے اسٹیشن","type":"station"},{"id":611926128,"lat":31.55235,"lon":74.30278,"name":"Chauburji","type":"station"},{"id":11622200744,"lat":33.51338,"lon":72.3806,"name":"Chauntra Railway Station","nameLocal":"چونترہ ریلوے اسٹیشن","type":"station"},{"id":1778013884,"lat":32.34339,"lon":74.69851,"name":"Chawinda","nameLocal":"چونڈہ","type":"station"},{"id":11787335254,"lat":31.75877,"lon":72.90785,"name":"Chenab Nagar","nameLocal":"چناب نگر","type":"station"},{"id":11619587889,"lat":33.23194,"lon":71.90042,"name":"Chhab","nameLocal":"چھب ریلوے اسٹیشن","type":"station"},{"id":6358019163,"lat":31.62221,"lon":74.79477,"name":"Chheharta","type":"station"},{"id":2433633682,"lat":30.53548,"lon":72.69034,"name":"Chichawatni","type":"station"},{"id":13361876098,"lat":29.79209,"lon":67.45118,"name":"Chidarzai","nameLocal":"چیدارزئی","type":"station"},{"id":1973008303,"lat":31.73095,"lon":72.98342,"name":"Chiniot","nameLocal":"چنیوٹ","type":"station"},{"id":3752972781,"lat":29.79976,"lon":72.85806,"name":"Chishtian Sharif Railway Station","type":"station"},{"id":2433212971,"lat":32.87961,"lon":73.78563,"name":"Choa Kariala","nameLocal":"چوآ کٹریالہ ریلوے اسٹیشن","type":"station"},{"id":2941394194,"lat":30.21257,"lon":74.13465,"name":"Chuhriwala Dhan","type":"station"},{"id":11623129072,"lat":33.4742,"lon":72.09066,"name":"Chura Sharif Halt","nameLocal":"چُورہ شریف ریلوے اسٹیشن","type":"station"},{"id":12681713507,"lat":30.918,"lon":72.41562,"name":"Daban Wala","nameLocal":"ڈبانوالہ ریلوے اسٹیشن","type":"station"},{"id":1939750474,"lat":29.54305,"lon":74.19138,"name":"Dabli Rathan","type":"station"},{"id":4936420517,"lat":30.5679,"lon":70.94348,"name":"Daira Din Panah","nameLocal":"دائرہ دین پناہ","type":"station"},{"id":13361157945,"lat":29.88114,"lon":68.10349,"name":"Dalujal","type":"halt"},{"id":5054528204,"lat":32.63903,"lon":72.98176,"name":"Dandot Railway Station","type":"station"},{"id":10612726847,"lat":31.67184,"lon":73.28515,"name":"Dar ul Ehsan","nameLocal":"دارالاحسان ریلوے اسٹیشن","type":"station"},{"id":1598983780,"lat":38.17593,"lon":67.03508,"name":"Darband","type":"station"},{"id":3972498435,"lat":34.51486,"lon":71.8947,"name":"Dargai","nameLocal":"درگئی","type":"station"},{"id":12719252318,"lat":30.65917,"lon":72.17248,"name":"Darkhana","nameLocal":"درکھانا ریلوے اسٹیشن","type":"station"},{"id":11194787979,"lat":31.78559,"lon":71.10881,"name":"Darya Khan","nameLocal":"دریا خان","type":"station"},{"id":3221971699,"lat":36.27488,"lon":62.64223,"name":"Dashkopri","nameLocal":"Daşköpri","type":"station"},{"id":3886020849,"lat":37.6719,"lon":65.60389,"name":"Daşrabat","type":"station"},{"id":11615791700,"lat":32.88229,"lon":71.58169,"name":"Daud Khel Junction","nameLocal":"داؤد خیل ریلوے اسٹیشن","type":"station"},{"id":1646608148,"lat":38.34709,"lon":66.43571,"name":"Dehkanabad","nameLocal":"Dehqonobod","type":"station"},{"id":245671270,"lat":38.27216,"lon":67.90639,"name":"Denow","nameLocal":"Denov","type":"station"},{"id":2433218363,"lat":32.63282,"lon":74.00538,"name":"Deona Juliani","nameLocal":"دیونہ جلیانی ریلوے اسٹیشن","type":"station"},{"id":13348193813,"lat":30.05098,"lon":70.62301,"name":"Dera Ghazi Khan","nameLocal":"ڈيره غازي خان","type":"station"},{"id":8059018054,"lat":31.06565,"lon":73.96829,"name":"DFO office","type":"station"},{"id":1939878671,"lat":29.85965,"lon":74.54187,"name":"Dhaban","type":"station"},{"id":4905872782,"lat":37.78345,"lon":67.54317,"name":"Dhalair","type":"halt"},{"id":2433331668,"lat":32.38333,"lon":74.13307,"name":"Dhaunkal","nameLocal":"دھونکل","type":"station"},{"id":13356528892,"lat":30.95006,"lon":74.26359,"name":"Dholan","nameLocal":"ڈھولن","type":"station"},{"id":1939878680,"lat":29.76071,"lon":74.25192,"name":"Dholipal","type":"station"},{"id":2433202112,"lat":33.02463,"lon":73.60322,"name":"Dina","nameLocal":"دینہ ریلوے اسٹیشن","type":"station"},{"id":6334688819,"lat":30.846,"lon":74.52425,"name":"Dodh","type":"station"},{"id":876095266,"lat":33.55552,"lon":72.18847,"name":"Domel","nameLocal":"دومیل ریلوے اسٹیشن","type":"station"},{"id":303694676,"lat":33.03286,"lon":73.46585,"name":"Domeli Railway Station","nameLocal":"ڈومیلی ریلوے اسٹیشن","type":"station"},{"id":3221364651,"lat":37.61988,"lon":61.29227,"name":"Dörtguýy","type":"station"},{"id":13362247803,"lat":29.93983,"lon":67.18789,"name":"Dozan","nameLocal":"دوزن","type":"station"},{"id":13355702633,"lat":29.74572,"lon":73.22692,"name":"Dunga Bunga","nameLocal":"ڈونگہ بونگہ","type":"station"},{"id":13357960695,"lat":29.80683,"lon":71.72106,"name":"Dunyapur","nameLocal":"دُنیا پُور","type":"station"},{"id":2433331699,"lat":32.0547,"lon":74.21078,"name":"Eimenabad","nameLocal":"ایمن آباد","type":"station"},{"id":449118457,"lat":37.94335,"lon":67.71755,"name":"Elbayon","type":"station"},{"id":6331496361,"lat":29.44411,"lon":74.65795,"name":"Ellenabad","type":"station"},{"id":12430518727,"lat":37.87767,"lon":67.63011,"name":"Elobod","type":"halt"},{"id":449118430,"lat":37.47769,"lon":67.40112,"name":"Etimshak","type":"halt"},{"id":5281424446,"lat":31.41738,"lon":73.09677,"name":"Faisalabad","nameLocal":"فیصل آباد ریلوے اسٹیشن","type":"station"},{"id":12694928827,"lat":31.49091,"lon":73.14305,"name":"Faisalabad Dry Port","nameLocal":"گٹی ریلوے اسٹیشن","type":"station"},{"id":6297939873,"lat":30.19019,"lon":74.57916,"name":"Faqarsar","type":"station"},{"id":2432186134,"lat":33.82676,"lon":72.50359,"name":"Faqirabad","nameLocal":"لارنس پور","type":"station"},{"id":13355360971,"lat":29.46937,"lon":73.03743,"name":"Faqirwali","nameLocal":"فقیر والی","type":"station"},{"id":1883467581,"lat":30.68265,"lon":74.76209,"name":"Faridkot","type":"station"},{"id":6292584422,"lat":30.67056,"lon":74.76941,"name":"Faridnagar","type":"station"},{"id":13357467568,"lat":29.88532,"lon":72.22141,"name":"Farm Noor Muhammad","nameLocal":"فارم نور محمد","type":"station"},{"id":1973008528,"lat":31.74288,"lon":73.83192,"name":"Farooqabad","type":"station"},{"id":3064100544,"lat":33.5758,"lon":72.64187,"name":"Fateh Jang Railway Station","nameLocal":"فتح جنگ ریلوے اسٹیشن","type":"station"},{"id":2039592813,"lat":30.0533,"lon":73.86904,"name":"Fatuhi","type":"station"},{"id":720622565,"lat":30.40868,"lon":74.02679,"name":"Fazilka Junction","type":"station"},{"id":6009456877,"lat":30.88345,"lon":74.8047,"name":"Ferozeshah","type":"station"},{"id":705475691,"lat":30.94166,"lon":74.6173,"name":"Firozpur Cantt. Junction","type":"station"},{"id":720622589,"lat":30.9621,"lon":74.60127,"name":"Firozpur City Junction","type":"station"},{"id":11622305363,"lat":33.53879,"lon":72.51599,"name":"Gagan Railway Station","nameLocal":"گگن ریلوے اسٹیشن","type":"station"},{"id":13357448347,"lat":30.21724,"lon":72.82763,"name":"Gagoo","nameLocal":"گگو","type":"station"},{"id":11564935689,"lat":32.17731,"lon":73.76292,"name":"Gajar Gola","nameLocal":"گاجرگولہ ریلوے اسٹیشن","type":"station"},{"id":1939723045,"lat":29.65799,"lon":73.43751,"name":"Gajsinghpur","type":"station"},{"id":2433331669,"lat":32.30188,"lon":74.15213,"name":"Gakkhar Mandi","nameLocal":"گکھڑ منڈی","type":"station"},{"id":1585384089,"lat":37.25328,"lon":67.38905,"name":"Galaba","nameLocal":"G'alaba","type":"station"},{"id":13363811282,"lat":29.59398,"lon":66.27374,"name":"Galangur","nameLocal":"گلنگر","type":"station"},{"id":3188119510,"lat":35.65364,"lon":62.56043,"name":"Galaýmor","type":"station"},{"id":2551519857,"lat":30.44577,"lon":74.87894,"name":"Gangsar Jaito","type":"station"},{"id":3221933028,"lat":38.44387,"lon":64.08055,"name":"Garabekewül","type":"station"},{"id":3221365881,"lat":37.62101,"lon":61.56356,"name":"Garybata","type":"station"},{"id":3312047592,"lat":31.22327,"lon":74.73305,"name":"Gharyala","type":"station"},{"id":8373224122,"lat":34.35162,"lon":61.20458,"name":"Ghorian","nameLocal":"ایستگاه راه آهن غوریان","type":"station"},{"id":67173943,"lat":33.30114,"lon":73.26575,"name":"Ghungrila","nameLocal":"گھنگریلہ ریلوے اسٹیشن","type":"station"},{"id":6292578039,"lat":30.61356,"lon":74.80155,"name":"Giani Zail Singh Sandhwan","type":"station"},{"id":1883467665,"lat":30.20126,"lon":74.66213,"name":"Giddarbaha","type":"station"},{"id":4306718681,"lat":29.7152,"lon":71.47656,"name":"Gilawala","nameLocal":"گیلے والا ریلوے اسٹیشن","type":"station"},{"id":12690732055,"lat":31.14276,"lon":72.68392,"name":"Gojra","nameLocal":"گوجرہ ریلوے سٹیشن","type":"station"},{"id":3221364208,"lat":37.45417,"lon":60.74252,"name":"Göksüýri","type":"station"},{"id":1883468122,"lat":30.78974,"lon":74.7046,"name":"Golehwala","type":"station"},{"id":5045392851,"lat":32.58365,"lon":72.93515,"name":"Golpur railway statio گول پور ریلوے اسٹیشن","type":"station"},{"id":6422526503,"lat":33.6705,"lon":72.94784,"name":"Golra Sharif Junction","nameLocal":"گولڑہ شریف جنکشن ریلوے اسٹیشن","type":"station"},{"id":611921782,"lat":31.56555,"lon":74.31425,"name":"GPO","nameLocal":"جی پی او","type":"station"},{"id":13313374768,"lat":34.22568,"lon":72.01373,"name":"Gujar Garhi","nameLocal":"گجر گڑھی","type":"station"},{"id":2433202104,"lat":33.259,"lon":73.30762,"name":"Gujar Khan","nameLocal":"گوجرخان ریلوے اسٹیشن","type":"station"},{"id":2433331678,"lat":32.19903,"lon":74.18132,"name":"Gujranwala","nameLocal":"گوجرانوالا","type":"station"},{"id":362815866,"lat":32.17659,"lon":74.18761,"name":"Gujranwala","nameLocal":"گوجرانوالہ","type":"station"},{"id":2433331671,"lat":32.24567,"lon":74.16817,"name":"Gujranwala Cantt","nameLocal":"گوجرانوالہ کینٹ","type":"station"},{"id":2418521105,"lat":32.56279,"lon":74.06454,"name":"Gujrat","nameLocal":"گجرات ریلوے اسٹیشن","type":"station"},{"id":13357234344,"lat":30.60327,"lon":73.9128,"name":"Gul Sher","nameLocal":"گل شیر","type":"station"},{"id":4528661445,"lat":37.47384,"lon":64.97763,"name":"Gulistan","type":"station"},{"id":13310823022,"lat":30.63083,"lon":66.63601,"name":"Gulistan","nameLocal":"گلستان","type":"station"},{"id":3742358257,"lat":32.41714,"lon":74.61089,"name":"Gunna Kalan RS","type":"station"},{"id":3221374451,"lat":37.68788,"lon":62.35234,"name":"Gurbangala","type":"station"},{"id":6000343250,"lat":30.71519,"lon":74.4005,"name":"Guruhar Sahai","type":"station"},{"id":6300586298,"lat":30.13882,"lon":74.88634,"name":"Gurusar Sahnewala","type":"station"},{"id":6358029900,"lat":31.60602,"lon":74.68409,"name":"Gurusar Sutlani","type":"station"},{"id":2433508562,"lat":30.95445,"lon":73.74451,"name":"Habib Abad","nameLocal":"حبیب آباد","type":"station"},{"id":11613707922,"lat":32.29714,"lon":72.18066,"name":"Hadali Railway Station","nameLocal":"ہڈالی ریلوے اسٹیشن","type":"station"},{"id":11560804732,"lat":32.07476,"lon":73.69176,"name":"Hafizabad","nameLocal":"حافظ آباد ریلوے اسٹیشن","type":"station"},{"id":9014392563,"lat":37.21493,"lon":67.41928,"name":"Hairitan","nameLocal":"حیرتان","type":"station"},{"id":13356535358,"lat":30.69864,"lon":74.06937,"name":"Haji Chand","nameLocal":"حاجی چاند","type":"station"},{"id":8896042774,"lat":38.05865,"lon":64.86585,"name":"Halach","nameLocal":"Halaç","type":"station"},{"id":1076907403,"lat":34.22256,"lon":74.51216,"name":"Hamre","type":"station"},{"id":4762298487,"lat":29.61171,"lon":74.2936,"name":"Hanumangarh Junction","type":"station"},{"id":360366059,"lat":29.57441,"lon":74.33124,"name":"Hanumangarh Town","type":"station"},{"id":303789888,"lat":30.59839,"lon":72.90684,"name":"Harappa","type":"station"},{"id":2447813882,"lat":32.56254,"lon":73.31883,"name":"Haria","type":"station"},{"id":27332128,"lat":33.98467,"lon":72.9285,"name":"Haripur","nameLocal":"ہری پور","type":"station"},{"id":13304432841,"lat":32.4684,"lon":74.10437,"name":"Haripur Band","nameLocal":"ہری پور بند","type":"station"},{"id":3037408238,"lat":30.09996,"lon":67.93508,"name":"Harnai","nameLocal":"ہرنائی","type":"station"},{"id":3753966922,"lat":29.61188,"lon":73.13306,"name":"Haroonabad","nameLocal":"ہارون آباد","type":"station"},{"id":2424054019,"lat":33.8268,"lon":72.69908,"name":"‎Hasan Abdal","nameLocal":"حسن ابدال","type":"station"},{"id":3752426111,"lat":29.69704,"lon":72.54989,"name":"Hasilpur Railway Station","type":"station"},{"id":13313406013,"lat":34.38629,"lon":71.91928,"name":"Hathiyan","nameLocal":"ہاتھیان","type":"station"},{"id":3306883000,"lat":30.45715,"lon":73.67737,"name":"Haveli Wasawewala","nameLocal":"حویلی وساویوالا","type":"station"},{"id":943150544,"lat":34.05181,"lon":73.15766,"name":"Havelian","nameLocal":"حویلیاں","type":"station"},{"id":13301788544,"lat":34.00686,"lon":72.06032,"name":"Hayat Sher Pao Shaheed","nameLocal":"حیات شیر پاؤ شہید","type":"station"},{"id":1795310413,"lat":30.13647,"lon":73.91664,"name":"Hindumalkot","type":"station"},{"id":3969545499,"lat":29.92963,"lon":67.22666,"name":"Hirok","nameLocal":"ہیروک","type":"station"},{"id":3886643434,"lat":37.15601,"lon":61.05596,"name":"Howuzhan","type":"station"},{"id":4886453213,"lat":30.98789,"lon":74.55448,"name":"Husainiwala","type":"station"},{"id":11618903239,"lat":33.12744,"lon":71.85077,"name":"Injra","nameLocal":"انجرا ریلوے اسٹیشن","type":"station"},{"id":4316808708,"lat":32.67792,"lon":71.26656,"name":"Isa Khel Railway Station","type":"station"},{"id":104638370,"lat":33.66354,"lon":73.04722,"name":"Islamabad Railway Station","nameLocal":"اسلام آباد ریلوے اسٹیشن","type":"station"},{"id":13357960745,"lat":29.85947,"lon":71.74208,"name":"Jafarwala Halt","type":"halt"},{"id":13357960762,"lat":30.04233,"lon":71.81281,"name":"Jahanian","nameLocal":"جہانیاں","type":"station"},{"id":9789976731,"lat":37.06263,"lon":67.31845,"name":"Jaira Tan","type":"station"},{"id":809863808,"lat":30.60746,"lon":74.26917,"name":"Jalalabad","type":"station"},{"id":2406886912,"lat":31.57771,"lon":74.49487,"name":"Jallo","nameLocal":"جلّو","type":"station"},{"id":13314413148,"lat":30.87101,"lon":70.94196,"name":"Jaman Shah","nameLocal":"جمن شاہ","type":"station"},{"id":11564935607,"lat":32.33761,"lon":73.90688,"name":"Jamke Chatha","nameLocal":"جامکے چٹھہ ریلوے اسٹیشن","type":"station"},{"id":2669084999,"lat":32.70604,"lon":74.87999,"name":"Jammu Tawi","type":"station"},{"id":13348456937,"lat":29.63842,"lon":70.57725,"name":"Jampur","nameLocal":"جام پور","type":"station"},{"id":13357659939,"lat":29.58118,"lon":71.74532,"name":"Jamraniwah","nameLocal":"جمرانی واہ","type":"station"},{"id":2433024865,"lat":34.00732,"lon":71.37805,"name":"Jamrud","nameLocal":"جمرود","type":"station"},{"id":12719379572,"lat":30.49532,"lon":72.09378,"name":"Jan Muhammad Wala","nameLocal":"جان محمد والا ریلوے اسٹیشن","type":"station"},{"id":3882639533,"lat":33.4402,"lon":72.01133,"name":"Jand Junction","nameLocal":"جنڈ جنکشن ریلوے اسٹیشن","type":"station"},{"id":6382645012,"lat":31.37832,"lon":74.88502,"name":"Jandoke","type":"station"},{"id":13357960799,"lat":30.18315,"lon":71.86818,"name":"Jangal Mariala","nameLocal":"جنگل مڑیالہ","type":"station"},{"id":12697239879,"lat":31.04809,"lon":72.5816,"name":"Janiwala","nameLocal":"جانی والہ ریلوے اسٹیشن","type":"station"},{"id":5419801588,"lat":30.72502,"lon":72.20881,"name":"Jarala","nameLocal":"جڑالہ ریلوے اسٹیشن","type":"station"},{"id":253515843,"lat":31.33541,"lon":73.42487,"name":"Jaranwala","nameLocal":"جڑانوالہ","type":"station"},{"id":4526226152,"lat":38.39019,"lon":66.32159,"name":"jarkuduk","nameLocal":"Jarquduq","type":"station"},{"id":1584496330,"lat":37.50131,"lon":67.40467,"name":"Jarqo'rg'on","type":"station"},{"id":11613701319,"lat":32.29166,"lon":72.28201,"name":"Jauharabad Railway Station","nameLocal":"جوہرآباد ریلوے اسٹیشن","type":"station"},{"id":2445623584,"lat":32.65606,"lon":73.84057,"name":"Jaurah Karnana","nameLocal":"جوره کرنانا","type":"station"},{"id":2653607928,"lat":33.95833,"lon":72.19715,"name":"Jehangira","nameLocal":"جہانگیرا","type":"station"},{"id":6334642962,"lat":30.50912,"lon":74.59979,"name":"Jhabelwali","type":"station"},{"id":876095863,"lat":33.63378,"lon":72.33326,"name":"Jhalar","nameLocal":"جھلار","type":"station"},{"id":11619651365,"lat":33.29503,"lon":71.89862,"name":"Jhamat","nameLocal":"جھمٹ ریلوے اسٹیشن","type":"station"},{"id":1975084311,"lat":31.26035,"lon":72.32643,"name":"Jhang Sadar","nameLocal":"جھنگ صدر","type":"station"},{"id":2433212969,"lat":32.92922,"lon":73.72586,"name":"Jhelum","nameLocal":"جہلم ریلوے اسٹیشن","type":"station"},{"id":6334691069,"lat":30.80054,"lon":74.48662,"name":"Jhok Tahal Singh","type":"station"},{"id":2433398693,"lat":31.3304,"lon":74.26679,"name":"Jia Bagga","nameLocal":"جیا بگا","type":"station"},{"id":6334697367,"lat":30.6565,"lon":74.33987,"name":"Jiwa Arain","type":"station"},{"id":13313202753,"lat":34.01842,"lon":71.99272,"name":"Kabul River","nameLocal":"کابل دریا","type":"station"},{"id":2433646751,"lat":30.37371,"lon":72.14319,"name":"Kacha Khuh","nameLocal":"کچہ کھوہ","type":"station"},{"id":11622069020,"lat":33.53675,"lon":72.32335,"name":"Kahal Railway Station","nameLocal":"کاہل ریلوے اسٹیشن","type":"station"},{"id":251156253,"lat":29.62845,"lon":71.89892,"name":"Kahror Pakka","nameLocal":"کہروڑپکا","type":"station"},{"id":6382647721,"lat":31.33599,"lon":74.86874,"name":"Kairon","type":"station"},{"id":2433202114,"lat":32.96293,"lon":73.69489,"name":"Kala Gujran","nameLocal":"کالا گُجراں ریلوے اسٹیشن","type":"station"},{"id":9325976857,"lat":31.83235,"lon":74.46102,"name":"Kala Khatai Station","nameLocal":"کالا خطائی اسٹیشن","type":"station"},{"id":4907178055,"lat":31.71973,"lon":74.27352,"name":"Kala Shah Kaku","nameLocal":"کالا شاہ کاکو","type":"station"},{"id":11616206876,"lat":32.9607,"lon":71.53618,"name":"Kalabagh Railway Station","nameLocal":"کالاباغ ریلوے اسٹیشن","type":"station"},{"id":11531754876,"lat":31.97456,"lon":73.59935,"name":"Kaleke","nameLocal":"کالیکی ریلوے اسٹیشن","type":"station"},{"id":11258198213,"lat":33.43277,"lon":73.22306,"name":"Kaliam Awan","nameLocal":"کلیام آوان ریلوے اسٹیشن","type":"station"},{"id":13313374774,"lat":34.24205,"lon":71.9856,"name":"Kalpani","nameLocal":"کلپانی","type":"station"},{"id":4318297699,"lat":32.1525,"lon":71.26502,"name":"Kalur Kot","nameLocal":"کلورکوٹ‎","type":"station"},{"id":2433202113,"lat":33.02399,"lon":73.6588,"name":"Kaluwal","nameLocal":"کالووال ریلوے اسٹیشن","type":"station"},{"id":943128037,"lat":30.73069,"lon":72.62859,"name":"Kamalia Station","type":"station"},{"id":2433331700,"lat":31.98181,"lon":74.22594,"name":"Kamoke","nameLocal":"کامونکی","type":"station"},{"id":2433376132,"lat":31.40049,"lon":74.30562,"name":"Kana Kacha","nameLocal":"کانا کاچھا","type":"station"},{"id":13363560287,"lat":29.89824,"lon":66.74029,"name":"Kanak","nameLocal":"کانک","type":"station"},{"id":11747114106,"lat":30.75845,"lon":74.12198,"name":"Kanganpur","nameLocal":"کنگنپور","type":"station"},{"id":943136115,"lat":30.92312,"lon":72.9611,"name":"Kanjwani Station","type":"station"},{"id":13348193602,"lat":31.21881,"lon":70.96362,"name":"Karor","nameLocal":"کروڑ","type":"station"},{"id":2433633685,"lat":30.4904,"lon":72.53645,"name":"Kassowal","type":"station"},{"id":1883468149,"lat":30.86952,"lon":74.66565,"name":"Kasu Begu","type":"station"},{"id":13356172443,"lat":31.12214,"lon":74.43867,"name":"Kasur Bypass","type":"station"},{"id":11747086748,"lat":31.11789,"lon":74.44267,"name":"Kasur Junction","nameLocal":"قصور جنکشن","type":"station"},{"id":13346752117,"lat":34.04943,"lon":71.25096,"name":"Kata Kushta","nameLocal":"کٹا کشتہ","type":"station"},{"id":4317541033,"lat":32.29127,"lon":72.43128,"name":"Katimar","type":"station"},{"id":9808631427,"lat":37.7894,"lon":65.93193,"name":"Kazarma","type":"station"},{"id":8897270355,"lat":37.36356,"lon":66.31742,"name":"Kelif (Keleft)","type":"station"},{"id":2666729170,"lat":38.46598,"lon":65.79743,"name":"Kengsoy","type":"station"},{"id":8896042393,"lat":37.81676,"lon":65.17553,"name":"Kerki (Atamyrat)","type":"station"},{"id":3885994647,"lat":37.85118,"lon":65.24216,"name":"Kerkiçi","type":"station"},{"id":1939723048,"lat":29.95092,"lon":73.61926,"name":"Kesri Singhpur","type":"station"},{"id":6334686148,"lat":30.90323,"lon":74.55209,"name":"Khai Phemeki","type":"station"},{"id":13301973742,"lat":33.90022,"lon":72.22628,"name":"Khairabad Kund","nameLocal":"خیرآباد کنڈ","type":"station"},{"id":2433646752,"lat":30.30961,"lon":71.92939,"name":"Khanewal Junction","nameLocal":"خانیوال جنکشن ریلوے اسٹیشن","type":"station"},{"id":4111630991,"lat":32.41186,"lon":71.45478,"name":"Khanqah Sirajia","nameLocal":"خانقاہ سراجیہ","type":"station"},{"id":2417418752,"lat":32.8157,"lon":73.85606,"name":"Kharian","nameLocal":"کھاریاں ریلوے اسٹیشن","type":"station"},{"id":2417432437,"lat":32.77349,"lon":73.88998,"name":"Kharian Cantt","nameLocal":"کھاریاں چھاؤنی ریلوے اسٹیشن","type":"station"},{"id":6058630995,"lat":31.6124,"lon":74.72851,"name":"Khasa","type":"station"},{"id":13355702622,"lat":29.67134,"lon":73.17469,"name":"Khatan","nameLocal":"کھاٹن","type":"station"},{"id":3893904713,"lat":37.8522,"lon":68.87196,"name":"Khation","nameLocal":"Хатлон","type":"station"},{"id":6298013422,"lat":30.00854,"lon":73.84876,"name":"Khatlabana","type":"station"},{"id":11619071198,"lat":33.17253,"lon":71.86363,"name":"Khattakabad","nameLocal":"خٹک آباد ریلوے اسٹیشن","type":"station"},{"id":720630409,"lat":31.13978,"lon":74.55346,"name":"Khem Karan","type":"station"},{"id":7231988723,"lat":32.64081,"lon":73.00951,"name":"Khewra","nameLocal":"کھیوڑہ","type":"station"},{"id":7943620444,"lat":32.6477,"lon":73.00835,"name":"Khewra Salt Mines","type":"station"},{"id":13361307157,"lat":30.22365,"lon":67.57837,"name":"Khost","nameLocal":"خوست","type":"station"},{"id":3315155019,"lat":30.99402,"lon":74.27695,"name":"Khudian Khas","nameLocal":"کھوڈیاں خاص","type":"station"},{"id":2941394196,"lat":30.30519,"lon":74.07833,"name":"Khui Khera","type":"station"},{"id":11613691149,"lat":32.29866,"lon":72.34253,"name":"Khushab Railway Station","nameLocal":"خوشاب ریلوے سٹیشن","type":"station"},{"id":13314222868,"lat":33.47323,"lon":71.87045,"name":"Khushal Garh","nameLocal":"خوشحال گڑھ","type":"station"},{"id":2432160532,"lat":34.00944,"lon":71.93883,"name":"Khushhal","nameLocal":"خوشحال","type":"station"},{"id":13357282306,"lat":30.51203,"lon":73.75734,"name":"Kila Dewa Singh","nameLocal":"قلعہ دیوا سنگھ","type":"station"},{"id":4869316769,"lat":32.23017,"lon":74.76344,"name":"Kila Sobha Singh","nameLocal":"قلعہ سوبھا سنگھ","type":"station"},{"id":6297961019,"lat":30.13729,"lon":74.11527,"name":"Kilanwali Punjab","type":"station"},{"id":13310823071,"lat":30.73457,"lon":66.65255,"name":"Killa Abdullah","nameLocal":"قلعہ عبداللہ","type":"station"},{"id":13363563778,"lat":29.76562,"lon":66.43679,"name":"Kirdagap","nameLocal":"کرداگاپ","type":"station"},{"id":3948032668,"lat":29.57722,"lon":66.15581,"name":"Kishingi","nameLocal":"کیشنگی","type":"station"},{"id":2433508566,"lat":30.84421,"lon":73.52365,"name":"Kissan","type":"station"},{"id":3221981489,"lat":35.964,"lon":62.72717,"name":"Km 220","type":"station"},{"id":6334691927,"lat":30.76015,"lon":74.44563,"name":"Kohar Singh Wala","type":"station"},{"id":264592160,"lat":33.57202,"lon":71.45159,"name":"Kohat","nameLocal":"کوہاٹ","type":"station"},{"id":876095851,"lat":33.5719,"lon":71.45109,"name":"Kohat Cantt","nameLocal":"کوہاٹ","type":"station"},{"id":3966717519,"lat":29.69968,"lon":67.50922,"name":"Kohsar","nameLocal":"کوہسار","type":"station"},{"id":3953659168,"lat":29.90152,"lon":67.1349,"name":"Kolpur","nameLocal":"کول پور","type":"station"},{"id":4526176086,"lat":38.26495,"lon":66.61115,"name":"Koradahna","type":"station"},{"id":2433646753,"lat":30.26188,"lon":71.77141,"name":"Kot Abbas Shaheed","nameLocal":"کوٹ عباس شہید ریلوے اسٹیشن","type":"station"},{"id":5296227842,"lat":30.46935,"lon":70.96226,"name":"Kot Adu Junction","nameLocal":"کوٹ ادو جنکشن ریلوے اسٹیشن‬","type":"station"},{"id":811256224,"lat":30.57985,"lon":74.8174,"name":"Kot Kapura Junction","type":"station"},{"id":2433376123,"lat":31.45961,"lon":74.33855,"name":"Kot Lakhpat","nameLocal":"کوٹ لکھپت","type":"station"},{"id":943954724,"lat":33.92798,"lon":72.862,"name":"Kot Najibullah Station","type":"station"},{"id":13357282625,"lat":30.30306,"lon":73.13693,"name":"Kot Pir Abdul Aziz Halt","nameLocal":"کوٹ پیر عبد العزیز ہالٹ","type":"halt"},{"id":2433405827,"lat":31.17084,"lon":74.09973,"name":"Kot Radha kishan","nameLocal":"کوٹ رادھا کشن","type":"station"},{"id":12697220972,"lat":31.19495,"lon":72.7367,"name":"Kot Saleem Shaheed","nameLocal":"کوٹ سلیم شہید ریلوے اسٹیشن","type":"station"},{"id":4936420515,"lat":30.76448,"lon":70.93528,"name":"Kot Sultan","nameLocal":"کوٹ سلطان","type":"station"},{"id":8991614869,"lat":31.70261,"lon":71.09567,"name":"Kotla Jam","nameLocal":"کوٹلہ جام","type":"station"},{"id":1584542559,"lat":37.52566,"lon":66.02502,"name":"Köýtendag","type":"station"},{"id":13359948570,"lat":29.84558,"lon":68.0375,"name":"Kuchali Halt","nameLocal":"کچلی","type":"halt"},{"id":3955477798,"lat":30.35406,"lon":66.9498,"name":"Kuchlak","nameLocal":"کچلاک","type":"station"},{"id":3613544821,"lat":38.40464,"lon":68.0618,"name":"Kudukli","type":"station"},{"id":11747098702,"lat":30.81987,"lon":74.20187,"name":"Kul Mokal","nameLocal":"کل موکل","type":"abandoned"},{"id":3893900430,"lat":37.89196,"lon":69.77581,"name":"Kulob Train Station","nameLocal":"Кӯлоб","type":"station"},{"id":1584517037,"lat":37.83432,"lon":67.59147,"name":"Kumkurgan","nameLocal":"Qumqo‘rg‘on","type":"station"},{"id":11613774168,"lat":32.4532,"lon":71.48644,"name":"Kundian Junction","nameLocal":"کندیاں جنکشن ریلوے اسٹیشن","type":"station"},{"id":13357467514,"lat":30.07442,"lon":72.43602,"name":"Kussam Sar","type":"station"},{"id":13357960721,"lat":29.90206,"lon":71.75884,"name":"Kutabpur","nameLocal":"قُطب پُور","type":"station"},{"id":5330107187,"lat":30.5008,"lon":74.12281,"name":"Ladhuka","type":"station"},{"id":2433364441,"lat":31.53055,"lon":74.36112,"name":"Lahore Cantonment","nameLocal":"لاہور چھاؤنی","type":"station"},{"id":11927909701,"lat":31.5774,"lon":74.33648,"name":"Lahore Junction","nameLocal":"لاہور جنکشن","type":"station"},{"id":6334654188,"lat":30.4483,"lon":74.34253,"name":"Lakhewali","type":"station"},{"id":611921100,"lat":31.56866,"lon":74.32709,"name":"Lakshmi","nameLocal":"لکشمی","type":"station"},{"id":663714298,"lat":32.70004,"lon":73.9495,"name":"Lala Musa Junction","nameLocal":"لالہ موسیٰ جنکشن ریلوے اسٹیشن","type":"station"},{"id":13363811426,"lat":29.59356,"lon":66.09197,"name":"Landi","type":"station"},{"id":13346752076,"lat":34.10949,"lon":71.10952,"name":"Landi Khana","nameLocal":"لنڈی خانہ","type":"station"},{"id":2432077419,"lat":34.09372,"lon":71.1466,"name":"Landi Kotal","nameLocal":"لنڈی کوتل","type":"station"},{"id":13363811239,"lat":29.61792,"lon":66.31836,"name":"Landi Number Fifteen","type":"station"},{"id":13363800396,"lat":29.66285,"lon":66.36283,"name":"Landi Number Fourteen","type":"station"},{"id":13363800350,"lat":29.71957,"lon":66.39642,"name":"Landi Number Thirteen","type":"station"},{"id":11623176177,"lat":33.45763,"lon":72.05255,"name":"Langar Halt","nameLocal":"لنگر ریلوے اسٹیشن","type":"station"},{"id":2978044465,"lat":30.9681,"lon":70.94338,"name":"Leiah","nameLocal":"لیہ","type":"station"},{"id":251114105,"lat":29.54038,"lon":71.62301,"name":"Lodhran Junction Railway Station","nameLocal":"لودھراں جنکشن ریلوے اسٹیشن","type":"station"},{"id":2433164395,"lat":33.57404,"lon":73.15753,"name":"Lohi Bher","nameLocal":"لوہی بھیر ریلوے اسٹیشن","type":"station"},{"id":8059137684,"lat":31.07985,"lon":74.00167,"name":"Lunar Lake","type":"station"},{"id":13361883736,"lat":29.86394,"lon":67.32517,"name":"Mach","nameLocal":"مچھ","type":"station"},{"id":13357467486,"lat":30.10327,"lon":72.52034,"name":"Machhianwala","nameLocal":"ماچھیانوالہ","type":"station"},{"id":2433164394,"lat":33.63263,"lon":72.96859,"name":"Madina Tul Hujjaj","nameLocal":"‎مدنیتہ الحجاج ریلوے اسٹیشن","type":"station"},{"id":943128034,"lat":30.74029,"lon":72.51653,"name":"Magneja Station","type":"station"},{"id":4884207993,"lat":30.99762,"lon":74.69789,"name":"Mahalam","type":"station"},{"id":4307667084,"lat":32.03785,"lon":71.20217,"name":"Maibal","nameLocal":"میبل","type":"station"},{"id":13357467563,"lat":29.8073,"lon":72.17691,"name":"Mailsi","nameLocal":"میلسی","type":"station"},{"id":876044050,"lat":33.03717,"lon":71.78572,"name":"Makhad Road","nameLocal":"مکھڈ روڈ ریلوے اسٹیشن","type":"station"},{"id":12719468045,"lat":30.43957,"lon":72.04582,"name":"Makhdumpur Pahoran","nameLocal":"مخدوم پور پہوڑاں ریلوے اسٹیشن","type":"station"},{"id":2447748755,"lat":32.55307,"lon":73.21293,"name":"Malakwal","nameLocal":"ملکوال","type":"station"},{"id":6371571986,"lat":31.04728,"lon":74.8136,"name":"Mallanwala Khas","type":"station"},{"id":1598918632,"lat":30.18538,"lon":74.49619,"name":"Malout","type":"station"},{"id":943136112,"lat":30.8325,"lon":72.7991,"name":"Mamu Kanjan Station","type":"station"},{"id":360366007,"lat":29.67987,"lon":74.38367,"name":"Manaksar","type":"station"},{"id":11646393571,"lat":32.3001,"lon":73.84723,"name":"Manchar Chatha","nameLocal":"منچھر چٹھہ ریلوے اسٹیشن","type":"station"},{"id":13356535393,"lat":30.65491,"lon":74.02707,"name":"Mandi Ahmed Abad","nameLocal":"منڈی احمد آباد","type":"station"},{"id":2445623550,"lat":32.58838,"lon":73.4922,"name":"Mandi Bahauddin","nameLocal":"منڈی بہاؤالدین‬","type":"station"},{"id":3137619051,"lat":30.15534,"lon":72.68152,"name":"Mandi Burewala","nameLocal":"منڈی بُورے والا","type":"station"},{"id":6300600927,"lat":29.96631,"lon":74.70074,"name":"Mandi Dabwali","type":"station"},{"id":10270375605,"lat":30.15368,"lon":73.73865,"name":"Mandi Sadiq Ganj","type":"station"},{"id":9581803356,"lat":33.36466,"lon":73.23803,"name":"Mandra","nameLocal":"مندرہ ریلوے اسٹیشن","type":"station"},{"id":2433164398,"lat":33.47751,"lon":73.24043,"name":"Mankiala","nameLocal":"مانکیالہ ریلوے اسٹیشن","type":"station"},{"id":1973032037,"lat":32.3814,"lon":74.00202,"name":"Mansurwali","nameLocal":"منصوروالی ریلوے اسٹیشن","type":"station"},{"id":4732673365,"lat":34.1845,"lon":72.03313,"name":"Mardan Junction","nameLocal":"مردان","type":"station"},{"id":2440120585,"lat":31.78328,"lon":73.43649,"name":"Marh Balochan","nameLocal":"مڑھ بلوچاں ریلوے اسٹیشن","type":"station"},{"id":3457691820,"lat":32.95522,"lon":71.56184,"name":"Mari Indus Railway Station","nameLocal":"ماڑی انڈس ریلوے اسٹیشن","type":"station"},{"id":8411484086,"lat":36.13028,"lon":60.61142,"name":"Marzdaran","nameLocal":"مرزداران","type":"station"},{"id":11616382737,"lat":32.92759,"lon":71.71852,"name":"Masan","nameLocal":"مسّان ریلوے اسٹیشن","type":"station"},{"id":3953658484,"lat":29.87881,"lon":66.84146,"name":"Mastung Walikhan","nameLocal":"مستونگ","type":"station"},{"id":13357282454,"lat":30.40393,"lon":73.5391,"name":"Maulviwala","nameLocal":"مولوی والا","type":"station"},{"id":9014392603,"lat":36.72631,"lon":67.28454,"name":"Mazar-i-Sharif","nameLocal":"ایستگاه راه آهن مزار شریف","type":"station"},{"id":1308949593,"lat":34.11044,"lon":74.61918,"name":"Mazhama Railway Station","type":"station"},{"id":4751785413,"lat":34.1104,"lon":74.61905,"name":"Mazhom","type":"station"},{"id":13347265858,"lat":34.00823,"lon":71.30837,"name":"Medanak","nameLocal":"میڈانک","type":"station"},{"id":11644854626,"lat":30.23681,"lon":71.88636,"name":"Mehar Shah","nameLocal":"مہر شاہ","type":"station"},{"id":4397244487,"lat":30.19658,"lon":70.97574,"name":"Mehmood Kot Railway","type":"station"},{"id":707559486,"lat":33.66078,"lon":73.0656,"name":"Metro Bus Terminal Photohar","type":"station"},{"id":2433633690,"lat":30.43749,"lon":72.35754,"name":"Mian Channu Railway Station","nameLocal":"مياں چنوں ریلوے سٹیشن","type":"station"},{"id":12719888473,"lat":30.36655,"lon":71.99117,"name":"Mian Shamir","nameLocal":"میاں شمیر ریلوے اسٹیشن","type":"station"},{"id":11613795730,"lat":32.57939,"lon":71.53532,"name":"Mianwali","nameLocal":"میانوالی ریلوے اسٹیشن","type":"station"},{"id":11630358242,"lat":33.19689,"lon":73.36835,"name":"Missa Kassowal","nameLocal":"مِسّہ کسَوال ریلوے اسٹیشن","type":"station"},{"id":2447848975,"lat":32.13549,"lon":72.77718,"name":"Mitha Lak","type":"station"},{"id":11613755001,"lat":32.29691,"lon":72.08797,"name":"Mitha Tiwana Railway Station","nameLocal":"مِٹھہّ ٹوانہ ریلوے اسٹیشن","type":"station"},{"id":13359409671,"lat":29.38764,"lon":67.85695,"name":"Mithri","nameLocal":"مٹھری","type":"station"},{"id":10051063687,"lat":31.56041,"lon":74.37938,"name":"Moghalpura","nameLocal":"مغلپورہ","type":"station"},{"id":6332387835,"lat":29.50813,"lon":73.46701,"name":"Mohan Nagar","type":"station"},{"id":3221370129,"lat":37.60351,"lon":61.93586,"name":"Mollanepes","type":"station"},{"id":2447748773,"lat":32.4214,"lon":73.06465,"name":"Mona","type":"station"},{"id":13355697020,"lat":29.53278,"lon":73.07302,"name":"Mubarakabad Halt","nameLocal":"مبارکبادہالٹ","type":"halt"},{"id":13357448330,"lat":30.26672,"lon":72.98222,"name":"Muhammad Nagar","nameLocal":"محمد نگر","type":"station"},{"id":13316937429,"lat":29.47846,"lon":70.49319,"name":"Muhammad Pur Diwan","nameLocal":"محمد پور دیوان","type":"station"},{"id":13357659962,"lat":29.57179,"lon":71.68734,"name":"Mujaldiwala Halt","nameLocal":"مجاہد والا ہالٹ","type":"halt"},{"id":8896057139,"lat":37.59894,"lon":65.73258,"name":"Mukry","type":"station"},{"id":811256261,"lat":30.4788,"lon":74.51471,"name":"Muktsar","type":"station"},{"id":12723444285,"lat":30.18047,"lon":71.44467,"name":"Multan Cantt","nameLocal":"ملتان چھاؤنی ریلوے اسٹیشن","type":"station"},{"id":12723558390,"lat":30.18233,"lon":71.46543,"name":"Multan City","nameLocal":"ملتان شہر ریلوے اسٹیشن","type":"station"},{"id":13357282587,"lat":30.31088,"lon":73.20444,"name":"Murad Chishti","nameLocal":"مراد چشتی","type":"station"},{"id":2433331703,"lat":31.80078,"lon":74.259,"name":"Muridke","nameLocal":"مریدکے","type":"station"},{"id":3966714667,"lat":29.56478,"lon":67.73062,"name":"Mushkaf","nameLocal":"مشکاف","type":"station"},{"id":4867410421,"lat":30.80822,"lon":67.74115,"name":"Muslim Bagh","type":"station"},{"id":4319158597,"lat":30.13508,"lon":71.36509,"name":"Muzafarabad","nameLocal":"مظفرآباد ریلوے اسٹیشن","type":"station"},{"id":849927573,"lat":30.08418,"lon":71.19397,"name":"Muzaffargarh","nameLocal":"مظفر گڑھ","type":"station"},{"id":943128028,"lat":30.78272,"lon":72.33917,"name":"Naeem Ishfaq Shaheed Station","type":"station"},{"id":9789873274,"lat":36.80899,"lon":67.3913,"name":"Naibabat","type":"station"},{"id":12122477155,"lat":34.06915,"lon":74.66153,"name":"Naid Gaam Railway Station","type":"station"},{"id":13361157964,"lat":30.14165,"lon":67.83623,"name":"Nakus","nameLocal":"ناکوس","type":"station"},{"id":11621708715,"lat":33.50607,"lon":72.1183,"name":"Nammal","nameLocal":"نمل ریلوے اسٹیشن","type":"station"},{"id":1327236722,"lat":31.4553,"lon":73.70929,"name":"Nankana Sahib Railway Station","type":"station"},{"id":2408171493,"lat":31.90387,"lon":74.51692,"name":"Narang Mandi","nameLocal":"نارنگ منڈی","type":"station"},{"id":8220610751,"lat":29.65415,"lon":67.88881,"name":"Nari","nameLocal":"ناری","type":"station"},{"id":13361611035,"lat":29.5233,"lon":67.79736,"name":"Nari Bank","nameLocal":"ناری بنک","type":"station"},{"id":13301788538,"lat":34.01888,"lon":71.67795,"name":"Nasarpur","nameLocal":"نصرپور","type":"station"},{"id":13304631331,"lat":31.92242,"lon":73.55391,"name":"Nautheh","nameLocal":"نوتہیہ","type":"station"},{"id":12723558376,"lat":30.18373,"lon":71.5168,"name":"New Multan City","nameLocal":"نیو ملتان سٹی ریلوے اسٹیشن","type":"station"},{"id":12694852944,"lat":31.44978,"lon":73.1195,"name":"Nishatabad","nameLocal":"نشاط آباد ریلوے اسٹیشن","type":"station"},{"id":6677556524,"lat":32.42964,"lon":74.11768,"name":"Nizamabad","nameLocal":"نظام آباد ریلوے اسٹیشن","type":"station"},{"id":3792693385,"lat":38.35773,"lon":65.61245,"name":"No 154","type":"station"},{"id":12451325385,"lat":37.37745,"lon":66.5375,"name":"No 162","type":"station"},{"id":12435265100,"lat":37.60612,"lon":67.45646,"name":"No 165","type":"station"},{"id":4317475930,"lat":31.47672,"lon":71.03966,"name":"Notak","nameLocal":"نوتک","type":"station"},{"id":1260508616,"lat":37.3837,"lon":67.09811,"name":"Noushaxar","type":"station"},{"id":863716247,"lat":34.00023,"lon":72.00546,"name":"Nowshera Junction","nameLocal":"نوشہرہ جنکشن","type":"station"},{"id":2160198093,"lat":33.62884,"lon":73.01343,"name":"Nur","nameLocal":"نور ریلوے اسٹیشن","type":"station"},{"id":12697232541,"lat":31.08871,"lon":72.63355,"name":"Nur Pur","nameLocal":"نور پور ریلوے اسٹیشن","type":"station"},{"id":13357467550,"lat":29.93648,"lon":72.24567,"name":"Nur Shah","type":"station"},{"id":1811845539,"lat":29.54428,"lon":66.05097,"name":"Nushki","nameLocal":"نوشکی","type":"station"},{"id":2632812048,"lat":37.34179,"lon":61.09313,"name":"Oguzhan","type":"station"},{"id":2433508567,"lat":30.80528,"lon":73.44428,"name":"Okara","type":"station"},{"id":2433522638,"lat":30.75015,"lon":73.3318,"name":"Okara Cantt","type":"station"},{"id":4525724131,"lat":37.88824,"lon":67.53887,"name":"Okjar","type":"station"},{"id":4526029172,"lat":38.21498,"lon":66.8898,"name":"Oknazar","type":"station"},{"id":2444933330,"lat":38.2609,"lon":66.8296,"name":"Okrabot","type":"station"},{"id":462157638,"lat":32.23179,"lon":70.38177,"name":"old railway station tank","type":"station"},{"id":307527622,"lat":34.01337,"lon":71.78093,"name":"Pabbi","nameLocal":"پبی","type":"station"},{"id":4936420518,"lat":30.69882,"lon":70.94496,"name":"Pahar Pur","type":"station"},{"id":11615140780,"lat":32.7647,"lon":71.57478,"name":"Pai Khel","nameLocal":"پائی خیل ریلوے اسٹیشن","type":"station"},{"id":13316937408,"lat":29.9509,"lon":70.63328,"name":"Paigah","nameLocal":"پائیگاہ","type":"station"},{"id":2447748779,"lat":32.47954,"lon":73.11612,"name":"Pakhowal","type":"station"},{"id":12697171406,"lat":31.24564,"lon":72.79802,"name":"Pakka Anna","nameLocal":"پکَاانّا ریلوے اسٹیشن","type":"station"},{"id":13357282574,"lat":30.31895,"lon":73.27457,"name":"Pakka Sidhar","nameLocal":"پکا سدھار","type":"station"},{"id":6297952871,"lat":30.1632,"lon":74.34674,"name":"Pakki","type":"station"},{"id":13357282521,"lat":30.35502,"lon":73.39512,"name":"Pakpattan","nameLocal":"پاکپتن","type":"station"},{"id":3966714669,"lat":29.67564,"lon":67.54623,"name":"Panir","nameLocal":"پانیر","type":"station"},{"id":13314413144,"lat":31.91751,"lon":71.15392,"name":"Panj Girain","nameLocal":"پنجگرائیں","type":"station"},{"id":3644568685,"lat":30.13836,"lon":74.04984,"name":"Panj Kosi","type":"station"},{"id":2632812120,"lat":37.51387,"lon":61.03084,"name":"Parahat","type":"station"},{"id":13313374797,"lat":34.33008,"lon":71.93751,"name":"Parkhoo Dheri","nameLocal":"پرخوڈھیری","type":"station"},{"id":13357960792,"lat":30.12642,"lon":71.8467,"name":"Parvezwala","nameLocal":"پرویز والا","type":"station"},{"id":1778013876,"lat":32.27349,"lon":74.66874,"name":"Pasrur","nameLocal":"پسرور","type":"station"},{"id":4751778134,"lat":34.16583,"lon":74.56331,"name":"Pattan","type":"station"},{"id":1352381694,"lat":31.28777,"lon":74.85547,"name":"Patti","type":"station"},{"id":2433482231,"lat":31.01906,"lon":73.8539,"name":"Pattoki","nameLocal":"پتوکی","type":"station"},{"id":3966714670,"lat":29.61745,"lon":67.66695,"name":"Pehro Kunri","nameLocal":"پھیرو کنری","type":"station"},{"id":401822056,"lat":38.19104,"lon":64.51196,"name":"Pelwert","type":"station"},{"id":3966714673,"lat":29.46625,"lon":67.84333,"name":"Perak","type":"station"},{"id":307633246,"lat":34.00225,"lon":71.55041,"name":"Peshawar Cantonment","nameLocal":"پشاور چھاؤنی","type":"station"},{"id":2432067850,"lat":34.01798,"lon":71.58695,"name":"Peshawar City","nameLocal":"پشاور شہر","type":"station"},{"id":2001269626,"lat":38.31576,"lon":62.99557,"name":"Peshhi","nameLocal":"Peşhi","type":"station"},{"id":3966714676,"lat":29.72766,"lon":67.48527,"name":"Peshi","nameLocal":"پیشی","type":"station"},{"id":2447748763,"lat":32.35988,"lon":73.01041,"name":"Phularwan","nameLocal":"پھلروان","type":"station"},{"id":1910026315,"lat":29.48388,"lon":74.07884,"name":"Pili Bangan","type":"station"},{"id":3670752033,"lat":32.59395,"lon":73.04598,"name":"Pind Dadan Khan","nameLocal":"پنڈ دادن خان","type":"station"},{"id":2447748776,"lat":32.45143,"lon":73.09122,"name":"Pind Makko","nameLocal":"پنڈ مکو","type":"station"},{"id":2447935921,"lat":31.97011,"lon":72.63893,"name":"Pindi Rasool","type":"station"},{"id":2433202106,"lat":33.22647,"lon":73.33908,"name":"Pindora Railway Station","nameLocal":"پنڈورا ریلوے اسٹیشن","type":"station"},{"id":4292881142,"lat":32.2923,"lon":71.36878,"name":"Piplan","nameLocal":"پپلاں ریلوے اسٹیشن","type":"station"},{"id":6292589530,"lat":30.73136,"lon":74.73312,"name":"Pipli Pakhi Kalan","type":"station"},{"id":2445623579,"lat":32.64615,"lon":73.80307,"name":"Pir Jand","nameLocal":"پیر جنڈ","type":"station"},{"id":943081548,"lat":30.76229,"lon":72.4245,"name":"Pir Mahal Railway Station","type":"station"},{"id":13301788541,"lat":34.00973,"lon":71.89738,"name":"Pir Piai","nameLocal":"پیر پیائی","type":"station"},{"id":12723560202,"lat":30.19671,"lon":71.55793,"name":"Piran Ghaib","nameLocal":"پیراں غائب ریلوے اسٹیشن","type":"station"},{"id":2433405826,"lat":31.20648,"lon":74.15581,"name":"Premnagar","nameLocal":"پریم نگر","type":"station"},{"id":6332411647,"lat":29.9594,"lon":73.71338,"name":"Prithvirajpur","type":"station"},{"id":4233550993,"lat":38.09141,"lon":67.34428,"name":"Pulhakim","nameLocal":"Pulhokim","type":"station"},{"id":4798455744,"lat":32.33708,"lon":71.89916,"name":"Quaidabad Railway Station","nameLocal":"قائدآباد ریلوے اسٹیشن","type":"station"},{"id":10943558665,"lat":37.47924,"lon":68.32241,"name":"Qubodiyon Train Stop","nameLocal":"Қубодиён","type":"station"},{"id":2447846964,"lat":32.24023,"lon":72.8766,"name":"Qudratabad","type":"station"},{"id":2669085020,"lat":30.19163,"lon":67.00076,"name":"Quetta","nameLocal":"کوئٹہ","type":"station"},{"id":12200963982,"lat":30.19148,"lon":67.00136,"name":"Quetta Train Station","type":"station"},{"id":11623216707,"lat":33.57734,"lon":72.76152,"name":"Qutbal Railway Station","nameLocal":"قطبال ریلوے اسٹیشن","type":"station"},{"id":13355360949,"lat":29.39373,"lon":72.99499,"name":"Rafiq-Abad","nameLocal":"رفیق -آباد","type":"station"},{"id":2510742845,"lat":30.94725,"lon":73.00051,"name":"Rahme Shah","type":"station"},{"id":1939723079,"lat":29.53728,"lon":73.45055,"name":"Rai Singh Nagar","type":"station"},{"id":1323034993,"lat":30.80505,"lon":73.44469,"name":"Railway Station Okara","type":"station"},{"id":2408040528,"lat":31.25063,"lon":74.2222,"name":"Raiwind Junction","nameLocal":"رائے ونڈ جنکشن","type":"station"},{"id":2408040488,"lat":31.2221,"lon":74.25806,"name":"Raja Jang","nameLocal":"راجہ جنگ","type":"station"},{"id":4936415686,"lat":31.14457,"lon":70.95348,"name":"Rajan Shah","nameLocal":"راجن شاہ","type":"station"},{"id":1939750479,"lat":29.39216,"lon":73.96006,"name":"Rangmahal","type":"station"},{"id":13356172360,"lat":31.18911,"lon":74.32731,"name":"Raokhan wala","nameLocal":"راؤخانوالا","type":"station"},{"id":13313202755,"lat":34.11605,"lon":72.01977,"name":"Rashkai","nameLocal":"رشکئی","type":"station"},{"id":13357234333,"lat":30.62547,"lon":73.9736,"name":"Rasulpur Halt","type":"halt"},{"id":2433202111,"lat":33.0332,"lon":73.53619,"name":"Ratial","nameLocal":"رتیال ریلوے اسٹیشن","type":"station"},{"id":2447748766,"lat":32.39704,"lon":73.04319,"name":"Ratokala","type":"station"},{"id":13304631332,"lat":31.81697,"lon":73.46444,"name":"Rattan Halt","nameLocal":"رتن ہالٹ","type":"station"},{"id":6382662791,"lat":31.16773,"lon":74.6118,"name":"Rattoke Gurdwara","type":"station"},{"id":2669085023,"lat":33.60371,"lon":73.04831,"name":"Rawalpindi","nameLocal":"راولپنڈی ریلوے اسٹیشن","type":"station"},{"id":627111685,"lat":38.1969,"lon":62.89108,"name":"Razyezd № 57","type":"station"},{"id":1584542557,"lat":37.36413,"lon":66.42212,"name":"Razyezd No. 161","type":"station"},{"id":1371369175,"lat":33.09123,"lon":74.87596,"name":"Reasi Road","type":"station"},{"id":2433508565,"lat":30.88125,"lon":73.59932,"name":"Renala Khurd","nameLocal":"رینالہ خورد","type":"station"},{"id":12723464068,"lat":30.24662,"lon":71.72264,"name":"Riazabad","nameLocal":"ریاض آباد ریلوے اسٹیشن","type":"station"},{"id":5254213575,"lat":31.36731,"lon":73.01914,"name":"Risalewala","nameLocal":"رسالیوالہ ریلوے اسٹیشن","type":"station"},{"id":13313202754,"lat":34.06263,"lon":72.00269,"name":"Risalpur Cantt","nameLocal":"رسالپور کینٹ","type":"station"},{"id":8411528192,"lat":36.18337,"lon":60.81937,"name":"Robat Sharaf","nameLocal":"رباط شرف","type":"station"},{"id":728896591,"lat":30.51122,"lon":74.85026,"name":"Romana Albael Singh","type":"station"},{"id":8373187599,"lat":34.44604,"lon":61.48284,"name":"Roozanak","nameLocal":"ایستگاه راه آهن روزنک","type":"station"},{"id":6334654029,"lat":30.44337,"lon":74.25752,"name":"Roranwala","type":"station"},{"id":11746999627,"lat":31.06204,"lon":74.35238,"name":"Roshan Bhila","nameLocal":"روشن بھیلہ","type":"station"},{"id":13357960649,"lat":29.67866,"lon":71.66983,"name":"Rukanpur","nameLocal":"رکن پور","type":"station"},{"id":875866698,"lat":33.85612,"lon":72.30311,"name":"Rumiān","nameLocal":"رومیان","type":"station"},{"id":3994569366,"lat":31.19882,"lon":73.29901,"name":"Rurala Railway Station","type":"station"},{"id":1555523201,"lat":38.14659,"lon":65.50266,"name":"Rzd. No 155","type":"station"},{"id":1584542558,"lat":37.44438,"lon":66.1723,"name":"Rzd. No 160","type":"station"},{"id":3885156287,"lat":35.33893,"lon":62.40314,"name":"Rzd. No 199","type":"station"},{"id":3885349297,"lat":38.42809,"lon":63.10827,"name":"Rzd. No 54","type":"station"},{"id":3221378144,"lat":37.61725,"lon":62.03076,"name":"Rzd. No 64","type":"station"},{"id":3221362751,"lat":37.61687,"lon":61.75391,"name":"Rzd. No 66","type":"station"},{"id":2632812364,"lat":37.5583,"lon":61.08421,"name":"Rzd. No 69","type":"station"},{"id":835399921,"lat":37.47818,"lon":60.84429,"name":"Rzd. No. 72","type":"station"},{"id":13307291431,"lat":31.89033,"lon":74.24286,"name":"Sadhoke","nameLocal":"سادھوکے","type":"station"},{"id":359921395,"lat":29.90302,"lon":74.17218,"name":"Sadulshahar","type":"station"},{"id":10612726845,"lat":31.63113,"lon":73.23168,"name":"Sahianwala","nameLocal":"ساہیانوالہ ریلوے اسٹیشن","type":"station"},{"id":2433522641,"lat":30.65427,"lon":73.10113,"name":"Sahiwal","type":"station"},{"id":6370192100,"lat":30.90663,"lon":74.69982,"name":"Saidanwala","type":"station"},{"id":865271070,"lat":31.39157,"lon":73.0651,"name":"Samanabad","nameLocal":"سمن آباد ریلوے اسٹیشن","type":"station"},{"id":11614917804,"lat":32.69341,"lon":71.56257,"name":"Samand Wala Railway Station","nameLocal":"سمند والا ریلوے اسٹیشن","type":"station"},{"id":3188128695,"lat":36.53829,"lon":62.55402,"name":"Sandykgaçy","type":"station"},{"id":1909590075,"lat":29.79315,"lon":74.46631,"name":"Sangaria","type":"station"},{"id":6029199714,"lat":30.09064,"lon":74.83543,"name":"Sangat","type":"station"},{"id":2433164392,"lat":33.6963,"lon":72.85037,"name":"Sangjani","nameLocal":"سنگجانی","type":"station"},{"id":1973007860,"lat":31.71706,"lon":73.37542,"name":"Sangla Hill Junction","nameLocal":"سانگلہ ہل جنکشن ریلوے اسٹیشن","type":"station"},{"id":2432186131,"lat":33.8093,"lon":72.43301,"name":"Sanjwal","nameLocal":"سنجوال","type":"station"},{"id":13362248037,"lat":30.82561,"lon":66.51919,"name":"Sanzala","type":"station"},{"id":2945785088,"lat":36.52846,"lon":61.19782,"name":"Sarahs","type":"station"},{"id":2433212970,"lat":32.90677,"lon":73.74946,"name":"Sarai Alamgir","nameLocal":"سَرائے عالمگیر ریلوے اسٹیشن","type":"station"},{"id":943950506,"lat":33.98377,"lon":72.98689,"name":"Sarai Saleh","nameLocal":"سرائے صالح","type":"station"},{"id":3849836297,"lat":36.47051,"lon":61.10471,"name":"Sarakhs","nameLocal":"سرخس","type":"station"},{"id":13362248010,"lat":30.56756,"lon":66.86893,"name":"Saranan Halt","nameLocal":"سارانان","type":"halt"},{"id":13357635343,"lat":29.71926,"lon":72.04912,"name":"Sardar Jhandir","nameLocal":"سردار جھنڈیر","type":"station"},{"id":1973009752,"lat":32.08365,"lon":72.67646,"name":"Sargodha","nameLocal":"سرگودھا","type":"station"},{"id":2473622548,"lat":30.10345,"lon":66.98188,"name":"Sariab","nameLocal":"سر آب","type":"station"},{"id":245671297,"lat":38.36716,"lon":68.00872,"name":"Sariasia","nameLocal":"Sariosiyo","type":"station"},{"id":12421892491,"lat":32.57753,"lon":72.86557,"name":"Saroba Railway Station","type":"station"},{"id":12697166015,"lat":31.2907,"lon":72.8738,"name":"Sarshamir Road","nameLocal":"سرشمیر روڈ ریلوے اسٹیشن","type":"station"},{"id":3188126161,"lat":36.46299,"lon":62.59359,"name":"Saryýazy","type":"station"},{"id":3221948474,"lat":37.49216,"lon":61.97046,"name":"Semenik","type":"station"},{"id":13314222900,"lat":33.50229,"lon":71.67267,"name":"Seni Gumbat Halt","nameLocal":"سنی گمبٹ","type":"station"},{"id":2945770452,"lat":35.28292,"lon":62.3443,"name":"Serhetabat","type":"station"},{"id":13314413149,"lat":30.46359,"lon":70.72538,"name":"Shadan Lund","nameLocal":"شادن لنڈ","type":"station"},{"id":4307674424,"lat":31.97252,"lon":71.17437,"name":"Shah Alam","nameLocal":"شاہ عالم","type":"station"},{"id":2433331705,"lat":31.62675,"lon":74.2906,"name":"Shahdara Bagh Junction","nameLocal":"شاہدرہ ٹاؤن","type":"station"},{"id":1973009136,"lat":31.92023,"lon":72.63611,"name":"Shaheenabad","type":"station"},{"id":13346752149,"lat":34.01855,"lon":71.276,"name":"Shahgai","nameLocal":"شاہ گئی","type":"station"},{"id":13357960633,"lat":29.61244,"lon":71.6434,"name":"Shahidanwala","nameLocal":"شہیدانوالا","type":"station"},{"id":1939925537,"lat":30.18685,"lon":67.70934,"name":"Shahrag","nameLocal":"شاہرگ","type":"station"},{"id":3896817157,"lat":37.26586,"lon":68.16447,"name":"Shahrtuz Train Station","nameLocal":"Шаҳртуз","type":"station"},{"id":611924568,"lat":31.58346,"lon":74.3797,"name":"Shalimar Gardens","nameLocal":"شالامار باغ","type":"station"},{"id":12723474027,"lat":30.2839,"lon":71.84538,"name":"Shamkote","nameLocal":"شام کوٹ","type":"station"},{"id":8372006034,"lat":34.28503,"lon":61.01289,"name":"Shamtigh (Afghanistan) Railway Station","nameLocal":"ایستگاه راه آهن شمتیغ افغانستان","type":"station"},{"id":4933372824,"lat":34.31783,"lon":60.89107,"name":"Shamtigh (Iran) Railway Station","nameLocal":"ایستگاه راه آهن شمتیغ ایران","type":"station"},{"id":13310572870,"lat":30.25356,"lon":66.97061,"name":"Sheikh Mandah","nameLocal":"شیخ ماندہ","type":"station"},{"id":3953658520,"lat":29.89634,"lon":66.61764,"name":"Sheikh Wasil","nameLocal":"شیخ واصل","type":"station"},{"id":1973009755,"lat":31.71822,"lon":73.97889,"name":"Sheikhupura","nameLocal":"شیخوپورہ","type":"station"},{"id":663980296,"lat":30.83049,"lon":66.58975,"name":"Shela Bagh","nameLocal":"شیلا باغ","type":"station"},{"id":4319158595,"lat":30.09187,"lon":71.34264,"name":"Sher Shah Junction","nameLocal":"شیر شاہ جنکشن ریلوے اسٹیشن","type":"station"},{"id":1775172594,"lat":29.5555,"lon":74.43428,"name":"Sherekan","type":"station"},{"id":1584542553,"lat":37.41591,"lon":66.99374,"name":"Sherobod","type":"station"},{"id":9808853340,"lat":37.67072,"lon":66.64445,"name":"Sherobod Sement","type":"station"},{"id":449118464,"lat":38.01683,"lon":67.78921,"name":"Sho'rchi","type":"station"},{"id":1975086755,"lat":30.78771,"lon":72.24958,"name":"Shorkot Cantt Junction","nameLocal":"شورکوٹ کینٹ جنکشن ریلوے اسٹیشن","type":"station"},{"id":1600322503,"lat":29.84321,"lon":73.4584,"name":"Shri Karanpur","type":"station"},{"id":11191826435,"lat":29.87307,"lon":71.32427,"name":"Shujabad","nameLocal":"شجاع آباد ریلوے اسٹیشن","type":"station"},{"id":1765563050,"lat":38.20348,"lon":66.96474,"name":"Shurob","type":"station"},{"id":720627478,"lat":32.49837,"lon":74.54087,"name":"Sialkot","nameLocal":"سیالکوٹ","type":"station"},{"id":3965127795,"lat":29.54757,"lon":67.86977,"name":"Sibi Junction","nameLocal":"سبی جنکشن","type":"station"},{"id":11258115819,"lat":33.55148,"lon":73.20103,"name":"Sihala","nameLocal":"سِہالہ ریلوے اسٹیشن","type":"station"},{"id":1975086588,"lat":31.82677,"lon":72.53701,"name":"Sillanwali","nameLocal":"سلانوالی","type":"station"},{"id":13357960681,"lat":29.72222,"lon":71.68704,"name":"Sirajwala","nameLocal":"سراج والا","type":"station"},{"id":13313406021,"lat":34.45623,"lon":71.90988,"name":"Skhakot","nameLocal":"سخاکوٹ","type":"station"},{"id":11618695608,"lat":33.0036,"lon":71.76807,"name":"Sohan Bridge","nameLocal":"سوہان برج ریلوے اسٹیشن","type":"station"},{"id":2433202107,"lat":33.1316,"lon":73.42973,"name":"Sohawa","nameLocal":"سوہاوہ ریلوے اسٹیشن","type":"station"},{"id":3222000778,"lat":37.12376,"lon":62.45001,"name":"Soltanbent","type":"station"},{"id":1076907108,"lat":34.25801,"lon":74.45118,"name":"Sopur","type":"station"},{"id":12451267171,"lat":37.40379,"lon":66.74859,"name":"Sovxoz Nabiev","type":"halt"},{"id":1975773417,"lat":29.98014,"lon":66.99948,"name":"Spezand Junction","nameLocal":"سپیزنڈ جنکشن","type":"station"},{"id":13359948642,"lat":29.94148,"lon":68.09696,"name":"Spintangi","nameLocal":"سپنتنگی","type":"station"},{"id":359921216,"lat":29.93196,"lon":73.87234,"name":"Sriganganagar Junction","type":"station"},{"id":2671382012,"lat":34.02381,"lon":74.84725,"name":"Srinagar Railway Station","type":"station"},{"id":8851307819,"lat":31.74144,"lon":74.38272,"name":"Srirampura","nameLocal":"سری رامپورہ","type":"station"},{"id":13357960750,"lat":29.98927,"lon":71.79241,"name":"Sukh Beas","nameLocal":"سکھ بیس","type":"station"},{"id":11531767490,"lat":31.86241,"lon":73.50337,"name":"Sukheke","nameLocal":"سکھیکی ریلوے اسٹیشن","type":"station"},{"id":11258327495,"lat":33.5902,"lon":72.31406,"name":"Sulaimanabad","type":"station"},{"id":6370164343,"lat":30.87255,"lon":74.86461,"name":"Sulhani","type":"station"},{"id":4317472741,"lat":31.53416,"lon":71.05419,"name":"Sultan Karori Halt","nameLocal":"سلطان کروڑی ہالٹ","type":"station"},{"id":13346752081,"lat":34.0823,"lon":71.1939,"name":"Sultan Khel","nameLocal":"سلطان خیل","type":"station"},{"id":13361158001,"lat":30.01981,"lon":68.03856,"name":"Sunehri Halt","nameLocal":"سنہری ہالٹ","type":"halt"},{"id":12430518734,"lat":37.90316,"lon":67.6529,"name":"Surhon","type":"halt"},{"id":449118440,"lat":37.73588,"lon":67.50722,"name":"Surhony","type":"station"},{"id":3221986846,"lat":36.0136,"lon":62.71148,"name":"Tagtabazar","type":"station"},{"id":4732835070,"lat":34.27761,"lon":71.93005,"name":"Takht Bhai","nameLocal":"تخت بھائی","type":"station"},{"id":3221940422,"lat":37.40195,"lon":62.15574,"name":"Talhatanbaba","type":"station"},{"id":6371586769,"lat":31.03222,"lon":74.74678,"name":"Tallisaida Sahu","type":"station"},{"id":12433135008,"lat":38.12436,"lon":67.86508,"name":"Tally","type":"halt"},{"id":1555523192,"lat":38.27896,"lon":65.55886,"name":"Tallymerjen","type":"station"},{"id":1939892414,"lat":29.51179,"lon":74.58705,"name":"Talwara Jhil","type":"station"},{"id":13359941874,"lat":29.72392,"lon":67.94282,"name":"Tanduri","type":"station"},{"id":1596492740,"lat":37.98825,"lon":67.46045,"name":"Tangimush","type":"station"},{"id":11747127380,"lat":31.58255,"lon":74.52687,"name":"Taqipur","nameLocal":"تقی پور","type":"station"},{"id":2433202108,"lat":33.06882,"lon":73.42679,"name":"Tarki","nameLocal":"ترکی ریلوے اسٹیشن","type":"station"},{"id":11623655773,"lat":33.64996,"lon":72.9098,"name":"Tarnol Railway Station","nameLocal":"ترنول ریلوے اسٹیشن","type":"station"},{"id":13301788539,"lat":34.01719,"lon":71.72771,"name":"Taru Jabba","nameLocal":"تارو جبہ","type":"station"},{"id":11643634429,"lat":30.22485,"lon":71.64997,"name":"Tatipur","nameLocal":"ٹاٹے پور ریلوے اسٹیشن","type":"station"},{"id":2432186144,"lat":33.74228,"lon":72.81452,"name":"Taxila","nameLocal":"ٹیکسلا","type":"station"},{"id":9014392589,"lat":36.92617,"lon":67.32976,"name":"Taza Omid","type":"station"},{"id":915309675,"lat":37.3846,"lon":60.50057,"name":"Tejen","type":"station"},{"id":1584479577,"lat":37.25123,"lon":67.28608,"name":"Termiz","type":"station"},{"id":2433331698,"lat":32.10337,"lon":74.2041,"name":"Theri Sansi","nameLocal":"تھیری سانسی","type":"station"},{"id":1939892416,"lat":29.54293,"lon":74.50169,"name":"Tibi","type":"station"},{"id":12675822532,"lat":30.96772,"lon":72.47984,"name":"Toba Tek Singh","nameLocal":"ٹوبہ ٹیک سنگھ ریلوے اسٹیشن","type":"station"},{"id":13346752071,"lat":34.12804,"lon":71.1198,"name":"Torra Tigga","nameLocal":"تورہ تیگہ","type":"station"},{"id":1941163792,"lat":36.71761,"lon":67.2396,"name":"Train Terminal Mazar-i-Sharif","nameLocal":"ایستگاه راه آهن فرودگاه مزار شریف","type":"station"},{"id":11619719398,"lat":33.36477,"lon":71.92727,"name":"Uchhri","nameLocal":"اُچھری ریلوے اسٹیشن","type":"station"},{"id":1584542552,"lat":37.31883,"lon":67.21177,"name":"Uchqizil","type":"station"},{"id":11747105425,"lat":30.89689,"lon":74.23817,"name":"Usmanwala","nameLocal":"عثمان والا","type":"station"},{"id":6382661444,"lat":31.19729,"lon":74.6677,"name":"Valtoha","type":"station"},{"id":13357467522,"lat":30.04493,"lon":72.3501,"name":"Vehari","nameLocal":"وہاڑی","type":"station"},{"id":99902837,"lat":31.58994,"lon":74.57651,"name":"Wagah","nameLocal":"واہگہ","type":"station"},{"id":2432186140,"lat":33.81746,"lon":72.73717,"name":"Wah","nameLocal":"واہ","type":"station"},{"id":13301973858,"lat":33.75824,"lon":72.79303,"name":"Wah Cantonment","nameLocal":"واہ کینٹ ریلوے","type":"station"},{"id":2296900504,"lat":31.4874,"lon":74.35427,"name":"Walton","nameLocal":"والٹن","type":"station"},{"id":4298566032,"lat":32.41995,"lon":71.6944,"name":"Wan Bhachran Railway Station","nameLocal":"واں بھچراں ریلوے اسٹیشن","type":"station"},{"id":6334634968,"lat":30.5644,"lon":74.73994,"name":"Wander Jatana","type":"station"},{"id":11561425847,"lat":32.44619,"lon":74.11218,"name":"Wazirabad Junction","nameLocal":"وزیرآباد جنکشن ریلوے اسٹیشن","type":"station"},{"id":1975133268,"lat":32.30101,"lon":72.94797,"name":"Wilson pur","type":"station"},{"id":245675370,"lat":38.17363,"lon":67.89503,"name":"Xayrobod","type":"station"},{"id":12430752417,"lat":37.97079,"lon":67.74726,"name":"Yangi Elboyan","type":"halt"},{"id":12435265076,"lat":37.66909,"lon":67.48228,"name":"Yangi-Kishlak","type":"halt"},{"id":13316926494,"lat":30.16486,"lon":70.61192,"name":"Yaroo Khosa","nameLocal":"یارو کھوسہ","type":"station"},{"id":13310822927,"lat":30.50218,"lon":66.95312,"name":"Yaru","nameLocal":"یارو","type":"station"},{"id":3221978681,"lat":36.71551,"lon":62.45728,"name":"Ymambaba","type":"station"},{"id":9787590349,"lat":37.26311,"lon":65.22894,"name":"Ymamnazar","type":"station"},{"id":3188119986,"lat":37.2931,"lon":62.35451,"name":"Yoloten","nameLocal":"Ýolöten","type":"station"},{"id":2433522640,"lat":30.71738,"lon":73.26527,"name":"Yousafwala","type":"station"},{"id":2446902157,"lat":38.30538,"lon":68.94692,"name":"Yovon","nameLocal":"Ёвон","type":"station"},{"id":12433916172,"lat":38.31912,"lon":67.9403,"name":"Yurchi","type":"halt"},{"id":13357467545,"lat":30.00834,"lon":72.28013,"name":"Zafar Iqbal","nameLocal":"ظفر اقبال","type":"station"},{"id":612533677,"lat":29.43042,"lon":60.91356,"name":"Zahedan New Industrial Town","nameLocal":"ایستگاه راه آهن زاهدان -باری-جدید","type":"station"},{"id":7991945731,"lat":29.48025,"lon":60.87409,"name":"Zahedan Railway Station","nameLocal":"ایستگاه راه آهن زاهدان","type":"station"},{"id":13357467461,"lat":30.13035,"lon":72.59988,"name":"Zahirnagar","nameLocal":"ظاہرنگر","type":"station"},{"id":3221379914,"lat":37.775,"lon":62.52962,"name":"Zähmet","type":"station"},{"id":13363900298,"lat":29.42509,"lon":65.99478,"name":"Zangiabad","nameLocal":"زانگی آباد","type":"station"},{"id":13361320584,"lat":30.27619,"lon":67.52909,"name":"Zardalu","nameLocal":"زردالو","type":"station"},{"id":9366303174,"lat":29.79507,"lon":71.40395,"name":"Zareef Shaheed","nameLocal":"ظریف شہید ریلوے اسٹیشن","type":"station"},{"id":12430518747,"lat":37.92075,"lon":67.67468,"name":"Zaribdor","type":"halt"},{"id":13346752116,"lat":34.07252,"lon":71.22094,"name":"Zintara","nameLocal":"زنتارا","type":"station"},{"id":3239063787,"lat":38.44566,"lon":68.96908,"name":"Бахор","type":"station"},{"id":3896831896,"lat":37.52827,"lon":68.46725,"name":"Бурёбоф","type":"station"},{"id":3242169408,"lat":38.01261,"lon":68.85931,"name":"Вахш","type":"station"},{"id":3896842614,"lat":38.05205,"lon":69.28122,"name":"Данғара","type":"station"},{"id":3896836071,"lat":37.61806,"lon":68.62463,"name":"Джалолиддини Руми","type":"station"},{"id":1555523181,"lat":38.4375,"lon":65.63129,"name":"Жайрон","type":"station"},{"id":2224406816,"lat":38.46828,"lon":68.14016,"name":"Пахтаабад","type":"station"},{"id":3896842580,"lat":38.00775,"lon":69.07518,"name":"Сангтуда","type":"station"},{"id":9808631441,"lat":37.81624,"lon":66.03076,"name":"станция","type":"station"},{"id":3896812545,"lat":37.12749,"lon":68.07773,"name":"Хошады","type":"station"},{"id":5953983807,"lat":29.40106,"lon":60.82538,"name":"ایستگاه راه‌آهن شرکت نفت","type":"station"},{"id":8892037534,"lat":31.98397,"lon":74.65756,"name":"بدوملہی","type":"station"},{"id":8372007354,"lat":34.32764,"lon":60.66791,"name":"خوشابه","type":"station"},{"id":2445623565,"lat":32.6303,"lon":73.71746,"name":"ڈنگہ","type":"station"},{"id":8892125174,"lat":32.06977,"lon":74.83242,"name":"کلاس گورایہ","type":"station"},{"id":233729763,"lat":31.82401,"lon":72.81037,"name":"لالیاں","type":"station"},{"id":1778013861,"lat":32.10122,"lon":74.86458,"name":"نارووال جکشن","type":"station"},{"id":11747136390,"lat":31.56902,"lon":74.43655,"name":"ہربنس پورہ","type":"station"}]