[{"id":2560606964,"lat":41.52009,"lon":26.73138,"name":"Abalar","type":"station"},{"id":3144209871,"lat":44.03135,"lon":23.52501,"name":"Afumați","type":"station"},{"id":640475410,"lat":42.87918,"lon":22.98756,"name":"Aldomirovtsi","nameLocal":"Алдомировци","type":"station"},{"id":775583732,"lat":43.96451,"lon":25.32521,"name":"Alexandria","type":"station"},{"id":775583873,"lat":43.97442,"lon":25.30996,"name":"Alexandria Nord","type":"station"},{"id":11132878358,"lat":41.36646,"lon":27.14231,"name":"Alpullu","type":"station"},{"id":9727692300,"lat":41.29562,"lon":26.44314,"name":"Amorio","nameLocal":"Αμόριο","type":"halt"},{"id":1152830215,"lat":42.98753,"lon":27.31689,"name":"Asparuchovo","nameLocal":"Аспарухово","type":"station"},{"id":775583788,"lat":44.1361,"lon":25.06531,"name":"Atârnați","type":"station"},{"id":2319236960,"lat":42.59597,"lon":26.73408,"name":"Atolovo","nameLocal":"Атолово","type":"station"},{"id":8645338130,"lat":42.69472,"lon":27.2461,"name":"Aytos","nameLocal":"Айтос","type":"station"},{"id":12112964591,"lat":41.39772,"lon":27.10334,"name":"Babaeski YHT Garı","type":"construction"},{"id":12228171644,"lat":41.41229,"lon":26.82238,"name":"Bahçıvanova","type":"station"},{"id":3144212864,"lat":44.03347,"lon":23.34897,"name":"Băilești","type":"station"},{"id":2657763952,"lat":43.94768,"lon":25.93045,"name":"Bălănoaia","type":"station"},{"id":2320712289,"lat":43.05395,"lon":23.36262,"name":"Balkan","nameLocal":"Балкан","type":"station"},{"id":12199371098,"lat":44.05196,"lon":26.046,"name":"Băneasa Giurgiu","type":"station"},{"id":648949709,"lat":44.17151,"lon":28.41838,"name":"Basarabi","type":"station"},{"id":615337737,"lat":43.23994,"lon":23.13981,"name":"Berkovitsa","nameLocal":"Берковица","type":"station"},{"id":5995858690,"lat":42.01346,"lon":23.08506,"name":"Blagoevgrad","nameLocal":"Благоевград","type":"station"},{"id":276498177,"lat":43.47512,"lon":23.33844,"name":"Boychinovtsi","nameLocal":"Бойчиновци","type":"station"},{"id":13254223965,"lat":42.49069,"lon":27.47253,"name":"Burgas Central railway station","nameLocal":"Бургас Централна гара","type":"station"},{"id":12112974486,"lat":41.31012,"lon":27.56565,"name":"Büyükkarıştıran","type":"construction"},{"id":8467912114,"lat":43.99394,"lon":22.92477,"name":"Calafat","type":"station"},{"id":691410870,"lat":43.99787,"lon":22.93101,"name":"Calafat Fluvială","type":"station"},{"id":487098710,"lat":44.19998,"lon":27.33411,"name":"Călărași Sud","type":"station"},{"id":5214080729,"lat":44.11952,"lon":24.36465,"name":"Caracal","type":"station"},{"id":2623370290,"lat":41.25997,"lon":28.12174,"name":"Çayırdere","type":"station"},{"id":13140863305,"lat":41.27948,"lon":28.00991,"name":"Çerkezköy","type":"station"},{"id":450512236,"lat":41.27927,"lon":28.01065,"name":"Çerkezköy Tren İstasyonu","type":"station"},{"id":9727692282,"lat":41.4501,"lon":26.55582,"name":"Cheimonio","nameLocal":"Χειμώνιο","type":"station"},{"id":2323315918,"lat":42.58849,"lon":25.47473,"name":"Cherganovo","nameLocal":"Черганово","type":"station"},{"id":2339443755,"lat":43.70506,"lon":24.83884,"name":"Cherkvitsa","nameLocal":"Черквица","type":"station"},{"id":2657767492,"lat":43.98109,"lon":25.76386,"name":"Chiriacu","type":"station"},{"id":2614134394,"lat":44.0996,"lon":28.2779,"name":"Ciocârlia","type":"station"},{"id":2614134579,"lat":44.05855,"lon":28.24491,"name":"Cobadin","type":"station"},{"id":3144222562,"lat":43.97888,"lon":22.95667,"name":"Cobuz h","type":"halt"},{"id":4807987549,"lat":44.17106,"lon":26.14672,"name":"Comana","type":"station"},{"id":12237738538,"lat":44.17819,"lon":28.60755,"name":"Constanța Mărfuri","type":"station"},{"id":521339587,"lat":43.77199,"lon":24.50358,"name":"Corabia","type":"station"},{"id":12199401224,"lat":43.98964,"lon":25.99088,"name":"Daia Hm","type":"halt"},{"id":2915035529,"lat":44.12713,"lon":23.69401,"name":"Dealu Robului h","type":"halt"},{"id":13596670707,"lat":41.35672,"lon":26.64787,"name":"Demirköprü","type":"station"},{"id":9727692296,"lat":41.35223,"lon":26.51123,"name":"Didymoteicho","nameLocal":"Διδυμότειχο","type":"station"},{"id":9727761370,"lat":41.70611,"lon":26.29737,"name":"Dikaia","nameLocal":"Δίκαια","type":"station"},{"id":9727761367,"lat":41.69334,"lon":26.37776,"name":"Dilofos","nameLocal":"Δίλοφος","type":"halt"},{"id":2294504381,"lat":43.01113,"lon":22.76488,"name":"Dimitrovgrad","nameLocal":"Димитровград","type":"station"},{"id":529540422,"lat":42.05512,"lon":25.59294,"name":"Dimitrovgrad","nameLocal":"Димитровград","type":"station"},{"id":8071633587,"lat":42.71323,"lon":23.86204,"name":"Dolno Kamartsi","nameLocal":"Долно Камарци","type":"stop"},{"id":260721847,"lat":42.71329,"lon":23.86194,"name":"Dolno Kamartsi","nameLocal":"Долно Камарци","type":"station"},{"id":7421402049,"lat":44.15424,"lon":24.54455,"name":"Drăgănești-Olt","type":"station"},{"id":2657775959,"lat":44.09641,"lon":25.58554,"name":"Drăgănești-Vlașca","type":"station"},{"id":2319639761,"lat":41.56517,"lon":25.39101,"name":"Dzhebel","nameLocal":"Джебел","type":"station"},{"id":11132878357,"lat":41.65521,"lon":26.58051,"name":"Edirne","type":"station"},{"id":316858240,"lat":42.17687,"lon":26.56802,"name":"Elhovo","nameLocal":"Елхово","type":"station"},{"id":1001643117,"lat":43.08224,"lon":23.50549,"name":"Eliseyna","nameLocal":"Елисейна","type":"station"},{"id":10731450473,"lat":44.12154,"lon":24.45213,"name":"Fărcașele","type":"station"},{"id":6010327133,"lat":42.1668,"lon":24.7368,"name":"Filipovo","nameLocal":"Филипово","type":"station"},{"id":12199393522,"lat":43.96405,"lon":25.97137,"name":"Frățești","type":"station"},{"id":1228431510,"lat":43.97239,"lon":22.8483,"name":"Freight station Vidin","nameLocal":"Товарна гара Видин","type":"station"},{"id":13254093646,"lat":42.88517,"lon":25.31673,"name":"Gabrovo","nameLocal":"Габрово","type":"station"},{"id":775583781,"lat":44.21107,"lon":25.37042,"name":"Gălăteni","type":"station"},{"id":8694248830,"lat":43.89554,"lon":25.96139,"name":"Giurgiu","type":"station"},{"id":257011662,"lat":43.92393,"lon":25.96483,"name":"Giurgiu Nord","type":"station"},{"id":8464375491,"lat":43.98059,"lon":23.05176,"name":"Golenti","nameLocal":"Golenți","type":"station"},{"id":97474511,"lat":42.67559,"lon":23.24239,"name":"Gorna Banya","nameLocal":"Горна баня","type":"station"},{"id":11132878331,"lat":43.13982,"lon":25.68194,"name":"Gorna Oryahovitsa","nameLocal":"Горна Оряховица","type":"station"},{"id":11959050020,"lat":44.20559,"lon":26.16311,"name":"Grădiștea","type":"station"},{"id":3144244414,"lat":44.08711,"lon":24.38026,"name":"Grupa Tehnică Caracal","type":"station"},{"id":12980864710,"lat":42.23565,"lon":22.47618,"name":"Gyueshevo","nameLocal":"Гюешево","type":"station"},{"id":8298205003,"lat":43.20364,"lon":26.89069,"name":"Han Krum","nameLocal":"Хан Крум","type":"station"},{"id":11132878353,"lat":41.92252,"lon":25.9241,"name":"Harmanli","nameLocal":"Харманли","type":"station"},{"id":11132878360,"lat":41.93173,"lon":25.9093,"name":"Harmanli Central","nameLocal":"Харманли-център","type":"halt"},{"id":2642400029,"lat":43.42624,"lon":26.90917,"name":"Hitrino","nameLocal":"Хитрино","type":"station"},{"id":458930947,"lat":43.42607,"lon":26.90923,"name":"Hitrino","nameLocal":"ж.п. гара Хитрино","type":"station"},{"id":9552564783,"lat":44.03418,"lon":23.27621,"name":"Horticola h","type":"halt"},{"id":166922412,"lat":42.75066,"lon":23.32621,"name":"Iliyantsi","nameLocal":"Илиянци","type":"station"},{"id":12966105377,"lat":42.66472,"lon":23.41302,"name":"Iskar","nameLocal":"Искър","type":"station"},{"id":775583654,"lat":44.16399,"lon":24.13077,"name":"Jianca","type":"station"},{"id":11132878356,"lat":41.71902,"lon":26.36158,"name":"Kapıkule","type":"station"},{"id":2320688376,"lat":41.63078,"lon":25.38825,"name":"Kardzhali","nameLocal":"Кърджали","type":"station"},{"id":8090783734,"lat":42.66778,"lon":26.9772,"name":"Karnobat","nameLocal":"Карнобат","type":"station"},{"id":2320907657,"lat":43.31163,"lon":27.16702,"name":"Kaspichan","nameLocal":"Каспичан","type":"station"},{"id":9727761364,"lat":41.64738,"lon":26.48654,"name":"Kastanee","nameLocal":"Καστανέαι","type":"halt"},{"id":9670835324,"lat":41.27607,"lon":22.8963,"name":"Kastanoussa","nameLocal":"Καστανούσσα","type":"station"},{"id":9727761358,"lat":41.55721,"lon":26.53456,"name":"Kavyli","nameLocal":"Καβύλη","type":"halt"},{"id":12228171643,"lat":41.42116,"lon":26.8144,"name":"Kırcasalih","type":"station"},{"id":444537577,"lat":41.91253,"lon":22.41536,"name":"Kočani","nameLocal":"Кочани","type":"station"},{"id":2321127792,"lat":42.08081,"lon":23.0374,"name":"Kocherinovo","nameLocal":"Кочериново","type":"station"},{"id":13195235665,"lat":42.70099,"lon":24.33904,"name":"Koprivshtitsa","nameLocal":"Копривщица","type":"station"},{"id":497171403,"lat":42.70073,"lon":24.33901,"name":"Koprivshtitsa","nameLocal":"Копривщица","type":"station"},{"id":91571334,"lat":42.28897,"lon":22.68293,"name":"Kyustendil","nameLocal":"Кюстендил","type":"station"},{"id":9727692315,"lat":41.26808,"lon":26.39306,"name":"Lavara","nameLocal":"Λάβαρα","type":"station"},{"id":775583828,"lat":44.2001,"lon":24.03801,"name":"Leu Hm.","type":"halt"},{"id":870921685,"lat":43.08759,"lon":23.46671,"name":"Levishte","nameLocal":"Левище","type":"station"},{"id":5639690199,"lat":43.13685,"lon":24.70695,"name":"Lovech","nameLocal":"Ловеч","type":"station"},{"id":9694655180,"lat":43.16415,"lon":24.7221,"name":"Lovech - stop","nameLocal":"Ловеч - спирка","type":"halt"},{"id":2502544119,"lat":41.35541,"lon":27.33185,"name":"Lüleburgaz","type":"station"},{"id":12112984240,"lat":41.36634,"lon":27.34752,"name":"Lüleburgaz YHT Garı","type":"construction"},{"id":3144215979,"lat":44.01004,"lon":23.12209,"name":"Maglavit hcv","type":"station"},{"id":13376850652,"lat":41.35848,"lon":27.07977,"name":"Mandıra","type":"station"},{"id":1962786788,"lat":43.82214,"lon":28.58168,"name":"Mangalia","type":"station"},{"id":9727761366,"lat":41.66899,"lon":26.46984,"name":"Marasia","nameLocal":"Μαράσια","type":"halt"},{"id":775583652,"lat":44.11891,"lon":24.76775,"name":"Mihăești","type":"station"},{"id":12199515879,"lat":44.11717,"lon":26.08297,"name":"Mihai Bravu","type":"station"},{"id":1861450453,"lat":41.32454,"lon":22.44424,"name":"Miravci","nameLocal":"Миравци","type":"station"},{"id":3144213350,"lat":44.03493,"lon":23.18883,"name":"Moțăței","type":"station"},{"id":4815020481,"lat":41.26154,"lon":22.84004,"name":"Mouries Railway Station","nameLocal":"Μουριές","type":"station"},{"id":648951303,"lat":44.16613,"lon":28.45155,"name":"Murfatlar hc","type":"station"},{"id":9727761363,"lat":41.57876,"lon":26.53468,"name":"Nea Vyssa","nameLocal":"Νέα Βύσσα","type":"station"},{"id":864305673,"lat":43.81688,"lon":28.22381,"name":"Negru Vodă","type":"station"},{"id":648974293,"lat":43.86003,"lon":28.57882,"name":"Neptun","type":"station"},{"id":13254055164,"lat":42.48567,"lon":26.01615,"name":"Nova Zagora","nameLocal":"Нова Загора","type":"station"},{"id":775583746,"lat":44.19025,"lon":25.29215,"name":"Olteni","type":"station"},{"id":908133653,"lat":44.08551,"lon":26.64522,"name":"Oltenița","type":"station"},{"id":4815451780,"lat":41.26136,"lon":23.19693,"name":"Omalo Kerkinis","nameLocal":"Ομαλό Κερκίνης","type":"halt"},{"id":11753827314,"lat":43.09742,"lon":23.43157,"name":"Opletnya","nameLocal":"Оплетня","type":"station"},{"id":9727761356,"lat":41.50298,"lon":26.53717,"name":"Orestiada","nameLocal":"Ορεστιάδα","type":"station"},{"id":9727715558,"lat":41.72821,"lon":26.21259,"name":"Ormenio","nameLocal":"Ορμένιο","type":"station"},{"id":9552944028,"lat":44.16526,"lon":28.5839,"name":"Palas","type":"station"},{"id":1277435470,"lat":41.26564,"lon":24.50195,"name":"Paranesti","nameLocal":"Παρανέστι","type":"station"},{"id":105739942,"lat":42.10039,"lon":25.22399,"name":"Parvomay","nameLocal":"Първомай","type":"station"},{"id":157467280,"lat":42.17001,"lon":24.3209,"name":"Pazardzhik","nameLocal":"Пазарджик","type":"station"},{"id":5874170070,"lat":41.34602,"lon":26.91816,"name":"Pehlivanköy","type":"station"},{"id":13528589871,"lat":41.34603,"lon":26.91834,"name":"Pehlivanköy","type":"station"},{"id":9727692294,"lat":41.339,"lon":26.61094,"name":"Petrades","nameLocal":"Πετράδες","type":"halt"},{"id":635701362,"lat":41.40821,"lon":23.20663,"name":"Petrich","nameLocal":"Петрич","type":"station"},{"id":2970663349,"lat":41.74968,"lon":23.15408,"name":"Peyo Yavorov","nameLocal":"Пейо Яворов","type":"station"},{"id":1845422406,"lat":43.16996,"lon":22.58647,"name":"Pirot","nameLocal":"Пирот","type":"station"},{"id":117964099,"lat":43.42988,"lon":24.59304,"name":"Pleven West","nameLocal":"Плевен Запад","type":"station"},{"id":775583935,"lat":44.03064,"lon":25.14272,"name":"Plosca Hm.","type":"station"},{"id":13073401602,"lat":42.13417,"lon":24.74138,"name":"Plovdid Central Station","nameLocal":"Централна гара Пловдив","type":"station"},{"id":12078070779,"lat":42.69793,"lon":23.35466,"name":"Poduyane Patnicheska","nameLocal":"Подуяне Пътническа","type":"station"},{"id":8467537167,"lat":43.92531,"lon":23.06859,"name":"Poiana Mare","type":"station"},{"id":13081404833,"lat":43.33285,"lon":26.23281,"name":"Popovo","nameLocal":"Попово","type":"station"},{"id":9014135584,"lat":44.03785,"lon":23.64553,"name":"Portărești","type":"station"},{"id":9727692295,"lat":41.343,"lon":26.57598,"name":"Praggi","nameLocal":"Πραγγί","type":"halt"},{"id":13001225115,"lat":41.28014,"lon":27.9741,"name":"Profilo","type":"station"},{"id":1001671002,"lat":43.07175,"lon":23.47259,"name":"Prolet","nameLocal":"Пролет","type":"station"},{"id":4818046632,"lat":41.37049,"lon":23.36119,"name":"Promachonas Railway Station","nameLocal":"Προμαχώνας","type":"station"},{"id":228247436,"lat":43.64323,"lon":26.48072,"name":"Prostorno Train Station","nameLocal":"ЖП гара Просторно","type":"station"},{"id":9727692299,"lat":41.32386,"lon":26.48991,"name":"Psathades","nameLocal":"Ψαθάδες","type":"halt"},{"id":9727761371,"lat":41.71769,"lon":26.25324,"name":"Ptelea","nameLocal":"Πτελέα","type":"halt"},{"id":9727692293,"lat":41.3697,"lon":26.6216,"name":"Pythio","nameLocal":"Πύθιο","type":"station"},{"id":9727692287,"lat":41.38275,"lon":26.61275,"name":"Pythio Halt","nameLocal":"Πύθιο Στάση","type":"halt"},{"id":2294779467,"lat":44.15323,"lon":25.16016,"name":"Rădoiești Hm","type":"station"},{"id":775583702,"lat":44.11097,"lon":24.6698,"name":"Radomirești","type":"station"},{"id":1845408678,"lat":44.08959,"lon":22.56114,"name":"Rajac","nameLocal":"Рајац","type":"station"},{"id":12732941698,"lat":43.97842,"lon":22.97146,"name":"Ram. Golenţi","type":"halt"},{"id":8398362365,"lat":42.89895,"lon":23.38827,"name":"Rebrovo","nameLocal":"Реброво","type":"station"},{"id":9727692286,"lat":41.39806,"lon":26.59153,"name":"Rigio","nameLocal":"Ρήγιο","type":"halt"},{"id":4815451745,"lat":41.25923,"lon":22.99982,"name":"Rodopoli","nameLocal":"Ροδόπολη","type":"station"},{"id":1845409174,"lat":44.11642,"lon":22.57355,"name":"Rogljevo","nameLocal":"Рогљево","type":"station"},{"id":6738979797,"lat":42.85212,"lon":23.37039,"name":"Romcha","nameLocal":"Ромча","type":"halt"},{"id":775583987,"lat":44.177,"lon":24.40074,"name":"Romula","type":"station"},{"id":568397542,"lat":44.1107,"lon":25.00487,"name":"Roșiori Est","type":"station"},{"id":467282097,"lat":44.12337,"lon":24.97889,"name":"Roșiori Nord","type":"station"},{"id":296589197,"lat":43.85803,"lon":25.99767,"name":"Ruse - Station Razpredelitelna","nameLocal":"Русе Разпределителна Гара","type":"station"},{"id":13254223966,"lat":43.83314,"lon":25.95637,"name":"Ruse Central station","nameLocal":"Централна гара Русе","type":"station"},{"id":9727761357,"lat":41.53986,"lon":26.53172,"name":"Sakkos","nameLocal":"Σάκκος","type":"halt"},{"id":3144404361,"lat":43.93266,"lon":24.93323,"name":"Salcia Teleorman","type":"station"},{"id":2104396719,"lat":44.16575,"lon":23.70908,"name":"Sălcuța hm","type":"station"},{"id":12228171645,"lat":41.35938,"lon":26.88031,"name":"Sazlımalkoç","type":"station"},{"id":3144204164,"lat":44.08128,"lon":23.72415,"name":"Segarcea","type":"station"},{"id":3144201668,"lat":44.08938,"lon":23.73016,"name":"Segarcea Nord hc","type":"halt"},{"id":12228171642,"lat":41.47141,"lon":26.76284,"name":"Şerbettar","type":"station"},{"id":2560639600,"lat":41.27158,"lon":27.45166,"name":"Seyitler","type":"station"},{"id":9954458920,"lat":42.02486,"lon":25.84566,"name":"Simeonovgrad","nameLocal":"Симеоновград","type":"station"},{"id":899288275,"lat":42.18836,"lon":24.85116,"name":"Skutare","nameLocal":"Скутаре","type":"station"},{"id":92333882,"lat":42.66679,"lon":26.33617,"name":"Sliven","nameLocal":"Сливен","type":"station"},{"id":13254223964,"lat":42.71296,"lon":23.32089,"name":"Sofia Central Station","nameLocal":"Централна гара София","type":"station"},{"id":89180021,"lat":42.7266,"lon":23.31649,"name":"Sofia North","nameLocal":"София Север","type":"station"},{"id":9727692285,"lat":41.4236,"lon":26.56545,"name":"Sofiko","nameLocal":"Σοφικό","type":"halt"},{"id":775583656,"lat":43.79785,"lon":25.3952,"name":"Șoimu Hc.","type":"halt"},{"id":8040875600,"lat":42.68185,"lon":23.24057,"name":"spirka Gorna banya - metrostantsia","nameLocal":"спирка Горна баня - метростанция","type":"halt"},{"id":2657767169,"lat":43.94896,"lon":25.84303,"name":"Stănești","type":"station"},{"id":7447205683,"lat":43.94885,"lon":25.84285,"name":"Stănești","type":"station"},{"id":13254223967,"lat":42.41604,"lon":25.62964,"name":"Stara Zagora","nameLocal":"Стара Загора","type":"station"},{"id":775583779,"lat":44.12028,"lon":24.49406,"name":"Stoenești Hc.","type":"station"},{"id":9678452906,"lat":42.04256,"lon":23.85518,"name":"Stoyan Mitov","nameLocal":"Стоян Митов","type":"halt"},{"id":11194005728,"lat":42.93837,"lon":25.41279,"name":"Stoychevtsi","nameLocal":"Стойчевци","type":"halt"},{"id":2329921067,"lat":42.59226,"lon":26.68855,"name":"Straldzha","nameLocal":"Стралджа","type":"station"},{"id":3081272551,"lat":42.69575,"lon":24.42152,"name":"Striama Railway Station","nameLocal":"Стряма","type":"station"},{"id":4817385719,"lat":41.2622,"lon":23.34564,"name":"Strymónas Railway Station","nameLocal":"Στρυμώνας","type":"station"},{"id":89573620,"lat":42.71284,"lon":23.29128,"name":"Sugar factory","nameLocal":"Захарна фабрика","type":"station"},{"id":470378479,"lat":43.0722,"lon":22.66812,"name":"Sukovo","nameLocal":"Суково","type":"station"},{"id":12297016299,"lat":41.7745,"lon":26.14394,"name":"Svilengrad","nameLocal":"Свиленград","type":"station"},{"id":637097449,"lat":41.77457,"lon":26.14427,"name":"Svilengrad","nameLocal":"Свиленград","type":"station"},{"id":89056722,"lat":42.95998,"lon":23.34895,"name":"Svoge","nameLocal":"Своге","type":"station"},{"id":7862498958,"lat":44.05764,"lon":22.41402,"name":"Tabakovac","type":"station"},{"id":521354946,"lat":44.02669,"lon":26.01585,"name":"Tabanu hc","type":"halt"},{"id":2657778643,"lat":44.15919,"lon":25.54685,"name":"Târnavele","type":"station"},{"id":13206521717,"lat":41.59682,"lon":26.65334,"name":"Tayyakadın","type":"station"},{"id":9727692284,"lat":41.43449,"lon":26.56134,"name":"Thourio","nameLocal":"Θούριο","type":"halt"},{"id":2657770435,"lat":44.03367,"lon":25.65576,"name":"Toporu","type":"station"},{"id":75284982,"lat":42.13324,"lon":24.80073,"name":"Trakiya","nameLocal":"Тракия","type":"station"},{"id":3144397262,"lat":44.00921,"lon":24.94673,"name":"Troian","type":"station"},{"id":13254093639,"lat":42.93288,"lon":25.45472,"name":"Tsareva Livada","nameLocal":"Царева ливада","type":"station"},{"id":546292669,"lat":42.572,"lon":25.55453,"name":"Tulovo","nameLocal":"Тулово","type":"station"},{"id":207911808,"lat":42.57211,"lon":25.55445,"name":"Tulovo","nameLocal":"Тулово","type":"station"},{"id":585275183,"lat":43.75264,"lon":24.87675,"name":"Turnu Măgurele","type":"station"},{"id":11197472167,"lat":43.27854,"lon":26.95848,"name":"Tракия (Шумен)","type":"halt"},{"id":1830006084,"lat":41.29601,"lon":26.68962,"name":"Uzunköprü","type":"station"},{"id":648950495,"lat":44.16318,"lon":28.50766,"name":"Valu lui Traian","type":"station"},{"id":1104871930,"lat":42.6411,"lon":23.52112,"name":"Verila","nameLocal":"Верила","type":"halt"},{"id":12199688736,"lat":44.13834,"lon":26.12585,"name":"Vlad Țepeș hc","type":"halt"},{"id":12716115319,"lat":42.75484,"lon":23.24443,"name":"Voluyak","nameLocal":"Волуяк","type":"station"},{"id":4816980799,"lat":41.26252,"lon":23.25541,"name":"Vyroneia Railway Station","nameLocal":"Βυρώνεια","type":"station"},{"id":11191228950,"lat":42.54085,"lon":25.53886,"name":"Yagoda","nameLocal":"Ягода","type":"halt"},{"id":8459380277,"lat":42.49568,"lon":26.49097,"name":"Yambol","nameLocal":"Ямбол","type":"station"},{"id":2339416563,"lat":43.43408,"lon":24.53104,"name":"Yasen","type":"station"},{"id":2320714277,"lat":43.08641,"lon":23.3926,"name":"Zh. p. shkola - Lakatnik","nameLocal":"ЖП школа - Лакатник","type":"station"},{"id":89033142,"lat":42.98024,"lon":23.36195,"name":"Zhelen","nameLocal":"Желен","type":"station"},{"id":560365300,"lat":42.60588,"lon":26.48614,"name":"Zhelyu Voyvoda","nameLocal":"Желю войвода","type":"station"},{"id":775583877,"lat":43.6631,"lon":25.36262,"name":"Zimnicea","type":"station"},{"id":11494800292,"lat":42.58544,"lon":26.59817,"name":"Zimnitsa","nameLocal":"Зимница","type":"halt"},{"id":11132878344,"lat":42.49893,"lon":25.59614,"name":"Zmeyovo","nameLocal":"Змейово","type":"station"},{"id":463715806,"lat":41.26087,"lon":23.13931,"name":"Μανδράκι","type":"station"},{"id":2825071652,"lat":42.0369,"lon":23.82044,"name":"Аврамово","type":"station"},{"id":2319234185,"lat":42.72906,"lon":24.24728,"name":"Антон","type":"station"},{"id":222918977,"lat":42.01435,"lon":24.86921,"name":"Асеновград","type":"station"},{"id":2319237147,"lat":43.46512,"lon":26.84695,"name":"Байково","type":"station"},{"id":12395647804,"lat":42.70609,"lon":23.15091,"name":"Банкя","type":"station"},{"id":91597894,"lat":42.7059,"lon":23.15122,"name":"Банкя","type":"station"},{"id":278617024,"lat":41.84397,"lon":23.49027,"name":"Банско","type":"station"},{"id":1116786792,"lat":42.54204,"lon":24.84542,"name":"Баня","type":"station"},{"id":1870949965,"lat":42.59547,"lon":22.95363,"name":"Батановци","type":"station"},{"id":2319243449,"lat":43.54527,"lon":25.8498,"name":"Батишница","type":"station"},{"id":357812445,"lat":42.46028,"lon":26.38754,"name":"Безмер","type":"station"},{"id":915809923,"lat":41.91757,"lon":23.57964,"name":"Белица","type":"station"},{"id":12598445705,"lat":42.21561,"lon":24.0184,"name":"Белово","type":"station"},{"id":1188988105,"lat":42.21546,"lon":24.01839,"name":"Белово","type":"station"},{"id":642826110,"lat":42.20164,"lon":25.04603,"name":"Белозем","type":"station"},{"id":13014218994,"lat":43.19858,"lon":27.706,"name":"Белослав","type":"station"},{"id":2185510561,"lat":42.20505,"lon":24.63943,"name":"Бенковски","type":"halt"},{"id":3621789930,"lat":41.87221,"lon":25.98438,"name":"Бисер","type":"halt"},{"id":8017431887,"lat":43.36099,"lon":23.2246,"name":"Благово","type":"station"},{"id":5503516157,"lat":42.37585,"lon":23.00054,"name":"Бобов дол","type":"station"},{"id":2319264445,"lat":42.15846,"lon":23.03741,"name":"Бобошево","type":"station"},{"id":11194240540,"lat":43.02207,"lon":23.35146,"name":"Бов","type":"station"},{"id":2319272595,"lat":43.51673,"lon":24.57933,"name":"Божурица","type":"station"},{"id":13042272259,"lat":42.75229,"lon":23.21343,"name":"Божурище","type":"halt"},{"id":616967327,"lat":42.87433,"lon":22.86196,"name":"Боиловци","type":"station"},{"id":8019230007,"lat":43.47513,"lon":23.33877,"name":"Бойчиновци","type":"station"},{"id":1208473531,"lat":43.48819,"lon":25.80981,"name":"Борово","type":"station"},{"id":2445328859,"lat":42.60122,"lon":24.89381,"name":"Ботев","type":"station"},{"id":217544556,"lat":42.74219,"lon":23.51786,"name":"Ботунец","type":"station"},{"id":1208257552,"lat":42.03786,"lon":24.36162,"name":"Брацигово","type":"station"},{"id":2973603676,"lat":42.758,"lon":23.02341,"name":"Бригадирска слава","type":"halt"},{"id":660724649,"lat":43.66512,"lon":23.0754,"name":"Брусарци","type":"station"},{"id":1845405721,"lat":44.09779,"lon":22.48288,"name":"Брусник","type":"station"},{"id":3034526843,"lat":42.71558,"lon":23.93816,"name":"Буново","type":"station"},{"id":8033228395,"lat":42.71597,"lon":23.93801,"name":"Буново","type":"station"},{"id":2319362910,"lat":42.51679,"lon":27.42369,"name":"Бургас Разпределителна","type":"station"},{"id":2319363713,"lat":43.30259,"lon":25.21711,"name":"Бутово","type":"station"},{"id":2319375534,"lat":42.59587,"lon":27.30208,"name":"Българово","type":"station"},{"id":591053328,"lat":43.46887,"lon":25.66939,"name":"Бяла","type":"station"},{"id":13042236249,"lat":42.55622,"lon":23.70735,"name":"Вакарел","type":"station"},{"id":915733915,"lat":42.1556,"lon":24.13764,"name":"Варвара","type":"station"},{"id":12214361791,"lat":43.198,"lon":27.91226,"name":"Варна","type":"station"},{"id":2319576344,"lat":43.71237,"lon":23.13081,"name":"Василовци","type":"station"},{"id":12244682259,"lat":42.8324,"lon":26.9728,"name":"Ведрово","type":"halt"},{"id":216482601,"lat":43.07415,"lon":25.63824,"name":"Велико Търново","type":"station"},{"id":12120728030,"lat":42.02474,"lon":23.99635,"name":"Велинград","type":"station"},{"id":3209369418,"lat":43.04722,"lon":27.44165,"name":"Величково","type":"station"},{"id":1371945799,"lat":43.23316,"lon":27.39039,"name":"Венчан","type":"station"},{"id":2319580093,"lat":42.49553,"lon":23.76916,"name":"Веринско","type":"station"},{"id":2319580891,"lat":43.69462,"lon":26.24825,"name":"Ветово","type":"station"},{"id":2319583738,"lat":43.91347,"lon":22.81944,"name":"Видбол","type":"station"},{"id":13164562684,"lat":43.98432,"lon":22.87523,"name":"Видин","type":"station"},{"id":2319585482,"lat":43.46931,"lon":26.77006,"name":"Висока поляна","type":"station"},{"id":863415974,"lat":42.6233,"lon":23.18522,"name":"Владая","type":"station"},{"id":2319362512,"lat":42.50229,"lon":27.45751,"name":"Владимир Павлов","type":"station"},{"id":106224470,"lat":43.70466,"lon":22.85305,"name":"Воднянци","type":"station"},{"id":627584201,"lat":43.20876,"lon":23.55772,"name":"Враца","type":"station"},{"id":5678485272,"lat":43.03885,"lon":22.93212,"name":"Връдловци","type":"halt"},{"id":2319597167,"lat":43.40488,"lon":27.5588,"name":"Вълчи дол","type":"station"},{"id":13042245420,"lat":42.72493,"lon":26.89011,"name":"Вълчин","type":"halt"},{"id":1863087834,"lat":43.53515,"lon":23.26649,"name":"Габровница","type":"station"},{"id":1208257287,"lat":42.64032,"lon":26.17153,"name":"Гаврайлово","type":"station"},{"id":864300175,"lat":42.9912,"lon":25.51731,"name":"Ганчовец","type":"station"},{"id":534343892,"lat":42.73014,"lon":23.34776,"name":"гара Биримирци","type":"station"},{"id":106418856,"lat":42.26079,"lon":26.59824,"name":"гара Бояново","type":"station"},{"id":245151889,"lat":42.65386,"lon":25.8142,"name":"Гара Гурково","type":"station"},{"id":501324569,"lat":42.46791,"lon":22.99574,"name":"Гара Долни Раковец","type":"station"},{"id":252705012,"lat":42.67775,"lon":26.07267,"name":"Гара Чумерна","type":"station"},{"id":635702096,"lat":41.45593,"lon":23.28056,"name":"Генерал Тодоров","type":"station"},{"id":12110108648,"lat":43.70127,"lon":28.03373,"name":"Генерал Тошево","type":"station"},{"id":2319354701,"lat":43.66745,"lon":26.80389,"name":"Голям Поровец","type":"station"},{"id":2319615527,"lat":43.38013,"lon":24.34437,"name":"Горни Дъбник","type":"station"},{"id":2319624936,"lat":41.67723,"lon":23.18483,"name":"Градешница","type":"station"},{"id":2319625414,"lat":43.32623,"lon":25.20872,"name":"Градище","type":"station"},{"id":2319625925,"lat":42.28404,"lon":24.73213,"name":"Граф Игнатиево","type":"station"},{"id":1208236821,"lat":43.41017,"lon":24.69552,"name":"Гривица","type":"station"},{"id":2319629783,"lat":42.41316,"lon":23.08506,"name":"Гълъбник","type":"station"},{"id":3673486947,"lat":41.50479,"lon":23.27022,"name":"Дамяница","type":"station"},{"id":2319634682,"lat":43.58833,"lon":25.87252,"name":"Две могили","type":"station"},{"id":972016661,"lat":43.04548,"lon":25.59698,"name":"Дебелец","type":"station"},{"id":12112310170,"lat":43.21774,"lon":27.59607,"name":"Девня","type":"station"},{"id":572806101,"lat":42.38752,"lon":23.10933,"name":"Делян","type":"station"},{"id":2319641458,"lat":43.16077,"lon":25.88297,"name":"Джулюница","type":"station"},{"id":11753287865,"lat":43.22691,"lon":26.99354,"name":"Дибич","type":"halt"},{"id":11197397564,"lat":43.23363,"lon":26.9379,"name":"Дивдядово","type":"halt"},{"id":11132878348,"lat":42.18697,"lon":25.54698,"name":"Димитриево","type":"station"},{"id":11132878350,"lat":42.0714,"lon":25.57356,"name":"Димитровград север","type":"station"},{"id":669238796,"lat":43.7359,"lon":22.72217,"name":"Димово","type":"station"},{"id":288154193,"lat":41.82544,"lon":23.56223,"name":"Добринище","type":"station"},{"id":12110108669,"lat":43.56618,"lon":27.81561,"name":"Добрич","type":"station"},{"id":12110108664,"lat":43.59159,"lon":27.84018,"name":"Добрич Север","type":"station"},{"id":1242610297,"lat":42.96362,"lon":24.68372,"name":"Добродан","type":"station"},{"id":4704951149,"lat":43.22665,"lon":24.84449,"name":"Дойренци","type":"station"},{"id":866003564,"lat":43.75604,"lon":25.9077,"name":"Долапите","type":"station"},{"id":168430069,"lat":42.09268,"lon":24.04808,"name":"Долене","type":"station"},{"id":3138760430,"lat":42.40808,"lon":24.77846,"name":"Долна Махала","type":"station"},{"id":1430332159,"lat":43.473,"lon":24.53763,"name":"Долна Митрополия","type":"station"},{"id":2320625032,"lat":43.66166,"lon":24.74742,"name":"Долни Вит","type":"station"},{"id":1430201806,"lat":43.41402,"lon":24.42949,"name":"Долни Дъбник","type":"station"},{"id":2319361627,"lat":42.51638,"lon":27.36066,"name":"Долно Езерово","type":"station"},{"id":1696045776,"lat":42.29862,"lon":22.49675,"name":"Долно село","type":"station"},{"id":2320627230,"lat":43.59232,"lon":23.22514,"name":"Долно Церовене","type":"station"},{"id":635991082,"lat":42.60515,"lon":23.13274,"name":"Драгичево","type":"station"},{"id":1208192421,"lat":42.96212,"lon":22.88868,"name":"Драгоил","type":"station"},{"id":2038818768,"lat":42.92219,"lon":22.93182,"name":"Драгоман","type":"station"},{"id":2320627821,"lat":43.51948,"lon":25.24289,"name":"Драгомирово","type":"station"},{"id":2320628849,"lat":43.33156,"lon":26.43407,"name":"Дралфа","type":"station"},{"id":2320631237,"lat":43.69234,"lon":22.97291,"name":"Дреновец","type":"station"},{"id":2320635195,"lat":42.56136,"lon":27.31714,"name":"Дружба","type":"station"},{"id":496124122,"lat":42.97136,"lon":25.47609,"name":"Дряново","type":"station"},{"id":600545583,"lat":43.80295,"lon":27.14764,"name":"Дулово","type":"station"},{"id":2404731871,"lat":42.65907,"lon":25.30232,"name":"Дунавци","type":"station"},{"id":216563145,"lat":42.26025,"lon":23.10365,"name":"Дупница","type":"station"},{"id":866792658,"lat":43.68431,"lon":23.01659,"name":"Дъбова махала","type":"station"},{"id":12782292098,"lat":42.61418,"lon":25.63758,"name":"Дъбово","type":"station"},{"id":207911807,"lat":42.61402,"lon":25.63779,"name":"Дъбово","type":"station"},{"id":9761900044,"lat":43.06006,"lon":25.63397,"name":"Дълга лъка","type":"station"},{"id":2194437945,"lat":43.04793,"lon":27.341,"name":"Дългопол","type":"station"},{"id":645252096,"lat":42.8857,"lon":27.19416,"name":"Дъскотна","type":"station"},{"id":2320648594,"lat":42.32924,"lon":23.10523,"name":"Дяково","type":"station"},{"id":2320649900,"lat":43.19747,"lon":27.7689,"name":"Езерово","type":"station"},{"id":215033916,"lat":42.93642,"lon":25.90939,"name":"Елена","type":"station"},{"id":12716105131,"lat":42.62849,"lon":23.57896,"name":"Елин Пелин","type":"station"},{"id":1208192420,"lat":42.62822,"lon":23.57868,"name":"Елин Пелин","type":"station"},{"id":2320909291,"lat":42.49809,"lon":26.26368,"name":"ж.п гара Кермен","type":"station"},{"id":4903186740,"lat":42.68006,"lon":26.02689,"name":"ж.п.гара Шивачево","type":"station"},{"id":2320654462,"lat":42.49095,"lon":22.79047,"name":"Жабляно","type":"station"},{"id":867121054,"lat":43.88673,"lon":22.79957,"name":"Жеглица","type":"station"},{"id":2320659213,"lat":41.92537,"lon":23.10489,"name":"Железница","type":"station"},{"id":13042239820,"lat":42.46281,"lon":23.76951,"name":"Живково","type":"halt"},{"id":2320701734,"lat":43.11042,"lon":27.52283,"name":"Житница","type":"station"},{"id":2551447047,"lat":42.44474,"lon":25.84532,"name":"жп гара Хан Аспарухово","type":"station"},{"id":2552995908,"lat":42.46741,"lon":25.93793,"name":"жп.спирка Стоил Воивода","type":"halt"},{"id":645250495,"lat":42.84167,"lon":27.03892,"name":"Завет","type":"station"},{"id":2421482954,"lat":41.64256,"lon":25.48264,"name":"Звезделина","type":"station"},{"id":2320719401,"lat":43.08116,"lon":23.57129,"name":"Зверино","type":"station"},{"id":2320832367,"lat":42.18738,"lon":24.24065,"name":"Звъничево","type":"station"},{"id":2320836319,"lat":43.28928,"lon":26.49941,"name":"Здравец","type":"station"},{"id":641533436,"lat":42.48104,"lon":22.7475,"name":"Земен","type":"station"},{"id":148942244,"lat":42.71598,"lon":24.12648,"name":"Златица","type":"station"},{"id":2319323483,"lat":42.76552,"lon":23.03986,"name":"Златуша","type":"station"},{"id":11132878327,"lat":43.68424,"lon":25.95558,"name":"Иваново","type":"station"},{"id":12294310618,"lat":42.66972,"lon":23.40306,"name":"Искърско шосе","type":"station"},{"id":2319355839,"lat":43.7041,"lon":26.83461,"name":"Исперих","type":"station"},{"id":11753280841,"lat":42.42957,"lon":23.79901,"name":"Ихтиман","type":"station"},{"id":2979843460,"lat":42.61383,"lon":25.39156,"name":"Казанлък","type":"station"},{"id":13172758249,"lat":42.65255,"lon":23.46984,"name":"Казичене","type":"station"},{"id":2320861228,"lat":44.08557,"lon":27.2197,"name":"Калипетрово","type":"station"},{"id":2320863211,"lat":42.42699,"lon":25.73157,"name":"Калитиново","type":"station"},{"id":641533437,"lat":42.48687,"lon":22.84279,"name":"Калище","type":"station"},{"id":504844584,"lat":42.98003,"lon":22.85157,"name":"Калотина","type":"station"},{"id":236304513,"lat":42.59641,"lon":25.00414,"name":"Калофер","type":"station"},{"id":8091031030,"lat":42.31138,"lon":25.56944,"name":"Калояновец","type":"station"},{"id":435518491,"lat":42.31093,"lon":25.56938,"name":"Калояновец","type":"station"},{"id":1805395732,"lat":42.3342,"lon":24.75557,"name":"Калояново","type":"station"},{"id":2320869891,"lat":43.36274,"lon":25.00631,"name":"Каменец","type":"station"},{"id":2320880104,"lat":42.10256,"lon":25.32056,"name":"Караджалово","type":"station"},{"id":2320883313,"lat":43.30634,"lon":26.31248,"name":"Караджата","type":"station"},{"id":12110108630,"lat":43.75304,"lon":28.11458,"name":"Кардам","type":"station"},{"id":2320902177,"lat":43.18886,"lon":24.07128,"name":"Карлуково","type":"station"},{"id":2256051763,"lat":42.1016,"lon":24.87572,"name":"Катуница","type":"station"},{"id":2320909542,"lat":43.16846,"lon":25.92939,"name":"Кесарево","type":"station"},{"id":2320911168,"lat":43.72446,"lon":26.88931,"name":"Китанчево","type":"station"},{"id":11194005725,"lat":42.70715,"lon":27.05688,"name":"Кликач","type":"station"},{"id":982186776,"lat":42.69052,"lon":24.46232,"name":"Клисура","type":"station"},{"id":10732260875,"lat":41.82508,"lon":25.59631,"name":"Книжовник","type":"halt"},{"id":11541689586,"lat":44.18916,"lon":22.58746,"name":"Кобишница","type":"station"},{"id":2321074862,"lat":43.13867,"lon":25.81769,"name":"Козаревец","type":"station"},{"id":2321076868,"lat":43.58612,"lon":24.63203,"name":"Комарево","type":"station"},{"id":2321077625,"lat":43.0065,"lon":27.29037,"name":"Комунари","type":"station"},{"id":12724330211,"lat":42.45453,"lon":23.01787,"name":"Кондофрей","type":"halt"},{"id":11194099734,"lat":42.28418,"lon":26.55486,"name":"Коневец","type":"halt"},{"id":2320897874,"lat":42.33131,"lon":22.73315,"name":"Копиловци","type":"station"},{"id":1696546700,"lat":42.03567,"lon":24.07044,"name":"Костандово","type":"station"},{"id":227930454,"lat":42.30817,"lon":23.85984,"name":"Костенец","type":"station"},{"id":205024635,"lat":42.80717,"lon":23.19974,"name":"Костинброд","type":"station"},{"id":2038848327,"lat":42.79239,"lon":23.2094,"name":"Костинброд сп.","type":"station"},{"id":2321130236,"lat":43.22333,"lon":26.79457,"name":"Кочово","type":"station"},{"id":182648631,"lat":42.59694,"lon":23.00897,"name":"Кракра","type":"station"},{"id":2319228967,"lat":42.75165,"lon":23.48564,"name":"Кремиковци","type":"station"},{"id":869888346,"lat":41.70992,"lon":23.17313,"name":"Кресна","type":"station"},{"id":2321515818,"lat":43.60911,"lon":24.66777,"name":"Крета","type":"station"},{"id":2321515846,"lat":43.686,"lon":23.09904,"name":"Крива бара","type":"station"},{"id":2321516422,"lat":43.67562,"lon":26.34751,"name":"Кривня","type":"station"},{"id":12759699877,"lat":43.36691,"lon":23.47253,"name":"Криводол","type":"station"},{"id":1201943895,"lat":42.06036,"lon":24.4649,"name":"Кричим","type":"station"},{"id":1070061366,"lat":42.09351,"lon":24.81896,"name":"Крумово","type":"station"},{"id":2321519847,"lat":43.24212,"lon":25.66908,"name":"Крушето","type":"station"},{"id":249270200,"lat":42.76977,"lon":25.55197,"name":"Кръстец","type":"station"},{"id":1655361832,"lat":42.776,"lon":23.36021,"name":"Кубратово","type":"station"},{"id":2321520807,"lat":41.39179,"lon":23.36169,"name":"Кулата","type":"station"},{"id":870560584,"lat":43.18739,"lon":24.00575,"name":"Кунино","type":"station"},{"id":8109565562,"lat":42.8181,"lon":23.35673,"name":"Курило","type":"station"},{"id":1201942273,"lat":42.09535,"lon":24.49183,"name":"Куртово Конаре","type":"station"},{"id":2321521856,"lat":43.26867,"lon":25.64681,"name":"Куцина","type":"station"},{"id":12399617531,"lat":43.08258,"lon":23.37882,"name":"Лакатник","type":"station"},{"id":153220349,"lat":43.0825,"lon":23.37855,"name":"Лакатник","type":"station"},{"id":13014294656,"lat":43.35077,"lon":25.14291,"name":"Левски","type":"station"},{"id":2322142935,"lat":43.20075,"lon":25.41574,"name":"Лесичери","type":"station"},{"id":1694813817,"lat":43.31626,"lon":25.05928,"name":"Летница","type":"station"},{"id":2322173415,"lat":43.25697,"lon":26.69341,"name":"Ловец","type":"station"},{"id":1694813509,"lat":43.16874,"lon":24.73014,"name":"Ловеч - Север","type":"station"},{"id":356648053,"lat":42.7691,"lon":26.88744,"name":"Лозарево","type":"station"},{"id":2321091154,"lat":42.76799,"lon":23.43469,"name":"Локорско","type":"station"},{"id":8112836299,"lat":43.82144,"lon":23.24208,"name":"Лом","type":"station"},{"id":589639689,"lat":43.21503,"lon":24.17587,"name":"Луковит","type":"station"},{"id":13254055156,"lat":42.18653,"lon":25.90588,"name":"Любеново предавателна","type":"station"},{"id":11132878354,"lat":41.85121,"lon":26.07383,"name":"Любимец","type":"station"},{"id":495695156,"lat":43.11184,"lon":23.62923,"name":"Лютиброд","type":"station"},{"id":5795741528,"lat":43.2747,"lon":27.09985,"name":"Мадара","type":"station"},{"id":13172758248,"lat":42.68981,"lon":23.80353,"name":"Макоцево","type":"station"},{"id":4710626911,"lat":42.18506,"lon":24.92344,"name":"Маноле / Manole","type":"station"},{"id":2322342299,"lat":43.6174,"lon":23.164,"name":"Медковец","type":"station"},{"id":2322343042,"lat":43.31719,"lon":26.18217,"name":"Медовина","type":"station"},{"id":609928299,"lat":43.14219,"lon":23.71486,"name":"Мездра","type":"station"},{"id":2320723623,"lat":43.13152,"lon":23.70386,"name":"Мездра юг","type":"station"},{"id":2611151395,"lat":42.12167,"lon":25.49082,"name":"Меричлери","type":"station"},{"id":2322345016,"lat":43.63157,"lon":24.71267,"name":"Милковица","type":"station"},{"id":2321098060,"lat":42.70346,"lon":23.99683,"name":"Мирково","type":"station"},{"id":11132878347,"lat":42.24275,"lon":25.52922,"name":"Михайлово","type":"station"},{"id":2322353909,"lat":43.21596,"lon":25.36081,"name":"Михалци-Стамболово","type":"station"},{"id":2322356729,"lat":42.18032,"lon":24.29323,"name":"Мокрище","type":"station"},{"id":2322371079,"lat":43.40841,"lon":23.23005,"name":"Монтана","type":"station"},{"id":2322371801,"lat":43.45301,"lon":25.20659,"name":"Морава","type":"station"},{"id":11191396394,"lat":43.49001,"lon":25.75508,"name":"Моруница","type":"halt"},{"id":2322391230,"lat":43.19095,"lon":27.75857,"name":"Моряк","type":"station"},{"id":4868508780,"lat":41.74106,"lon":25.53029,"name":"Мост","type":"station"},{"id":2321126373,"lat":42.11746,"lon":23.03829,"name":"Мурсалево","type":"station"},{"id":2322404617,"lat":43.51598,"lon":23.33947,"name":"Мърчево","type":"station"},{"id":12197611586,"lat":43.28307,"lon":27.02488,"name":"Мътница","type":"station"},{"id":2323226123,"lat":43.24543,"lon":26.75912,"name":"Надарево","type":"station"},{"id":2322377813,"lat":43.24908,"lon":27.28435,"name":"Невша","type":"station"},{"id":205477965,"lat":42.77461,"lon":23.4079,"name":"Негован","type":"station"},{"id":2321094730,"lat":42.71537,"lon":23.72558,"name":"Негушево","type":"halt"},{"id":13164562510,"lat":42.73824,"lon":23.26391,"name":"Обеля","type":"halt"},{"id":8238695428,"lat":43.79387,"lon":26.03203,"name":"Образцов чифлик","type":"station"},{"id":368104584,"lat":42.1384,"lon":24.41673,"name":"Огняново","type":"station"},{"id":3257074092,"lat":43.58464,"lon":25.21674,"name":"Ореш","type":"station"},{"id":2323317698,"lat":43.65938,"lon":22.74476,"name":"Орешец","type":"station"},{"id":12330608833,"lat":42.2045,"lon":25.17561,"name":"Оризово","type":"station"},{"id":1447668698,"lat":42.2047,"lon":25.17564,"name":"Оризово","type":"station"},{"id":2320718785,"lat":43.07694,"lon":23.54048,"name":"Оселна","type":"station"},{"id":11914220556,"lat":43.12961,"lon":23.79387,"name":"Ослен","type":"halt"},{"id":2323327686,"lat":43.45241,"lon":23.36568,"name":"Охрид","type":"station"},{"id":1447683856,"lat":43.23311,"lon":25.30158,"name":"Павликени","type":"station"},{"id":2190459616,"lat":42.49207,"lon":24.19685,"name":"Панагюрище","type":"station"},{"id":6043351998,"lat":43.01903,"lon":27.25637,"name":"Партизани","type":"station"},{"id":509197855,"lat":42.60127,"lon":23.03065,"name":"Перник","type":"station"},{"id":193594034,"lat":42.60496,"lon":23.06148,"name":"Перник разпределителна","type":"station"},{"id":2324473535,"lat":43.29901,"lon":25.63975,"name":"Петко Каравелово","type":"station"},{"id":659861199,"lat":42.8276,"lon":23.12187,"name":"Петърч","type":"station"},{"id":275265678,"lat":42.03436,"lon":24.31256,"name":"Пещера","type":"station"},{"id":2321100569,"lat":42.70992,"lon":24.17411,"name":"Пирдоп","type":"station"},{"id":331115185,"lat":42.82816,"lon":25.47953,"name":"Плачковци","type":"station"},{"id":8358647025,"lat":43.42094,"lon":24.61452,"name":"Плевен","type":"station"},{"id":2324476052,"lat":43.34441,"lon":27.09462,"name":"Плиска","type":"station"},{"id":1104871919,"lat":42.60156,"lon":23.63782,"name":"Побит камък","type":"station"},{"id":12112310217,"lat":43.19421,"lon":27.64007,"name":"Повеляново","type":"station"},{"id":2324478028,"lat":42.80159,"lon":26.87648,"name":"Подвис","type":"station"},{"id":11914195017,"lat":43.31244,"lon":26.47275,"name":"Подгорица","type":"halt"},{"id":1430028139,"lat":43.5397,"lon":24.5968,"name":"Подем","type":"station"},{"id":2322363021,"lat":42.69409,"lon":23.36674,"name":"Подуяне Разпр.ср.р.","type":"halt"},{"id":2322355888,"lat":43.16758,"lon":25.62013,"name":"Поликраище","type":"station"},{"id":958217820,"lat":43.37033,"lon":25.63434,"name":"Полски Тръмбеш","type":"station"},{"id":1157648088,"lat":42.13884,"lon":25.05981,"name":"Поповица","type":"station"},{"id":2322349440,"lat":43.38634,"lon":24.84752,"name":"Пордим","type":"station"},{"id":668467266,"lat":42.82267,"lon":26.91206,"name":"Прилеп","type":"station"},{"id":180045794,"lat":43.19007,"lon":27.43823,"name":"Провадия","type":"station"},{"id":10744857787,"lat":42.12519,"lon":24.68597,"name":"Прослав","type":"halt"},{"id":2323290452,"lat":43.64314,"lon":26.48043,"name":"Просторно","type":"station"},{"id":2322379312,"lat":43.23464,"lon":27.34573,"name":"Равна","type":"station"},{"id":12110108657,"lat":43.67731,"lon":27.98925,"name":"Равнец","type":"station"},{"id":2325065129,"lat":43.34244,"lon":25.63831,"name":"Раданово","type":"station"},{"id":1164728871,"lat":42.29109,"lon":25.92693,"name":"Раднево","type":"station"},{"id":2320888392,"lat":42.53874,"lon":22.95206,"name":"Радомир","type":"station"},{"id":2319333066,"lat":42.73284,"lon":23.02323,"name":"Радуй","type":"halt"},{"id":207918850,"lat":42.67803,"lon":25.59615,"name":"Радунци","type":"station"},{"id":1237654082,"lat":42.37973,"lon":22.70679,"name":"Раждавица","type":"station"},{"id":1856169681,"lat":43.5673,"lon":26.50917,"name":"Разград","type":"station"},{"id":12112310218,"lat":43.16903,"lon":27.62482,"name":"Разделна","type":"station"},{"id":915826378,"lat":41.88068,"lon":23.47317,"name":"Разлог","type":"station"},{"id":1697463788,"lat":42.71099,"lon":23.02827,"name":"Разменна","type":"station"},{"id":1858353544,"lat":43.59945,"lon":26.48557,"name":"Раковски","type":"station"},{"id":2320720987,"lat":43.11412,"lon":23.67525,"name":"Ребърково","type":"station"},{"id":2322355525,"lat":43.1815,"lon":25.56405,"name":"Ресен","type":"station"},{"id":2321105597,"lat":42.71579,"lon":24.53939,"name":"Розино","type":"station"},{"id":2897991074,"lat":43.15453,"lon":23.9215,"name":"Роман","type":"station"},{"id":2927677940,"lat":42.69303,"lon":23.53756,"name":"РП Мусачево","type":"halt"},{"id":2322354638,"lat":43.19333,"lon":25.47108,"name":"Русаля Дичин","type":"station"},{"id":2484115407,"lat":43.13756,"lon":25.619,"name":"Самоводене","type":"station"},{"id":1489580702,"lat":43.51246,"lon":26.73925,"name":"Самуил","type":"station"},{"id":2322338758,"lat":41.54269,"lon":23.25179,"name":"Сандански","type":"station"},{"id":2321096221,"lat":42.71563,"lon":23.75677,"name":"Саранци","type":"station"},{"id":286432423,"lat":42.56751,"lon":27.49272,"name":"Сарафово","type":"station"},{"id":2328274835,"lat":42.64595,"lon":25.22301,"name":"Сахране","type":"station"},{"id":247437576,"lat":42.6777,"lon":25.96868,"name":"Сборище","type":"station"},{"id":2321089191,"lat":42.78311,"lon":23.38142,"name":"Световрачене","type":"station"},{"id":2328282679,"lat":43.62313,"lon":25.33663,"name":"Свищов","type":"station"},{"id":2437703141,"lat":42.23926,"lon":25.43694,"name":"Свобода","type":"station"},{"id":2323288962,"lat":43.66124,"lon":26.38101,"name":"Сеново","type":"station"},{"id":1696546782,"lat":42.20409,"lon":24.13173,"name":"Септември","type":"station"},{"id":13151384815,"lat":42.24648,"lon":23.93649,"name":"Сестримо","type":"halt"},{"id":421067799,"lat":44.11369,"lon":27.25019,"name":"Силистра","type":"station"},{"id":2320657750,"lat":41.88424,"lon":23.107,"name":"Симитли","type":"station"},{"id":2328288832,"lat":43.89882,"lon":22.79853,"name":"Синаговци-Гурково","type":"station"},{"id":2322386861,"lat":43.12312,"lon":27.59855,"name":"Синдел Разпределителна","type":"station"},{"id":2329097168,"lat":43.2941,"lon":26.17146,"name":"Славяново","type":"station"},{"id":8462486188,"lat":43.29374,"lon":26.17135,"name":"Славяново","type":"station"},{"id":107712424,"lat":43.95754,"lon":22.81737,"name":"Слана бара","type":"station"},{"id":6032283879,"lat":42.84972,"lon":23.05563,"name":"Сливница","type":"station"},{"id":2187224875,"lat":42.41424,"lon":24.37406,"name":"Смилец","type":"halt"},{"id":3246643871,"lat":43.07617,"lon":27.02935,"name":"Смядово","type":"station"},{"id":2329104035,"lat":43.02083,"lon":25.53163,"name":"Соколово","type":"station"},{"id":11197446159,"lat":43.13495,"lon":27.47354,"name":"Солна мина","type":"halt"},{"id":2329104355,"lat":43.68999,"lon":24.773,"name":"Сомовит","type":"station"},{"id":2321106250,"lat":42.64172,"lon":24.74238,"name":"Сопот","type":"station"},{"id":2255995921,"lat":42.07689,"lon":25.44563,"name":"сп. Ябълково","type":"station"},{"id":2256051769,"lat":42.10006,"lon":24.84667,"name":"сп. Ягодово","type":"station"},{"id":1695277221,"lat":42.68984,"lon":23.82094,"name":"спирка Макоцево","type":"halt"},{"id":2329880130,"lat":43.82104,"lon":22.75703,"name":"Срацимир","type":"station"},{"id":307365208,"lat":41.63806,"lon":25.51217,"name":"Средна Арда","type":"station"},{"id":11194005726,"lat":42.09601,"lon":25.39645,"name":"Сталево","type":"halt"},{"id":2329885504,"lat":43.74226,"lon":23.16496,"name":"Сталийска махала","type":"station"},{"id":268431234,"lat":42.13322,"lon":24.5364,"name":"Стамболийски","type":"station"},{"id":458143265,"lat":43.04638,"lon":22.92142,"name":"Станянци","type":"station"},{"id":2321092007,"lat":42.70554,"lon":23.63222,"name":"Столник","type":"station"},{"id":2329918768,"lat":43.2169,"lon":25.95456,"name":"Стражица","type":"station"},{"id":2322388683,"lat":43.19758,"lon":27.74085,"name":"Страшимирово","type":"station"},{"id":1696692120,"lat":42.49289,"lon":24.33096,"name":"Стрелча","type":"station"},{"id":2322336623,"lat":41.64123,"lon":23.19907,"name":"Струмяни","type":"station"},{"id":2329923031,"lat":43.13605,"lon":23.8655,"name":"Струпец","type":"station"},{"id":1470779836,"lat":43.33405,"lon":27.58515,"name":"Суворово","type":"station"},{"id":3206644005,"lat":42.25999,"lon":24.53418,"name":"Съединение","type":"station"},{"id":2330909516,"lat":43.62144,"lon":25.93766,"name":"Табачка","type":"station"},{"id":8483504810,"lat":42.69522,"lon":25.89843,"name":"Твърдица","type":"station"},{"id":700937220,"lat":43.33051,"lon":24.25271,"name":"Телиш","type":"station"},{"id":2322392428,"lat":43.20015,"lon":27.81053,"name":"Тополите","type":"station"},{"id":2330919725,"lat":43.76045,"lon":23.1915,"name":"Трайково","type":"station"},{"id":3337486756,"lat":42.8811,"lon":24.71405,"name":"Троян","type":"station"},{"id":1806908887,"lat":42.23023,"lon":24.72391,"name":"Труд","type":"station"},{"id":2322387372,"lat":43.14374,"lon":27.60301,"name":"Тръстиково","type":"station"},{"id":335457619,"lat":42.87337,"lon":25.49687,"name":"Трявна","type":"station"},{"id":2330932164,"lat":43.26343,"lon":26.57808,"name":"Търговище","type":"station"},{"id":2320875529,"lat":42.93651,"lon":27.21775,"name":"Търнак","type":"station"},{"id":9163292858,"lat":42.93427,"lon":22.90328,"name":"Умляк","type":"halt"},{"id":2332338794,"lat":42.13288,"lon":24.45144,"name":"Хаджиево","type":"station"},{"id":10732260874,"lat":41.93301,"lon":25.58004,"name":"Хасково","type":"station"},{"id":8458592816,"lat":42.50533,"lon":24.70051,"name":"Хисар","type":"station"},{"id":3816644572,"lat":42.80541,"lon":23.06187,"name":"Храбърско","type":"station"},{"id":2934351367,"lat":42.35167,"lon":25.59534,"name":"Християново","type":"station"},{"id":11197412591,"lat":43.09631,"lon":27.56285,"name":"Царевци","type":"halt"},{"id":1696546706,"lat":42.01145,"lon":23.86806,"name":"Цветино","type":"station"},{"id":2334550694,"lat":42.62077,"lon":26.84128,"name":"Церковски","type":"station"},{"id":2321096542,"lat":42.70791,"lon":23.77398,"name":"Чеканчево","type":"station"},{"id":2321099436,"lat":42.69812,"lon":24.07666,"name":"Челопеч","type":"station"},{"id":4950723059,"lat":43.01204,"lon":22.93269,"name":"Чепърлянци","type":"halt"},{"id":303927265,"lat":43.28224,"lon":24.07891,"name":"Червен Бряг","type":"station"},{"id":1660778313,"lat":42.22053,"lon":25.22723,"name":"Черна Гора","type":"station"},{"id":13037683931,"lat":42.22051,"lon":25.22732,"name":"Черна Гора","type":"station"},{"id":1157665766,"lat":42.04955,"lon":23.72761,"name":"Черна Места","type":"station"},{"id":2320655988,"lat":41.8601,"lon":23.12885,"name":"Черниче","type":"station"},{"id":12197646039,"lat":43.14102,"lon":25.7188,"name":"Честово Сп.","type":"halt"},{"id":1132543991,"lat":42.13251,"lon":24.97525,"name":"Чешнегирово","type":"station"},{"id":104430422,"lat":42.20348,"lon":25.33966,"name":"Чирпан","type":"station"},{"id":13042273206,"lat":43.27163,"lon":26.94376,"name":"Шумен","type":"station"},{"id":3209475344,"lat":43.08917,"lon":27.61272,"name":"Юнак","type":"station"},{"id":915810380,"lat":42.02311,"lon":23.6721,"name":"Якоруда","type":"station"},{"id":2321091582,"lat":42.72623,"lon":23.55133,"name":"Яна","type":"station"},{"id":11194240537,"lat":43.20702,"lon":25.66565,"name":"Янтра","type":"station"},{"id":2323291568,"lat":43.54908,"lon":26.63319,"name":"Ясеновец","type":"station"},{"id":2321121062,"lat":42.28757,"lon":23.12887,"name":"Яхиново","type":"station"}]