[{"id":3966409998,"lat":39.0874,"lon":48.7036,"name":"111 km","type":"station"},{"id":3885729051,"lat":39.53526,"lon":62.77248,"name":"170-nji duralga","type":"station"},{"id":696440302,"lat":38.67428,"lon":63.26837,"name":"51-nji razýezd","type":"station"},{"id":530973349,"lat":37.84076,"lon":62.59423,"name":"61-nji duralga","type":"station"},{"id":3884567919,"lat":37.87045,"lon":58.67096,"name":"87-nji duralga","type":"station"},{"id":679962027,"lat":31.17021,"lon":52.5807,"name":"Abadeh Railway Station","nameLocal":"ایستگاه راه آهن آباده","type":"station"},{"id":6535044505,"lat":35.20534,"lon":51.80154,"name":"Abardej","nameLocal":"ابردژ","type":"station"},{"id":7784585278,"lat":31.1593,"lon":53.21479,"name":"Abarkuh Railway Station","nameLocal":"ایستگاه راه آهن ابرکوه","type":"station"},{"id":9803574074,"lat":33.16214,"lon":56.33601,"name":"Abbasabad","nameLocal":"عباس آباد","type":"station"},{"id":691782063,"lat":38.01128,"lon":46.08352,"name":"Abbasi","nameLocal":"عباسی","type":"station"},{"id":2011671784,"lat":25.93193,"lon":49.66473,"name":"Abqaiq","type":"station"},{"id":1302862371,"lat":33.35777,"lon":44.22929,"name":"Abu Ghraib Train Station","nameLocal":"محطة قطار أبو غريب","type":"station"},{"id":2486368797,"lat":33.81667,"lon":44.76667,"name":"Abu Hawa","nameLocal":"محطة أبو هواء","type":"station"},{"id":1256909015,"lat":31.60974,"lon":45.07748,"name":"Abu Tabak Railway Station","nameLocal":"محطة أبو طبيخ","type":"station"},{"id":6354687689,"lat":35.94658,"lon":59.38423,"name":"Abumoslem railroad station","nameLocal":"ایستگاه قطار ابومسلم","type":"station"},{"id":4902598622,"lat":36.0323,"lon":50.51034,"name":"Abyek","nameLocal":"آبیک","type":"station"},{"id":1348420232,"lat":25.109,"lon":55.40066,"name":"Academic City","type":"station"},{"id":1256909024,"lat":31.13259,"lon":45.69813,"name":"Ad Darraji Railway Station","nameLocal":"محطة قطار الدراجي","type":"station"},{"id":691707415,"lat":36.9642,"lon":48.10695,"name":"Adr Pey","nameLocal":"آذرپی","type":"station"},{"id":11063050005,"lat":34.60531,"lon":58.06743,"name":"Ahang","nameLocal":"آهنگ","type":"station"},{"id":4036831341,"lat":31.87383,"lon":48.56076,"name":"Ahu Dasht","nameLocal":"آهودشت","type":"station"},{"id":5888798463,"lat":31.32404,"lon":48.66371,"name":"Ahvaz","nameLocal":"ایستگاه راه آهن اهواز","type":"station"},{"id":8384452800,"lat":35.42343,"lon":51.19896,"name":"Airport","nameLocal":"فرودگاه","type":"station"},{"id":907267552,"lat":37.50164,"lon":45.88194,"name":"Ajabshir Railway Station","nameLocal":"ایستگاه راه‌آهن عجب شیر","type":"station"},{"id":3889181263,"lat":39.42839,"lon":55.53562,"name":"Ak ýol","type":"station"},{"id":3883121346,"lat":37.90452,"lon":54.71365,"name":"Akjadepe","type":"station"},{"id":275164301,"lat":39.34901,"lon":55.16917,"name":"Akjaguýma","type":"station"},{"id":374916158,"lat":39.50163,"lon":58.48099,"name":"Akmaýanyň Ýoly","type":"station"},{"id":565003269,"lat":37.72572,"lon":59.00795,"name":"Aksuv station","nameLocal":"Aksuw stansiýasy","type":"station"},{"id":3884475565,"lat":37.4636,"lon":54.6298,"name":"Akýaýla","type":"station"},{"id":684487486,"lat":25.25766,"lon":51.44414,"name":"Al Aziziyah","nameLocal":"العزيزية","type":"station"},{"id":1174740163,"lat":31.98184,"lon":44.89648,"name":"Al Diwaniyah","nameLocal":"محطة قطار الديوانية","type":"station"},{"id":684433716,"lat":25.2748,"lon":51.53968,"name":"Al Doha Al Jadeda","nameLocal":"الدوحة الجديدة","type":"station"},{"id":1256909054,"lat":30.68552,"lon":46.95443,"name":"Al Ghubayshiya Railway Station","nameLocal":"محطة قطار الغبيشية","type":"station"},{"id":95533900,"lat":25.38659,"lon":49.56857,"name":"Al Hufuf Railway Station","nameLocal":"المؤسسة العامة للخطوط الحديدية","type":"station"},{"id":1167973728,"lat":30.81904,"lon":46.55658,"name":"Al Kormashiya Train Station","nameLocal":"محطة قطار الكرماشية","type":"station"},{"id":845204931,"lat":33.32145,"lon":44.32917,"name":"Al Mansur Railway Station","nameLocal":"محطة قطار المنصور","type":"station"},{"id":790515015,"lat":30.55973,"lon":47.78476,"name":"Al Maqal railway station","nameLocal":"محطة قطارات المعقل","type":"station"},{"id":684433714,"lat":25.26342,"lon":51.55809,"name":"Al Matar Al Qadeem","nameLocal":"المطار القديم","type":"station"},{"id":2486368800,"lat":33.642,"lon":44.23296,"name":"Al Mushahidah","nameLocal":"محطة قطار المشاهدة","type":"station"},{"id":684438147,"lat":25.35014,"lon":51.524,"name":"Al Qassar","nameLocal":"القصار","type":"station"},{"id":7985031321,"lat":26.49228,"lon":44.09156,"name":"Al Qassim","nameLocal":"القصيم","type":"station"},{"id":684485424,"lat":25.28242,"lon":51.50504,"name":"Al Sadd","nameLocal":"السد","type":"station"},{"id":684487501,"lat":25.27274,"lon":51.48525,"name":"Al Sudan","nameLocal":"السودان","type":"station"},{"id":684487493,"lat":25.26757,"lon":51.46883,"name":"Al Waab","nameLocal":"الوعب","type":"station"},{"id":684433706,"lat":25.19359,"lon":51.59606,"name":"Al Wakra","nameLocal":"الوكرة","type":"station"},{"id":1348193423,"lat":25.18904,"lon":55.4094,"name":"Al Warqa","type":"station"},{"id":683978243,"lat":25.40249,"lon":51.50494,"name":"Al Wessil","nameLocal":"الوسل","type":"station"},{"id":442079785,"lat":33.3332,"lon":44.06299,"name":"Al-Hamdaniya Train Station","nameLocal":"محطة قطار الحمدانية","type":"station"},{"id":6474748997,"lat":25.10973,"lon":55.14444,"name":"Al-Ittihad Park","nameLocal":"حديقة الاتحاد","type":"station"},{"id":13364300804,"lat":28.83183,"lon":62.46776,"name":"Alam Reg","nameLocal":"عالم ریگ","type":"station"},{"id":1274183643,"lat":32.89522,"lon":44.35537,"name":"Alexandria Railway Station","type":"station"},{"id":1266791156,"lat":30.65691,"lon":47.11376,"name":"Algeria Railway Station","nameLocal":"محطة القطار الجزائر","type":"station"},{"id":4903476785,"lat":35.26578,"lon":51.17103,"name":"Ali Abad","nameLocal":"علی آباد","type":"station"},{"id":3221948990,"lat":37.53605,"lon":61.87946,"name":"Altyn Asyr","type":"station"},{"id":3187132672,"lat":38.52272,"lon":58.50699,"name":"Altyn Menzil","type":"station"},{"id":12056284578,"lat":35.07145,"lon":49.08253,"name":"Amirabad","nameLocal":"امیر آباد","type":"station"},{"id":6535085632,"lat":35.91747,"lon":54.20628,"name":"Amravan","nameLocal":"امروان","type":"station"},{"id":5928694732,"lat":32.45571,"lon":48.35141,"name":"Andimeshk","nameLocal":"ایستگاه راه آهن اندیمشک","type":"station"},{"id":8896008349,"lat":37.91185,"lon":58.49979,"name":"Änew","type":"station"},{"id":684272105,"lat":35.58143,"lon":51.23678,"name":"Aperyn","nameLocal":"آپرین","type":"station"},{"id":13369900676,"lat":35.04741,"lon":48.19706,"name":"Aq Bolagh","type":"station"},{"id":10889237571,"lat":32.37699,"lon":53.67358,"name":"Aqda","nameLocal":"عقدا","type":"station"},{"id":12595065554,"lat":34.07177,"lon":49.70163,"name":"Arak","nameLocal":"اراک","type":"station"},{"id":2980026242,"lat":38.59118,"lon":57.13024,"name":"Archman","nameLocal":"Arçman","type":"station"},{"id":11640598269,"lat":38.25913,"lon":48.39807,"name":"Ardabil","nameLocal":"اردبیل","type":"station"},{"id":7786409744,"lat":32.35038,"lon":53.89838,"name":"Ardakan Railway Station","nameLocal":"ایستگاه راه آهن اردکان","type":"station"},{"id":4402371493,"lat":32.32042,"lon":53.81634,"name":"Arjang","nameLocal":"ایستگاه راه آهن ارژنگ","type":"station"},{"id":3188147897,"lat":39.40509,"lon":55.01008,"name":"Arkaç","type":"station"},{"id":583473452,"lat":37.24958,"lon":59.79131,"name":"Armansagat station","nameLocal":"Armansagat stansiýasy","type":"station"},{"id":566224361,"lat":37.54922,"lon":59.32619,"name":"Artyk station","nameLocal":"Artyk stansiýasy","type":"station"},{"id":3889184092,"lat":39.57541,"lon":55.68405,"name":"Arzuw","type":"station"},{"id":1229695830,"lat":32.09453,"lon":44.86642,"name":"As Sunniyah","nameLocal":"محطة قطار السنية","type":"station"},{"id":3082841257,"lat":38.91219,"lon":45.84723,"name":"Aşağı Aza","type":"station"},{"id":8895975404,"lat":37.94322,"lon":58.3961,"name":"Ashgabat","nameLocal":"Aşgabat","type":"station"},{"id":3078730877,"lat":38.48889,"lon":48.87592,"name":"Astara","type":"station"},{"id":2794217340,"lat":36.81812,"lon":61.08444,"name":"Ata","type":"station"},{"id":370394104,"lat":37.32009,"lon":46.77439,"name":"Atash Beygh","nameLocal":"آتش بغ - آتش بیگ","type":"station"},{"id":1126642448,"lat":25.13289,"lon":55.1188,"name":"Atlantis Aquaventure","nameLocal":"أكوافنتشر أتلانتس","type":"station"},{"id":5602602180,"lat":35.76754,"lon":51.04589,"name":"Atmosfer","nameLocal":"ایستگاه مترو اتمسفر","type":"station"},{"id":4912581788,"lat":36.28427,"lon":58.56498,"name":"Attar","nameLocal":"عطار","type":"station"},{"id":12514186249,"lat":32.70295,"lon":44.17926,"name":"Aun Railway Station","nameLocal":"محطة قطار عون","type":"station"},{"id":1348189431,"lat":25.17598,"lon":55.36975,"name":"Auto Market","type":"station"},{"id":13369900444,"lat":35.21406,"lon":47.67098,"name":"Avangan","type":"station"},{"id":3188147916,"lat":39.38156,"lon":54.82583,"name":"Aýdyň","type":"station"},{"id":13364187770,"lat":28.75007,"lon":63.13722,"name":"Azad","nameLocal":"آزاد","type":"station"},{"id":8411423083,"lat":36.03328,"lon":60.06736,"name":"Azadegan","nameLocal":"آزادگان","type":"station"},{"id":3144516664,"lat":36.74186,"lon":56.74831,"name":"Azadvar","nameLocal":"آزادور","type":"station"},{"id":10049039236,"lat":37.37248,"lon":46.12333,"name":"Azer Bonab railway station","nameLocal":"ایستگاه راه آهن آ‌ذر بناب","type":"station"},{"id":2133120096,"lat":37.81256,"lon":45.93633,"name":"Azerbaijan University","nameLocal":"ایستگاه قطار اختصاصی دانشگاه","type":"station"},{"id":703788171,"lat":33.45415,"lon":49.45168,"name":"Azna","nameLocal":"ایستگاه راه آهن ازنا","type":"station"},{"id":694341295,"lat":37.35214,"lon":47.26259,"name":"Babak","nameLocal":"بابک","type":"station"},{"id":3883328971,"lat":38.08614,"lon":58.14376,"name":"Babarap","type":"station"},{"id":13399622653,"lat":38.45131,"lon":44.79667,"name":"Babkean","nameLocal":"بابکان","type":"station"},{"id":4384779601,"lat":33.65655,"lon":52.0322,"name":"Badrood","nameLocal":"بادرود","type":"station"},{"id":1463887002,"lat":31.58777,"lon":55.39915,"name":"Bafq","nameLocal":"ایستگاه راه آهن بافق","type":"station"},{"id":6025233370,"lat":35.40325,"lon":51.58374,"name":"Bagher Abad","nameLocal":"توقفگاه باقرآباد","type":"station"},{"id":704344767,"lat":34.57061,"lon":50.49033,"name":"Baghyk","nameLocal":"ایستگاه باغیک","type":"station"},{"id":8896037632,"lat":38.08976,"lon":62.80316,"name":"Bagtyyarlyk","nameLocal":"Bagtyýarlyk (Üçaji)","type":"station"},{"id":275232562,"lat":38.4341,"lon":57.43159,"name":"Baherden","nameLocal":"Bäherden","type":"station"},{"id":684272179,"lat":35.46405,"lon":51.53622,"name":"Bahram","nameLocal":"بهرام","type":"station"},{"id":6385222136,"lat":34.61244,"lon":58.21928,"name":"Bajestan Railway Station","nameLocal":"ایستگاه راه آهن بجستان","type":"station"},{"id":12478365423,"lat":33.95053,"lon":44.15439,"name":"Balad Railway Station","nameLocal":"محطة قطار بلد","type":"station"},{"id":8568609363,"lat":32.71415,"lon":48.36839,"name":"Balarud","nameLocal":"بالارود","type":"station"},{"id":3883125510,"lat":38.46127,"lon":54.70361,"name":"Balguýy","type":"station"},{"id":2442349398,"lat":39.50508,"lon":54.34847,"name":"Balkanabat","type":"station"},{"id":4383533077,"lat":29.03333,"lon":58.35206,"name":"Bam","nameLocal":"بم","type":"station"},{"id":275214357,"lat":38.72866,"lon":56.80478,"name":"Bamy","type":"station"},{"id":4127852602,"lat":27.21173,"lon":56.25711,"name":"Bandar Abbas","nameLocal":"ایستگاه راه آهن بندرعباس","type":"station"},{"id":684209169,"lat":36.89332,"lon":54.06578,"name":"Bandar-e Torkaman","nameLocal":"بندر ترکمن","type":"station"},{"id":3082852302,"lat":39.21557,"lon":45.27225,"name":"Başbaşı","type":"station"},{"id":5162991971,"lat":36.27356,"lon":59.60355,"name":"Basij","nameLocal":"بسیج","type":"station"},{"id":2482458774,"lat":31.11256,"lon":45.88079,"name":"Batha train station","nameLocal":"محطة قطار البطحاء","type":"station"},{"id":8508427695,"lat":32.07735,"lon":55.77112,"name":"Behabad","nameLocal":"ایستگاه قطار بهاباد","type":"station"},{"id":648760875,"lat":36.7022,"lon":53.53976,"name":"Behshahr","nameLocal":"بهشهر","type":"station"},{"id":2699667319,"lat":39.2454,"lon":55.52141,"name":"Bereket","type":"station"},{"id":4447878494,"lat":39.26748,"lon":55.48976,"name":"Bereket 2","type":"station"},{"id":8895996369,"lat":37.64039,"lon":59.14085,"name":"Berkarar","type":"station"},{"id":530969630,"lat":37.95218,"lon":62.66203,"name":"Berkarar (Çygaji)","type":"station"},{"id":8371478170,"lat":36.52478,"lon":57.84276,"name":"Beyhaq","nameLocal":"بیهق","type":"station"},{"id":3079873372,"lat":39.56246,"lon":47.60996,"name":"Bəhmənli","type":"station"},{"id":684485415,"lat":25.28043,"lon":51.51494,"name":"Bin Mahmoud","nameLocal":"بن محمود","type":"station"},{"id":6737610788,"lat":32.46613,"lon":53.85406,"name":"Bisim","nameLocal":"بیسیم","type":"station"},{"id":8340033229,"lat":34.37544,"lon":47.51128,"name":"Bisotun","nameLocal":"بیستون","type":"station"},{"id":5419106162,"lat":35.42937,"lon":53.27852,"name":"Biyabanak","nameLocal":"بیابانک","type":"halt"},{"id":13389104099,"lat":35.30496,"lon":52.4279,"name":"Bon-e Kuh","nameLocal":"بنکوه","type":"station"},{"id":691707794,"lat":36.59983,"lon":48.64755,"name":"Bonab","nameLocal":"بناب","type":"station"},{"id":11062935197,"lat":34.30883,"lon":57.35199,"name":"Boshruyeh Railway Station","nameLocal":"ایستگاه راه آهن بشرویه","type":"station"},{"id":7018386607,"lat":37.83346,"lon":46.80279,"name":"Bostanabad","nameLocal":"بستان آباد","type":"station"},{"id":13366727509,"lat":28.97448,"lon":61.55205,"name":"Boundary Pillar","nameLocal":"باؤنڈری پلر","type":"station"},{"id":3188028875,"lat":39.20156,"lon":63.30063,"name":"Boýnuzyn","type":"station"},{"id":13438568170,"lat":38.73344,"lon":54.68904,"name":"Bugdaýly","type":"station"},{"id":3188137295,"lat":38.10263,"lon":58.08036,"name":"Büzmeýin","type":"station"},{"id":3043451548,"lat":38.51734,"lon":44.1683,"name":"Çaybağı","type":"station"},{"id":3221954730,"lat":35.45361,"lon":62.39969,"name":"Çemenabat","type":"station"},{"id":3078917806,"lat":39.23116,"lon":48.64356,"name":"Cəlilabad","type":"station"},{"id":4402343196,"lat":32.33381,"lon":55.53646,"name":"Chador Maloo","nameLocal":"چادر ملو","type":"station"},{"id":8960554742,"lat":31.20218,"lon":54.51564,"name":"Chah Torsh Railway Station","nameLocal":"ایستگاه راه آهن چاه ترش","type":"station"},{"id":8960554728,"lat":31.27648,"lon":53.86869,"name":"Chah-e Sorkh Railway Station","nameLocal":"ایستگاه راه آهن چاه سرخ","type":"station"},{"id":6336539886,"lat":31.74556,"lon":54.77293,"name":"Chakhavar","nameLocal":"ایستگاه راه آهن چاه خاور","type":"station"},{"id":181308696,"lat":38.28696,"lon":45.1191,"name":"Cheshmeh Kenan","nameLocal":"چشمه کنان","type":"station"},{"id":859885516,"lat":38.58113,"lon":44.09082,"name":"Çimenova","type":"station"},{"id":3188146234,"lat":39.29942,"lon":55.34112,"name":"Çitli","type":"station"},{"id":1348191720,"lat":25.21349,"lon":55.40962,"name":"City Centre Mirdif","type":"station"},{"id":12395631461,"lat":25.24346,"lon":55.37215,"name":"Concourse A","type":"station"},{"id":12395631460,"lat":25.24775,"lon":55.36116,"name":"Concourse B","type":"station"},{"id":6591495525,"lat":25.25761,"lon":55.34354,"name":"Concourse D","nameLocal":"كونكورس دي","type":"station"},{"id":684437117,"lat":25.30762,"lon":51.51572,"name":"Corniche","nameLocal":"الكورنيش","type":"station"},{"id":1348189416,"lat":25.21745,"lon":55.34033,"name":"Creek","type":"station"},{"id":235460157,"lat":38.95743,"lon":45.62301,"name":"Culfa","type":"station"},{"id":303841913,"lat":36.15059,"lon":54.37037,"name":"Damghan","nameLocal":"دامغان","type":"station"},{"id":492547630,"lat":26.40974,"lon":50.12631,"name":"Dammam Railway Station","nameLocal":"محطة قطار الدمام","type":"station"},{"id":3883136754,"lat":39.16593,"lon":55.14409,"name":"Däneata","type":"station"},{"id":5162609068,"lat":36.32518,"lon":59.5086,"name":"Danesh Amooz","nameLocal":"دانش آموز","type":"station"},{"id":1590421642,"lat":39.26537,"lon":63.15526,"name":"Danev","nameLocal":"Dänew","type":"station"},{"id":703789109,"lat":33.43345,"lon":49.30794,"name":"Darband","nameLocal":"دربند","type":"station"},{"id":7319397466,"lat":32.33256,"lon":55.04991,"name":"Dareanjir","nameLocal":"ایستگاه قطار درانجیر","type":"station"},{"id":3078920095,"lat":39.63045,"lon":47.71409,"name":"Daşburun","type":"station"},{"id":3221971699,"lat":36.27488,"lon":62.64223,"name":"Dashkopri","nameLocal":"Daşköpri","type":"station"},{"id":684437105,"lat":25.32338,"lon":51.52844,"name":"DECC","nameLocal":"مركز المعارض","type":"station"},{"id":684437106,"lat":25.32292,"lon":51.52773,"name":"DECC","nameLocal":"مركز المعارض","type":"station"},{"id":8960554727,"lat":31.3506,"lon":53.65676,"name":"Deh Shir Railway Station","nameLocal":"ایستگاه راه آهن ده شیر","type":"station"},{"id":5175444886,"lat":33.81423,"lon":56.7908,"name":"Deh-e Shur","nameLocal":"ده شور","type":"station"},{"id":12987227524,"lat":35.31548,"lon":47.46518,"name":"Dehgolan","nameLocal":"ایستگاه قطار دهگلان","type":"station"},{"id":3082845837,"lat":38.97664,"lon":45.5155,"name":"Dərəşam","type":"station"},{"id":3893015328,"lat":38.87651,"lon":45.91837,"name":"Dəstə","type":"station"},{"id":2484046027,"lat":32.6,"lon":45.68333,"name":"Dhufriya","nameLocal":"محطة ظفرية","type":"station"},{"id":8412392478,"lat":38.14351,"lon":45.74921,"name":"Dizaj Khalil","nameLocal":"ایستگاه راه آهن دیزج خلیل","type":"station"},{"id":691782090,"lat":37.43443,"lon":45.97869,"name":"Dizj Road Bonab railway station","nameLocal":"ایستگاه راه آهن دیزج رود بناب","type":"station"},{"id":5161029882,"lat":29.68271,"lon":52.46504,"name":"Doctor Shari'ati","nameLocal":"دکتر شریعتی","type":"station"},{"id":8603059698,"lat":33.48514,"lon":49.06262,"name":"Doroud Railway Station","nameLocal":"ایستگاه راه آهن دورود","type":"station"},{"id":3221364651,"lat":37.61988,"lon":61.29227,"name":"Dörtguýy","type":"station"},{"id":13369900625,"lat":35.11623,"lon":48.03443,"name":"Dosar","type":"station"},{"id":13438567727,"lat":38.95591,"lon":54.77933,"name":"Döwletýar","type":"station"},{"id":1348269219,"lat":25.17528,"lon":55.41062,"name":"Dragon Mart","type":"station"},{"id":1348189422,"lat":25.19805,"lon":55.36189,"name":"Dubai Creek Harbour","type":"station"},{"id":1348420229,"lat":25.12057,"lon":55.38838,"name":"Dubai Silicon Oasis","type":"station"},{"id":1348189425,"lat":25.19088,"lon":55.35978,"name":"Dubai Square","type":"station"},{"id":12480214326,"lat":33.8256,"lon":44.26339,"name":"Dujail Railway Station","nameLocal":"محطة قطار دجيل","type":"station"},{"id":8895992845,"lat":37.20059,"lon":60.03144,"name":"Dushak","nameLocal":"Duşak","type":"station"},{"id":8422982917,"lat":35.29585,"lon":51.73138,"name":"Emamzadeh","nameLocal":"امامزاده","type":"station"},{"id":7028280317,"lat":37.0408,"lon":49.64064,"name":"Emamzadeh Hashem","nameLocal":"امامزاده هاشم","type":"station"},{"id":13373113642,"lat":37.91196,"lon":46.68095,"name":"Enab","nameLocal":"ایمناب","type":"station"},{"id":4506949244,"lat":31.0068,"lon":52.75018,"name":"Eqlid railway station","nameLocal":"ایستگاه راه‌آهن اقلید","type":"station"},{"id":11368388355,"lat":34.06688,"lon":56.98516,"name":"Eshghabad Railway Station","nameLocal":"ایستگاه قطار عشق آباد","type":"station"},{"id":8179182539,"lat":35.55392,"lon":51.21506,"name":"Eslamshahr","nameLocal":"اسلامشهر","type":"station"},{"id":4198405970,"lat":33.47174,"lon":52.02758,"name":"Espidan","nameLocal":"اسپیدان","type":"station"},{"id":3415481009,"lat":37.7052,"lon":54.74089,"name":"Etrek","type":"station"},{"id":2852838136,"lat":29.21649,"lon":48.10047,"name":"Fahaheel","type":"station"},{"id":12056904722,"lat":35.05091,"lon":48.91639,"name":"Famenin","nameLocal":"فامنین","type":"station"},{"id":1256909026,"lat":31.06111,"lon":46.05943,"name":"Faoziya Railway Station","nameLocal":"محطة قطار الفوزية","type":"station"},{"id":8960554726,"lat":31.03828,"lon":52.96765,"name":"Faragheh Railway Station","nameLocal":"ایستگاه راه آهن فراغه","type":"station"},{"id":6870181924,"lat":36.00102,"lon":59.76391,"name":"Fariman","nameLocal":"ایستگاه فریمان","type":"station"},{"id":9644182230,"lat":36.37331,"lon":58.32636,"name":"Ferdows Railway Station","nameLocal":"ایستگاه راه آهن فردوس","type":"station"},{"id":6324844500,"lat":27.62086,"lon":55.89916,"name":"Fin","nameLocal":"ایستگاه راه آهن فین","type":"station"},{"id":11821653432,"lat":37.5995,"lon":48.23755,"name":"Firouzabad","nameLocal":"فیروزآباد","type":"station"},{"id":1273032967,"lat":37.59926,"lon":48.2375,"name":"Firouzabad railway station","nameLocal":"ایستگاه راه آهن فیروزآباد","type":"station"},{"id":5350707205,"lat":34.35172,"lon":48.14123,"name":"Firouzan","nameLocal":"فیروزان","type":"station"},{"id":7819484419,"lat":35.74979,"lon":52.77504,"name":"Firuzkuh","nameLocal":"فیروزکوه","type":"station"},{"id":2487993920,"lat":32.76667,"lon":45.38333,"name":"Fokhra","nameLocal":"فخرة","type":"station"},{"id":12453048501,"lat":25.16818,"lon":56.3459,"name":"Fujairah Passenger Station (Under Construction)","type":"station"},{"id":3188036698,"lat":39.76824,"lon":62.52918,"name":"Gabakly","type":"station"},{"id":3220636997,"lat":35.82418,"lon":52.91723,"name":"Gadok","nameLocal":"ایسگاه راه آهن گدوک","type":"station"},{"id":3188119510,"lat":35.65364,"lon":62.56043,"name":"Galaýmor","type":"station"},{"id":3188031346,"lat":39.31495,"lon":62.99626,"name":"Galkynyş","type":"station"},{"id":684209279,"lat":36.74705,"lon":53.81296,"name":"Galugah","nameLocal":"ایستگاه راه آهن گلوگاه","type":"station"},{"id":11821653419,"lat":37.734,"lon":48.28578,"name":"Ganjgah","nameLocal":"گنجگاه","type":"station"},{"id":1273032965,"lat":37.73415,"lon":48.2858,"name":"Ganjgah railway station","nameLocal":"ایستگاه راه آهن گنجگاه","type":"station"},{"id":374833316,"lat":38.71143,"lon":58.49505,"name":"Garagum","type":"station"},{"id":8421380750,"lat":38.83182,"lon":45.63325,"name":"Gargar","nameLocal":"ایستگاه قطار گرگر","type":"station"},{"id":5606659846,"lat":35.75178,"lon":51.08181,"name":"Garmdarreh metro station","nameLocal":"ایستگاه مترو گرمدره","type":"station"},{"id":6593855682,"lat":35.23541,"lon":52.30849,"name":"Garmsar","nameLocal":"ایستگاه راه آهن گرمسار","type":"station"},{"id":3221365881,"lat":37.62101,"lon":61.56356,"name":"Garybata","type":"station"},{"id":13364187769,"lat":28.71394,"lon":63.31756,"name":"Gat","nameLocal":"گاٹ","type":"station"},{"id":581729133,"lat":37.82993,"lon":58.75168,"name":"Gavers Station","nameLocal":"Gäwers stansiýasy","type":"station"},{"id":8960554732,"lat":31.25567,"lon":54.13052,"name":"Gazirat Railway Station","nameLocal":"ایستگاه راه آهن گازیرات","type":"station"},{"id":5160831955,"lat":36.25682,"lon":59.6202,"name":"Ghadir","nameLocal":"مترو غدیر","type":"station"},{"id":11062935199,"lat":34.21954,"lon":57.19867,"name":"Ghaniabad","nameLocal":"غنی آباد","type":"station"},{"id":8373224122,"lat":34.35162,"lon":61.20458,"name":"Ghorian","nameLocal":"ایستگاه راه آهن غوریان","type":"station"},{"id":3188022666,"lat":38.86229,"lon":56.55938,"name":"Goç","type":"station"},{"id":12056232522,"lat":35.1063,"lon":49.52135,"name":"Gojeh Menar","nameLocal":"گوجه منار","type":"station"},{"id":1187987268,"lat":38.15995,"lon":57.96547,"name":"Gokdepe","nameLocal":"Gökdepe","type":"station"},{"id":3221364208,"lat":37.45417,"lon":60.74252,"name":"Göksüýri","type":"station"},{"id":694340800,"lat":37.29421,"lon":46.40662,"name":"Gol Tepe railway station","nameLocal":"ایستگاه راه آهن گل تپه","type":"station"},{"id":8914569169,"lat":35.5282,"lon":51.15316,"name":"Golestan","nameLocal":"ایستگاه راه آهن سلطان آباد","type":"station"},{"id":5602562105,"lat":35.82495,"lon":50.93292,"name":"Golshahr","nameLocal":"ایستگاه مترو گلشهر","type":"station"},{"id":6831473486,"lat":36.4819,"lon":52.89819,"name":"Gooni Bafi","nameLocal":"گونی بافی","type":"station"},{"id":11021092777,"lat":36.85549,"lon":54.42035,"name":"Gorgan","nameLocal":"گرگان","type":"station"},{"id":3221374451,"lat":37.68788,"lon":62.35234,"name":"Gurbangala","type":"station"},{"id":2700790542,"lat":37.99878,"lon":58.30484,"name":"Gypjak","type":"station"},{"id":8241606910,"lat":38.97944,"lon":56.27327,"name":"Gyzylarbat","type":"station"},{"id":3078941860,"lat":39.50067,"lon":47.46449,"name":"Hacılı","type":"station"},{"id":1338674153,"lat":32.45382,"lon":44.53624,"name":"Hadid Railway Station","nameLocal":"محطة قطار الحديد","type":"station"},{"id":695272412,"lat":32.07395,"lon":48.3377,"name":"Haft Tappeh","nameLocal":"هفت تپه","type":"station"},{"id":5162609074,"lat":36.32774,"lon":59.5004,"name":"Haft-e Tir","nameLocal":"هفت تیر","type":"station"},{"id":2486368808,"lat":35.04468,"lon":44.4466,"name":"Haftaghaar Train Station","nameLocal":"محطة قطار هفتعار","type":"station"},{"id":4939166151,"lat":34.86929,"lon":48.61991,"name":"Hamedan","nameLocal":"ایستگاه راه آهن همدان","type":"station"},{"id":7954921875,"lat":31.13116,"lon":48.30421,"name":"Hamid Moussavi","nameLocal":"شهید حمید موسوی","type":"station"},{"id":1348780068,"lat":33.26316,"lon":44.36878,"name":"Hamra Railway Station","nameLocal":"محطة قطار الحمرا","type":"station"},{"id":1174640369,"lat":31.72348,"lon":44.97005,"name":"Hamza Railway Station","nameLocal":"محطة قطار الحمزة الشرقي","type":"station"},{"id":181315142,"lat":38.62611,"lon":45.69339,"name":"Harzand","nameLocal":"هرزند","type":"station"},{"id":1229695825,"lat":32.35853,"lon":44.67477,"name":"Hashimiya Railway Station","nameLocal":"محطة قطار الهاشمية","type":"station"},{"id":4901548781,"lat":35.94946,"lon":50.66882,"name":"Hashtgerd","nameLocal":"ایستگاه راه آهن هشتگرد","type":"station"},{"id":5162991973,"lat":36.26773,"lon":59.60922,"name":"Hefdah-e Shahrivar","nameLocal":"ایستگاه قطارشهری هفده شهریور","type":"station"},{"id":7786409737,"lat":32.6291,"lon":52.45335,"name":"Herand","nameLocal":"هرند","type":"station"},{"id":12053000095,"lat":35.65317,"lon":59.22797,"name":"Hesar Jalal","nameLocal":"حصار جلال","type":"station"},{"id":1215581947,"lat":31.41481,"lon":45.25328,"name":"Hijama Railway Station","nameLocal":"محطة قطار الحجامة","type":"station"},{"id":1229695820,"lat":32.49678,"lon":44.44312,"name":"Hilla/Babylon Train Station","nameLocal":"محطة قطار الحله","type":"station"},{"id":3218551057,"lat":33.99281,"lon":49.35442,"name":"Hke","nameLocal":"ایستگاه راه آهن حک","type":"station"},{"id":3078736354,"lat":39.44613,"lon":47.34165,"name":"Horadiz","type":"station"},{"id":7954940515,"lat":30.80767,"lon":48.18553,"name":"Hoseyniyeh","nameLocal":"حسينيه","type":"station"},{"id":3886643434,"lat":37.15601,"lon":61.05596,"name":"Howuzhan","type":"station"},{"id":1274183613,"lat":32.68808,"lon":44.36578,"name":"Hussun al Baigat Railroad Station","nameLocal":"محطة حصن البيكات","type":"station"},{"id":2810462167,"lat":36.26013,"lon":59.59335,"name":"Imam Reza Terminal","nameLocal":"پایانه امام رضا","type":"station"},{"id":4025966922,"lat":37.42981,"lon":54.61438,"name":"Incheh Borun","nameLocal":"اینچه برون","type":"station"},{"id":1348420219,"lat":25.16262,"lon":55.41018,"name":"International City 1","type":"station"},{"id":1348420220,"lat":25.13827,"lon":55.3997,"name":"International City 2 and 3","type":"station"},{"id":5604727187,"lat":35.72522,"lon":51.19659,"name":"Iran Khodro metro station","nameLocal":"ایستگاه مترو ایران خودرو","type":"station"},{"id":13364294079,"lat":28.76726,"lon":62.97368,"name":"Isa Tahir","nameLocal":"عیسیٰ طاہر","type":"station"},{"id":5481960609,"lat":32.54999,"lon":51.69537,"name":"Isfahan","nameLocal":"ایستگاه راه آهن اصفهان","type":"station"},{"id":3188143151,"lat":39.07623,"lon":55.93204,"name":"Isgender","type":"station"},{"id":703776188,"lat":33.32878,"lon":48.8763,"name":"Istgah-e Bisheh","nameLocal":"ایستگاه راه آهن بیشه","type":"station"},{"id":9346771371,"lat":31.48874,"lon":52.15257,"name":"Izadkhast","nameLocal":"ایزدخواست","type":"halt"},{"id":322480231,"lat":32.70839,"lon":51.66611,"name":"Jaber","nameLocal":"جابر","type":"station"},{"id":12120749193,"lat":37.90854,"lon":48.38058,"name":"Jafarlou","nameLocal":"جعفرلو","type":"station"},{"id":1308874691,"lat":37.90858,"lon":48.38035,"name":"Jafarlou railway station","nameLocal":"ایستگاه راه آهن جعفرلو","type":"station"},{"id":3144515937,"lat":36.70383,"lon":56.52782,"name":"Jajarm","nameLocal":"جاجرم","type":"station"},{"id":703789095,"lat":34.01538,"lon":49.12781,"name":"Jalayer","nameLocal":"ایستگاه مسیر غرب","type":"station"},{"id":704366978,"lat":34.59715,"lon":50.91815,"name":"Jamkaran","nameLocal":"جمکران","type":"station"},{"id":3188139229,"lat":39.02746,"lon":56.13424,"name":"Janahyr","type":"station"},{"id":680677584,"lat":32.35066,"lon":55.69937,"name":"Jandak","nameLocal":"ایستگاه راه آهن جندق","type":"station"},{"id":11062935202,"lat":34.41521,"lon":57.63814,"name":"Jazin","nameLocal":"جزین","type":"station"},{"id":275156824,"lat":39.62952,"lon":54.22952,"name":"Jebel","type":"station"},{"id":13395861938,"lat":38.93771,"lon":45.63055,"name":"Jolfa","nameLocal":"ایستگاه راه آهن شهر جلفا","type":"station"},{"id":6872099324,"lat":35.42652,"lon":52.42852,"name":"Kabutar Dareh","nameLocal":"کبوتر دره","type":"station"},{"id":4727254393,"lat":33.37759,"lon":44.31784,"name":"Kadhimya Railway Station","nameLocal":"محطة قطار الكاظمية","type":"station"},{"id":8896009275,"lat":37.34395,"lon":59.61795,"name":"Kaka","type":"station"},{"id":8364118439,"lat":36.2831,"lon":54.84639,"name":"Kalateh-ye Khan","nameLocal":"کلاتخوان","type":"station"},{"id":12052957746,"lat":34.86331,"lon":58.72815,"name":"Kale Shor","nameLocal":"کال شور","type":"halt"},{"id":8960554744,"lat":31.32096,"lon":54.59563,"name":"Kalmand Railway Station","nameLocal":"ایستگاه راه آهن کالمند","type":"station"},{"id":12053000078,"lat":35.48028,"lon":59.20561,"name":"Kameh","nameLocal":"کامه","type":"station"},{"id":13184388993,"lat":38.51013,"lon":44.29519,"name":"Kapıköy","type":"station"},{"id":4794780991,"lat":35.77949,"lon":50.98909,"name":"Karaj","nameLocal":"کرج","type":"station"},{"id":5607263132,"lat":35.78668,"lon":51.00256,"name":"Karaj","nameLocal":"ایستگاه مترو کرج","type":"station"},{"id":6948164732,"lat":32.67861,"lon":44.07942,"name":"Karbala Train Station","nameLocal":"محطة قطار كربلاء","type":"station"},{"id":7955005752,"lat":31.3201,"lon":48.69805,"name":"Karun","nameLocal":"کارون","type":"station"},{"id":6464387629,"lat":33.9872,"lon":51.47152,"name":"Kashan","nameLocal":"ایستگاه راه آهن کاشان","type":"station"},{"id":8360946105,"lat":35.96918,"lon":59.21185,"name":"Kashmar","nameLocal":"کاشمر","type":"station"},{"id":684438146,"lat":25.3621,"lon":51.52171,"name":"Katara","nameLocal":"كتارا","type":"station"},{"id":8410168398,"lat":35.16404,"lon":52.03907,"name":"Kavir","nameLocal":"کویر","type":"station"},{"id":675672647,"lat":38.28652,"lon":57.7041,"name":"Kelete","type":"station"},{"id":4278603969,"lat":30.24541,"lon":57.02416,"name":"Kerman Railway Station","nameLocal":"ایستگاه راه آهن کرمان","type":"station"},{"id":5340490478,"lat":34.3384,"lon":47.13202,"name":"Kermanshah","nameLocal":"ایستگاه راه آهن کرمانشاه","type":"station"},{"id":374804437,"lat":38.99044,"lon":58.51319,"name":"Kerwen","type":"station"},{"id":4903455230,"lat":35.10211,"lon":50.63396,"name":"Kewh Pengu","nameLocal":"کوه پنگ","type":"station"},{"id":679964467,"lat":34.56721,"lon":60.18605,"name":"Khaf","nameLocal":"خواف","type":"station"},{"id":7991978803,"lat":29.26594,"lon":61.20128,"name":"Khan Muhammad Chah","nameLocal":"ایستگاه راه آهن خان محمد چاہ","type":"station"},{"id":9344682995,"lat":30.83478,"lon":52.99968,"name":"Khankhoreh","nameLocal":"ایستگاه خانخوره","type":"halt"},{"id":8957670072,"lat":28.20441,"lon":61.19073,"name":"Khash","nameLocal":"ایستگاه راه آهن خاش","type":"station"},{"id":6041737444,"lat":29.91571,"lon":55.54147,"name":"Khatunabad","nameLocal":"خاتون آباد","type":"station"},{"id":4020043516,"lat":31.61245,"lon":48.69319,"name":"Khavar","nameLocal":"خاور","type":"station"},{"id":9193277326,"lat":38.00402,"lon":46.41388,"name":"Khavaran","nameLocal":"ایستگاه راه آهن خاوران","type":"station"},{"id":1256909017,"lat":31.18627,"lon":45.5536,"name":"Khidar Railway Station","nameLocal":"محطة قطار الخضر","type":"station"},{"id":694341186,"lat":37.38137,"lon":47.11266,"name":"Khorasanak","nameLocal":"خراسانلو - خراسانک","type":"station"},{"id":691707435,"lat":36.18721,"lon":49.23953,"name":"Khorramdarreh Rail Way Station","nameLocal":"ایستگاه راه آهن خرمدره","type":"station"},{"id":7954933890,"lat":30.44736,"lon":48.1628,"name":"Khorramshahr","nameLocal":"ایستگاه راه آهن خرمشهر","type":"station"},{"id":4124610927,"lat":36.72919,"lon":48.33668,"name":"Khrm pey","nameLocal":"خرم پی","type":"station"},{"id":12471380863,"lat":35.44621,"lon":44.36073,"name":"Kirkuk","type":"station"},{"id":3221981489,"lat":35.964,"lon":62.72717,"name":"Km 220","type":"station"},{"id":4902586861,"lat":36.202,"lon":50.19254,"name":"Kohandej","nameLocal":"کهندژ","type":"station"},{"id":4902582384,"lat":36.2526,"lon":49.74809,"name":"Koohin","nameLocal":"کوهین","type":"station"},{"id":4902600626,"lat":35.86879,"lon":50.82631,"name":"Kordan","nameLocal":"کردان","type":"station"},{"id":569035268,"lat":37.45215,"lon":59.45559,"name":"Kovshut station","nameLocal":"Gowşut stansiýasy","type":"station"},{"id":7131411630,"lat":36.30747,"lon":49.613,"name":"Kuhin","nameLocal":"کوهین","type":"station"},{"id":12056262980,"lat":35.02331,"lon":48.7019,"name":"Kurijan","nameLocal":"کوریجان","type":"station"},{"id":1169531671,"lat":35.70866,"lon":51.39505,"name":"Laleh Park Metro Station","nameLocal":"ایستگاه مترو بوستان لاله","type":"station"},{"id":6643366913,"lat":35.68952,"lon":51.20947,"name":"Lashkari","nameLocal":"ایستگاه راه آهن لشکری","type":"station"},{"id":684480139,"lat":25.37085,"lon":51.52484,"name":"Legtaifiya","nameLocal":"لقطيفية","type":"station"},{"id":3078945695,"lat":38.75992,"lon":48.85712,"name":"Lənkəran","type":"station"},{"id":8631114444,"lat":38.85772,"lon":48.81087,"name":"Liman","type":"station"},{"id":1266791155,"lat":30.6983,"lon":46.821,"name":"Loqait Railway Station","nameLocal":"محطة قطار لقيط","type":"station"},{"id":6695293444,"lat":36.61004,"lon":49.54287,"name":"Lowshan","nameLocal":"ایستگاه راه‌آهن لوشان","type":"station"},{"id":424474729,"lat":37.90568,"lon":58.37159,"name":"M1","type":"station"},{"id":424474728,"lat":37.90078,"lon":58.37492,"name":"M2","type":"station"},{"id":424474724,"lat":37.89963,"lon":58.37672,"name":"M3","type":"station"},{"id":435743633,"lat":37.90441,"lon":58.3794,"name":"M4","type":"station"},{"id":424474723,"lat":37.91028,"lon":58.38029,"name":"M5","type":"station"},{"id":424474730,"lat":37.9071,"lon":58.37714,"name":"M6","type":"station"},{"id":428893819,"lat":37.90854,"lon":58.37316,"name":"M7","type":"station"},{"id":424474722,"lat":37.90798,"lon":58.37054,"name":"M8","type":"station"},{"id":13438568179,"lat":38.14461,"lon":54.7142,"name":"Madaw","type":"station"},{"id":2482345535,"lat":31.84741,"lon":44.93099,"name":"Madin Railway Station","nameLocal":"محطة قطار مدين","type":"station"},{"id":684207404,"lat":35.65496,"lon":52.69764,"name":"Mahabad","nameLocal":"مهاباد","type":"station"},{"id":7100303543,"lat":33.50764,"lon":52.34443,"name":"Mahabad","nameLocal":"مهاباد","type":"station"},{"id":385447358,"lat":36.89864,"lon":45.72257,"name":"Mahabad Railway Station","nameLocal":"ایستگاه راه آهن مهاباد","type":"station"},{"id":1184076186,"lat":32.65589,"lon":44.40001,"name":"Mahawil Railway Station","nameLocal":"محطة قطار المحاويل","type":"station"},{"id":1046816764,"lat":33.05191,"lon":44.36838,"name":"Mahmoodiya Railway Station","nameLocal":"محطة قطار المحمودية","type":"station"},{"id":5310548154,"lat":30.55983,"lon":49.17131,"name":"Mahshahr Main Station","nameLocal":"ایستگاه راه آهن ماهشهر","type":"station"},{"id":7985031031,"lat":25.92077,"lon":45.41973,"name":"Majmmah","nameLocal":"محطة المجمعة","type":"station"},{"id":8411445147,"lat":36.08699,"lon":60.46304,"name":"Makhtom Gholy","nameLocal":"مختوم قلی","type":"station"},{"id":4447689890,"lat":34.24719,"lon":48.84941,"name":"Malayer","nameLocal":"ایستگاه راه آهن ملایر","type":"station"},{"id":4901680424,"lat":37.14446,"lon":46.15935,"name":"Malekan railway station","nameLocal":"ایستگاه راه آهن ملکان","type":"station"},{"id":9611822561,"lat":35.7113,"lon":51.14838,"name":"Maleki","nameLocal":"ملکی","type":"station"},{"id":13371614575,"lat":35.24554,"lon":50.44533,"name":"Mamuniyeh","nameLocal":"مامونیه","type":"station"},{"id":13383459579,"lat":36.7226,"lon":49.39998,"name":"Manjil","nameLocal":"منجیل","type":"station"},{"id":1997761041,"lat":37.37963,"lon":46.2341,"name":"Maragheh railway station","nameLocal":"ایستگاه راه آهن مراغه","type":"station"},{"id":1006452580,"lat":37.37994,"lon":46.23417,"name":"Maragheh railway station","nameLocal":"ایستگاه راه‌آهن مراغه","type":"station"},{"id":6534887564,"lat":38.43672,"lon":45.79361,"name":"Marand","nameLocal":"مرند","type":"station"},{"id":6022689484,"lat":29.89655,"lon":52.80164,"name":"Marvdasht Railway Station","nameLocal":"ایستگاه قطار تخت جمشید","type":"station"},{"id":8411484086,"lat":36.13028,"lon":60.61142,"name":"Marzdaran","nameLocal":"مرزداران","type":"station"},{"id":3078951371,"lat":39.11916,"lon":48.65887,"name":"Masallı","type":"station"},{"id":8758881217,"lat":31.54357,"lon":54.57368,"name":"Mehriz Railway Station","nameLocal":"ایستگاه راه آهن مهریز","type":"station"},{"id":11821653410,"lat":38.04991,"lon":48.30393,"name":"Mhmandwst","nameLocal":"مهماندوست","type":"station"},{"id":703746531,"lat":31.23113,"lon":48.7414,"name":"Miandasht","nameLocal":"میاندشت","type":"station"},{"id":4901680492,"lat":37.00878,"lon":46.05533,"name":"Miandoab railway station","nameLocal":"ایستگاه راه آهن قوشاچای (میاندوآب)","type":"station"},{"id":581369653,"lat":37.38295,"lon":47.73919,"name":"Mianeh Railway Station","nameLocal":"ایستگاه راه آهن میانه","type":"station"},{"id":8413058813,"lat":38.45084,"lon":44.69916,"name":"Miladi","nameLocal":"میلادی","type":"station"},{"id":7991978841,"lat":29.02209,"lon":61.45198,"name":"Mirjaveh","nameLocal":"ایستگاه راه آهن میرجاوه","type":"station"},{"id":4051446252,"lat":31.96973,"lon":48.44733,"name":"Miyanab","nameLocal":"میان آباد","type":"station"},{"id":10556462822,"lat":37.3828,"lon":47.73924,"name":"Miyaneh","nameLocal":"ایستگاه راه آهن میانه","type":"station"},{"id":3429663866,"lat":31.61828,"lon":55.43827,"name":"Mobaraka","nameLocal":"ایستگاه راه‌آهن مبارکه","type":"station"},{"id":5607262986,"lat":35.80234,"lon":50.96492,"name":"Mohammad Shahr","nameLocal":"ایستگاه مترو محمد شهر","type":"station"},{"id":4081082036,"lat":34.111,"lon":51.38356,"name":"Mohammadabad","nameLocal":"محمدآباد مرکزی","type":"station"},{"id":703787882,"lat":34.10952,"lon":49.8609,"name":"Molkabad","nameLocal":"ایستگاه ملک آباد","type":"station"},{"id":3221370129,"lat":37.60351,"lon":61.93586,"name":"Mollanepes","type":"station"},{"id":703788673,"lat":34.20308,"lon":50.02251,"name":"Mshke Abad","nameLocal":"ایستگاه مشک آباد","type":"station"},{"id":1274183614,"lat":32.7781,"lon":44.29496,"name":"Musayeb Railway Station","nameLocal":"محطة قطار المسيب","type":"station"},{"id":3429776934,"lat":33.06967,"lon":53.41631,"name":"Nain","nameLocal":"نائین","type":"station"},{"id":1126642450,"lat":25.11488,"lon":55.13766,"name":"Nakheel Mall","nameLocal":"نخيل مول","type":"station"},{"id":12053000082,"lat":35.78575,"lon":59.13659,"name":"Namaki","nameLocal":"نمکی","type":"station"},{"id":7930487224,"lat":33.42275,"lon":56.74703,"name":"Namakzar Tabas","nameLocal":"نمکزار-طبس","type":"station"},{"id":703788434,"lat":34.32781,"lon":50.16141,"name":"Nangrd","nameLocal":"ایستگاه نانگرد","type":"station"},{"id":8914569168,"lat":35.5419,"lon":51.17763,"name":"Nasimshahr","nameLocal":"نسيم شهر","type":"station"},{"id":8914569170,"lat":35.50526,"lon":51.12239,"name":"Nasir Shahr","nameLocal":"نصیرشهر","type":"station"},{"id":1149217169,"lat":31.02355,"lon":46.23004,"name":"Nasiriya Railway Station","nameLocal":"محطة قطار الناصرية","type":"station"},{"id":12052957765,"lat":35.03619,"lon":58.90559,"name":"Nasrabad","nameLocal":"نصر آباد","type":"station"},{"id":8631252675,"lat":39.18874,"lon":45.4033,"name":"Naxçıvan","type":"station"},{"id":7025667201,"lat":37.55174,"lon":47.57593,"name":"Neghlan","nameLocal":"نقلان","type":"station"},{"id":1370907358,"lat":39.05109,"lon":45.45766,"name":"Nehrəm","type":"station"},{"id":8914869673,"lat":36.65571,"lon":57.4195,"name":"Neqab","nameLocal":"ایستگاه قطار نقاب","type":"station"},{"id":8360946104,"lat":36.19478,"lon":58.78508,"name":"Neyshabur Railway Station","nameLocal":"ایستگاه راه‌ آهن نیشابور","type":"station"},{"id":695272314,"lat":31.47176,"lon":48.69056,"name":"Nezamiyeh","nameLocal":"نظامیه","type":"station"},{"id":4902617893,"lat":35.67817,"lon":51.25523,"name":"Nik Pasandi","nameLocal":"نیک پسندی","type":"station"},{"id":3955477971,"lat":28.82577,"lon":62.74574,"name":"Nok Kundi","nameLocal":"نوک کنڈی","type":"station"},{"id":6257635515,"lat":36.61011,"lon":53.21002,"name":"Noobakht","nameLocal":"شهید نوبخت","type":"station"},{"id":12056847374,"lat":35.12075,"lon":49.76891,"name":"Nowbaran","nameLocal":"نوبران","type":"station"},{"id":4903457487,"lat":34.88784,"lon":50.70549,"name":"Nowdezh","nameLocal":"نودژ","type":"station"},{"id":2632812048,"lat":37.34179,"lon":61.09313,"name":"Oguzhan","type":"station"},{"id":1229695827,"lat":32.28515,"lon":44.76612,"name":"Old Qawjan Railway Station","nameLocal":"محطة قطار قوجان القديمة","type":"station"},{"id":684433712,"lat":25.24965,"lon":51.5668,"name":"Oqba Ibn Nafie","nameLocal":"عقبة بن نافع","type":"station"},{"id":3082835805,"lat":38.87717,"lon":46.00288,"name":"Ordubad","type":"station"},{"id":2700992323,"lat":38.12413,"lon":58.36271,"name":"Owadan Depe","type":"station"},{"id":6474748998,"lat":25.10149,"lon":55.15464,"name":"Palm Gateway","nameLocal":"بالم جيت وي","type":"station"},{"id":2632812120,"lat":37.51387,"lon":61.03084,"name":"Parahat","type":"station"},{"id":4903448910,"lat":35.3575,"lon":50.69222,"name":"Parandak","nameLocal":"ایستگاه راه آهن پرندک","type":"station"},{"id":5162991974,"lat":36.26278,"lon":59.61418,"name":"Parvin-e Etessami","nameLocal":"پروین اعتصامی","type":"station"},{"id":691781573,"lat":37.56476,"lon":45.79629,"name":"Parviz Bahman","nameLocal":"ایستگاه راه آهن پرویز بهمن","type":"station"},{"id":8424798606,"lat":37.56478,"lon":45.79637,"name":"Parviz Bahman","nameLocal":"پرویز بهمن","type":"station"},{"id":5978908224,"lat":38.34972,"lon":45.80017,"name":"Payam","nameLocal":"پیام","type":"station"},{"id":703788126,"lat":34.15435,"lon":49.02388,"name":"Pery","nameLocal":"ایستگاه راه آهن زنگنه","type":"station"},{"id":2001269626,"lat":38.31576,"lon":62.99557,"name":"Peshhi","nameLocal":"Peşhi","type":"station"},{"id":8411373719,"lat":37.18531,"lon":54.47125,"name":"Petroshimi","nameLocal":"پتروشیمی","type":"station"},{"id":6867095014,"lat":35.28982,"lon":51.72118,"name":"Pishva","nameLocal":"ایستگاه راه آهن پیشوا","type":"station"},{"id":8419344818,"lat":37.29887,"lon":47.80917,"name":"Pol Dokhtar","nameLocal":"پل دختر","type":"station"},{"id":684209769,"lat":36.11511,"lon":53.05624,"name":"Pol-e Sefid","nameLocal":"پل سفید","type":"station"},{"id":691707565,"lat":36.38655,"lon":48.96442,"name":"Pyrzaghh","nameLocal":"پیر زاغه","type":"station"},{"id":5164517834,"lat":36.46282,"lon":52.86311,"name":"Qaem Shahr","nameLocal":"قائمشهر","type":"station"},{"id":471717457,"lat":36.46302,"lon":52.86289,"name":"Qaem Shahr","nameLocal":"ایستگاه راه اهن قائمشهر","type":"station"},{"id":8157398629,"lat":38.62592,"lon":48.8729,"name":"Qamışlıq","type":"station"},{"id":6875973189,"lat":35.42853,"lon":51.5655,"name":"Qarchak","nameLocal":"توقفگاه قرچک","type":"station"},{"id":3082856348,"lat":39.26755,"lon":45.16091,"name":"Qarğalıq","type":"station"},{"id":11062935204,"lat":34.59167,"lon":57.86402,"name":"Qasemabad","nameLocal":"قاسم آباد","type":"station"},{"id":3078964353,"lat":39.00803,"lon":48.78285,"name":"Qasımlı","type":"station"},{"id":307983900,"lat":36.24356,"lon":50.00744,"name":"Qazvin","nameLocal":"ایستگاه راه آهن قزوین","type":"station"},{"id":4901693877,"lat":36.99501,"lon":45.8869,"name":"Qez Qaleh","nameLocal":"قزقلعه","type":"station"},{"id":3079081485,"lat":39.34785,"lon":48.75373,"name":"Qırmızıkənd","type":"station"},{"id":3082854957,"lat":39.40405,"lon":45.03613,"name":"Qıvraq","type":"station"},{"id":1894710723,"lat":39.10875,"lon":45.41572,"name":"Qızılvəng","type":"station"},{"id":8706532753,"lat":34.64838,"lon":50.87291,"name":"Qom","nameLocal":"قم","type":"station"},{"id":9895475568,"lat":34.6791,"lon":50.91853,"name":"Qom Monorail Terminal ( First Line )","nameLocal":"پایانه مونوریل قم ( خط اول )","type":"station"},{"id":691708211,"lat":36.08632,"lon":49.37774,"name":"Qorveh","nameLocal":"قروه","type":"station"},{"id":11307712984,"lat":35.18409,"lon":47.82553,"name":"Qorveh","nameLocal":"ایستگاه راه آهن قروه","type":"station"},{"id":2018396552,"lat":37.3919,"lon":47.57535,"name":"Qranqv","nameLocal":"قره داغی","type":"station"},{"id":703788193,"lat":34.38528,"lon":50.33774,"name":"Rahgurd","nameLocal":"ایستگاه راه آهن راه گرد","type":"station"},{"id":2852960214,"lat":29.30895,"lon":47.94356,"name":"Rai","nameLocal":"الري","type":"station"},{"id":684205488,"lat":36.6562,"lon":53.2895,"name":"Railway Station Of Neka","nameLocal":"ایستگاه راه آهن نکا","type":"station"},{"id":691708088,"lat":37.14025,"lon":47.79355,"name":"Rajin","nameLocal":"رجعین","type":"station"},{"id":6326514087,"lat":31.77714,"lon":54.63323,"name":"Rakhsh","nameLocal":"رخش","type":"station"},{"id":1266769570,"lat":30.57624,"lon":47.37024,"name":"Ramilla Train Station","nameLocal":"محطة قطار الرميلة","type":"station"},{"id":1348189428,"lat":25.18097,"lon":55.36273,"name":"Ras Al Khor Industrial","type":"station"},{"id":684494003,"lat":25.27904,"lon":51.57085,"name":"Ras Bu Abboud","nameLocal":"راس بو عبود","type":"station"},{"id":8419179681,"lat":37.33873,"lon":45.28948,"name":"Rashkan","nameLocal":"رشکان","type":"station"},{"id":5977726455,"lat":37.20414,"lon":49.56354,"name":"Rasht","nameLocal":"ایستگاه راه آهن رشت","type":"station"},{"id":1266791147,"lat":30.62701,"lon":47.21131,"name":"Ratawi Railway Station","nameLocal":"محطة قطار الرطاوي","type":"station"},{"id":5968154224,"lat":29.64008,"lon":57.47094,"name":"Rayen","nameLocal":"ایستگاه راه آهن راین","type":"station"},{"id":2719024516,"lat":39.55647,"lon":54.28091,"name":"Razdelnaya 123","type":"station"},{"id":12056856718,"lat":35.1079,"lon":50.04483,"name":"Razghin","nameLocal":"رازقین","type":"station"},{"id":8413080917,"lat":38.49302,"lon":44.34416,"name":"Razi","nameLocal":"رازی","type":"station"},{"id":627111685,"lat":38.1969,"lon":62.89108,"name":"Razyezd № 57","type":"station"},{"id":13364300826,"lat":28.94914,"lon":61.73109,"name":"Reg-I-Malik","nameLocal":"ریگ ملک","type":"station"},{"id":3221868779,"lat":38.56229,"lon":63.17737,"name":"Repetek","type":"station"},{"id":8425526447,"lat":35.58073,"lon":51.42494,"name":"Rey","nameLocal":"ایستگاه راه آهن شهر ری","type":"station"},{"id":8407721126,"lat":35.4816,"lon":51.075,"name":"Robat Karim","nameLocal":"ایستگاه راه آهن رباط کریم","type":"station"},{"id":8411454881,"lat":36.0785,"lon":60.23299,"name":"Robat Mahi","nameLocal":"رباط ماهی","type":"station"},{"id":8411528192,"lat":36.18337,"lon":60.81937,"name":"Robat Sharaf","nameLocal":"رباط شرف","type":"station"},{"id":8373187599,"lat":34.44604,"lon":61.48284,"name":"Roozanak","nameLocal":"ایستگاه راه آهن روزنک","type":"station"},{"id":5838755134,"lat":36.88823,"lon":49.5014,"name":"Rostam Abad","nameLocal":"رستم آباد","type":"station"},{"id":11752239419,"lat":36.68718,"lon":53.41237,"name":"Rostamkola","nameLocal":"ابستگاه راه آهن رستمکلا","type":"station"},{"id":9602748315,"lat":35.4432,"lon":50.90087,"name":"Rudeshur","nameLocal":"رودشور","type":"station"},{"id":150984975,"lat":38.25618,"lon":58.4688,"name":"Ruhybelent","type":"station"},{"id":8165100168,"lat":35.39433,"lon":59.27456,"name":"Rukh","nameLocal":"رخ","type":"station"},{"id":1168799009,"lat":31.49908,"lon":45.21781,"name":"Rumeitha Railway Station","nameLocal":"محطة قطار الرميثة","type":"station"},{"id":3883327243,"lat":38.13799,"lon":58.21594,"name":"Rzd. No 1","type":"station"},{"id":1187827845,"lat":38.49959,"lon":57.32978,"name":"Rzd. No 100","type":"station"},{"id":3883321423,"lat":38.78015,"lon":56.71124,"name":"Rzd. No 105","type":"station"},{"id":3883318357,"lat":38.93331,"lon":56.42109,"name":"Rzd. No 108","type":"station"},{"id":3883144727,"lat":39.1188,"lon":55.8693,"name":"Rzd. No 112","type":"station"},{"id":2718798393,"lat":39.71968,"lon":54.19579,"name":"Rzd. No 124","type":"station"},{"id":3885156287,"lat":35.33893,"lon":62.40314,"name":"Rzd. No 199","type":"station"},{"id":3885349297,"lat":38.42809,"lon":63.10827,"name":"Rzd. No 54","type":"station"},{"id":3221378144,"lat":37.61725,"lon":62.03076,"name":"Rzd. No 64","type":"station"},{"id":3221362751,"lat":37.61687,"lon":61.75391,"name":"Rzd. No 66","type":"station"},{"id":2632812364,"lat":37.5583,"lon":61.08421,"name":"Rzd. No 69","type":"station"},{"id":3884581999,"lat":37.22421,"lon":60.1362,"name":"Rzd. No 76","type":"station"},{"id":3884580223,"lat":37.2086,"lon":59.89295,"name":"Rzd. No 79","type":"station"},{"id":577870093,"lat":37.29633,"lon":59.69182,"name":"Rzd. No 80","type":"station"},{"id":1187987196,"lat":38.24694,"lon":57.79471,"name":"Rzd. No 96","type":"station"},{"id":3883322921,"lat":38.33462,"lon":57.61118,"name":"Rzd. No 97","type":"station"},{"id":7659925527,"lat":38.65221,"lon":56.98689,"name":"Rzd. No. 103","type":"station"},{"id":835399921,"lat":37.47818,"lon":60.84429,"name":"Rzd. No. 72","type":"station"},{"id":7786409713,"lat":30.10534,"lon":53.09422,"name":"Saadatshahr","nameLocal":"ایستگاه راه آهن سعادت شهر","type":"station"},{"id":3426301007,"lat":36.88679,"lon":54.21363,"name":"Sabz Dasht","nameLocal":"سبزدشت","type":"station"},{"id":11821653433,"lat":37.43191,"lon":47.80465,"name":"sabz railway station","nameLocal":"ایستگاه راه آهن سبز ارباط","type":"station"},{"id":695272034,"lat":32.33703,"lon":48.28067,"name":"Sabzab","nameLocal":"سبزآب","type":"station"},{"id":8371063323,"lat":36.45032,"lon":58.08151,"name":"Sabzevar Railway Station","nameLocal":"ایستگاه راه آهن سبزوار","type":"station"},{"id":5162609081,"lat":36.33008,"lon":59.4929,"name":"Sadaf","nameLocal":"صدف","type":"station"},{"id":694341705,"lat":37.37338,"lon":46.98418,"name":"Saeb Railway Station","nameLocal":"ایستگاه راه آهن صائب","type":"station"},{"id":1992216515,"lat":30.58504,"lon":53.19482,"name":"Safashahr Train Station","nameLocal":"ایستگاه راه آهن صفاشهر","type":"station"},{"id":1019061955,"lat":37.30702,"lon":46.53147,"name":"Sahand railway station","nameLocal":"ایستگاه راه آهن خداجو","type":"station"},{"id":8412372281,"lat":38.19733,"lon":46.09797,"name":"Sahlan","nameLocal":"سهلان","type":"station"},{"id":431966946,"lat":39.3568,"lon":45.08899,"name":"Şahtaxtı","type":"station"},{"id":3963704035,"lat":38.87707,"lon":46.07513,"name":"Salamalik","type":"station"},{"id":5932721159,"lat":34.74267,"lon":60.00267,"name":"Salami","nameLocal":"سلامی‎","type":"station"},{"id":8412572618,"lat":38.33022,"lon":44.82659,"name":"Salmas","nameLocal":"ایستگاه راه آهن سلماس","type":"station"},{"id":3078963426,"lat":39.56395,"lon":48.96026,"name":"Salyan Stansiyası","type":"station"},{"id":703788388,"lat":34.01577,"lon":49.56044,"name":"Samangan","nameLocal":"ایستگاه راه آهن سمنگان","type":"station"},{"id":1148102564,"lat":31.27454,"lon":45.30308,"name":"Samawah Train Station","nameLocal":"محطة قطار السماوة","type":"station"},{"id":12666492199,"lat":35.3475,"lon":47.20209,"name":"Sanandaj","type":"station"},{"id":3188128695,"lat":36.53829,"lon":62.55402,"name":"Sandykgaçy","type":"station"},{"id":5932705294,"lat":34.47286,"lon":60.31143,"name":"Sangan","nameLocal":"ایستگاه راه آهن سنگان","type":"station"},{"id":704367070,"lat":34.58941,"lon":50.69378,"name":"Saqh","nameLocal":"ساقه","type":"station"},{"id":2945785088,"lat":36.52846,"lon":61.19782,"name":"Sarahs","type":"station"},{"id":370701134,"lat":37.30687,"lon":46.70945,"name":"Saraju dəmir yolu stansiyası","type":"station"},{"id":3849836297,"lat":36.47051,"lon":61.10471,"name":"Sarakhs","nameLocal":"سرخس","type":"station"},{"id":8425504841,"lat":30.54189,"lon":49.06861,"name":"Sarbandar","nameLocal":"بندر امام خمینی","type":"station"},{"id":3188126161,"lat":36.46299,"lon":62.59359,"name":"Saryýazy","type":"station"},{"id":6735414917,"lat":36.01877,"lon":53.04454,"name":"Savadkuh","nameLocal":"ایستگاه راه آهن سوادکوه","type":"station"},{"id":5060941284,"lat":35.10643,"lon":50.26854,"name":"Saveh","nameLocal":"ایستگاه راه‌آهن ساوه","type":"station"},{"id":8914869672,"lat":35.10643,"lon":50.26863,"name":"Saveh","nameLocal":"ساوه","type":"station"},{"id":7787930028,"lat":32.17154,"lon":51.2058,"name":"Sefiddasht","nameLocal":"سفیددشت","type":"station"},{"id":3221948474,"lat":37.49216,"lon":61.97046,"name":"Semenik","type":"station"},{"id":8360946103,"lat":35.55255,"lon":53.40497,"name":"Semnan","nameLocal":"راه آهن سمنان","type":"station"},{"id":2945770452,"lat":35.28292,"lon":62.3443,"name":"Serhetabat","type":"station"},{"id":9191743021,"lat":39.40951,"lon":62.88981,"name":"Seýdi","type":"station"},{"id":5162609065,"lat":36.32255,"lon":59.51703,"name":"Seyyed Razi","nameLocal":"سید رضی","type":"station"},{"id":3963722257,"lat":39.62686,"lon":44.88724,"name":"Sədərək","type":"station"},{"id":679964489,"lat":35.1655,"lon":59.10002,"name":"Shadmehr Train Station","nameLocal":"ایستگاه قطار شادمهر","type":"station"},{"id":6841415496,"lat":35.46715,"lon":50.93002,"name":"Shaheed Sajjad Khodayi","nameLocal":"شهید سجاد خدایی","type":"station"},{"id":5161029885,"lat":29.63153,"lon":52.51174,"name":"Shahid Avini Metro Station","nameLocal":"مترو شهید آوینی","type":"station"},{"id":9803621193,"lat":33.02573,"lon":56.00011,"name":"Shahid Montazer","nameLocal":"شهید منتظر","type":"station"},{"id":688670899,"lat":36.03012,"lon":59.81955,"name":"Shahid Motahary","nameLocal":"شهید مطهری","type":"station"},{"id":5161029884,"lat":29.63743,"lon":52.50275,"name":"Shahid Motahhari Metro Station","nameLocal":"مترو شهید مطهری","type":"station"},{"id":5230301190,"lat":35.95876,"lon":50.71909,"name":"Shahid Qasem Soleimani","nameLocal":"ایستگاه مترو شهید قاسم سلیمانی","type":"station"},{"id":263264374,"lat":36.30456,"lon":59.62419,"name":"Shahid Raeisi Railway Station","nameLocal":"ایستگاه راه آهن شهید رئیسی مشهد","type":"station"},{"id":13410861327,"lat":37.76781,"lon":45.87666,"name":"Shahid Rahim Rahbari","nameLocal":"ایستگاه راه آهن شهید رحیم رهبری","type":"station"},{"id":377283186,"lat":37.76782,"lon":45.87676,"name":"Shahid Rahim Rahbari Railway Station","nameLocal":"ایستگاه راه آهن شهید رحیم رهبری","type":"station"},{"id":13386003759,"lat":35.46352,"lon":50.97599,"name":"Shahr-e Parand","nameLocal":"ایستگاه قطار بین شهری پرند","type":"station"},{"id":13378178511,"lat":35.72453,"lon":51.12859,"name":"Shahr-e Qods","nameLocal":"ایستگاه قطار شهرقدس","type":"station"},{"id":7100236265,"lat":33.3946,"lon":52.82782,"name":"Shahrab","nameLocal":"شهراب","type":"station"},{"id":8960554731,"lat":31.22809,"lon":53.42618,"name":"Shahrak-e San'ati Railway Station","nameLocal":"ایستگاه راه آهن شهرک صنعتی","type":"station"},{"id":891725424,"lat":31.97604,"lon":51.83219,"name":"Shahreza","nameLocal":"ایستگاه راه آهن شهرضا","type":"station"},{"id":5909276329,"lat":37.70318,"lon":47.18764,"name":"Shahriyar","nameLocal":"شهریار","type":"station"},{"id":8364095070,"lat":36.40011,"lon":55.00121,"name":"Shahrud","nameLocal":"ایستگاه شاهرود","type":"station"},{"id":5888299389,"lat":30.49703,"lon":48.0425,"name":"Shalamcheh","nameLocal":"شلمچه","type":"station"},{"id":8372006034,"lat":34.28503,"lon":61.01289,"name":"Shamtigh (Afghanistan) Railway Station","nameLocal":"ایستگاه راه آهن شمتیغ افغانستان","type":"station"},{"id":4933372824,"lat":34.31783,"lon":60.89107,"name":"Shamtigh (Iran) Railway Station","nameLocal":"ایستگاه راه آهن شمتیغ ایران","type":"station"},{"id":8412479700,"lat":38.16781,"lon":45.48554,"name":"Sharafkhaneh","nameLocal":"ایستگاه راه آهن شرفخانه","type":"station"},{"id":5162991969,"lat":36.2911,"lon":59.586,"name":"Shariati","nameLocal":"شریعتی","type":"station"},{"id":1229695828,"lat":32.22239,"lon":44.80782,"name":"Sharifiya Railway Station","nameLocal":"محطة قطار الشريفية","type":"station"},{"id":3082864534,"lat":39.55016,"lon":44.98155,"name":"Sharur","type":"station"},{"id":4905313748,"lat":33.94129,"lon":49.41825,"name":"Shazand","nameLocal":"ایستگاه راه آهن شازند","type":"station"},{"id":2018396551,"lat":37.34625,"lon":47.42533,"name":"Sheikh Safi","nameLocal":"شیخ صفی","type":"station"},{"id":237583704,"lat":38.30235,"lon":44.94121,"name":"Shekar Yazi","nameLocal":"شکریازی","type":"station"},{"id":4903451120,"lat":35.22361,"lon":50.69625,"name":"Shhyd khyry pewr","nameLocal":"شهید خیری پور","type":"station"},{"id":691782426,"lat":37.64349,"lon":45.83025,"name":"Shiramin","nameLocal":"ایستگاه راه آهن شیرامین","type":"station"},{"id":828648487,"lat":29.76414,"lon":52.43136,"name":"Shiraz Railway Station","nameLocal":"ایستگاه راه آهن شیراز","type":"station"},{"id":7131411632,"lat":36.40267,"lon":49.50195,"name":"Shirin Su","nameLocal":"شیرین سو","type":"station"},{"id":13371614638,"lat":35.3652,"lon":50.63697,"name":"Shohada-ye Parandak","nameLocal":"شهدای پرندک","type":"station"},{"id":1256909051,"lat":30.7507,"lon":46.67527,"name":"Shuariya Railway Station","nameLocal":"محطة قطار الشويعرية","type":"station"},{"id":6432416631,"lat":34.45036,"lon":51.12017,"name":"Shurab","nameLocal":"شوراب","type":"station"},{"id":3979198994,"lat":32.20509,"lon":48.28987,"name":"Shush","nameLocal":"شوش","type":"station"},{"id":6334097194,"lat":32.05197,"lon":48.82971,"name":"Shushtar","nameLocal":"شوشتر","type":"station"},{"id":691707944,"lat":36.16218,"lon":49.84054,"name":"Siah Cheshmeh","nameLocal":"سیاه چشمه","type":"station"},{"id":13389112423,"lat":35.52068,"lon":52.50133,"name":"Simindasht","nameLocal":"سیمین دشت","type":"station"},{"id":6048628656,"lat":29.50857,"lon":55.64919,"name":"Sirjan","nameLocal":"سیرجان","type":"station"},{"id":4198405971,"lat":32.66985,"lon":52.1122,"name":"Sistan","nameLocal":"سیستان","type":"station"},{"id":8418713855,"lat":36.95925,"lon":45.48832,"name":"Soldoz railway station","nameLocal":"ایستگاه راه آهن سولدوز (نقده)","type":"station"},{"id":890846343,"lat":36.95856,"lon":45.48838,"name":"Soldoz railway station","nameLocal":"ایستگاه راه آهن سولدوز (نقده)","type":"station"},{"id":3222000778,"lat":37.12376,"lon":62.45001,"name":"Soltanbent","type":"station"},{"id":4362793728,"lat":36.50153,"lon":48.79465,"name":"Soltaniye Train Station","nameLocal":"ایستگاه سلطانیه","type":"station"},{"id":684206722,"lat":35.95427,"lon":53.00598,"name":"Sorkhabad","nameLocal":"سرخ آباد","type":"station"},{"id":5419099942,"lat":35.27117,"lon":52.87914,"name":"Sorkhdasht","nameLocal":"سرخ دشت","type":"halt"},{"id":684433721,"lat":25.28661,"lon":51.53622,"name":"Souq Waqif","nameLocal":"سوق واقف","type":"station"},{"id":691707593,"lat":37.07133,"lon":47.96419,"name":"Sr Chem","nameLocal":"سرچم","type":"station"},{"id":8075174696,"lat":38.27302,"lon":46.00266,"name":"Sufian","nameLocal":"صوفیان","type":"station"},{"id":1167973741,"lat":30.87902,"lon":46.45989,"name":"Suq ash Shuyukh Train Station","nameLocal":"محطة سوق الشيوخ","type":"station"},{"id":703788694,"lat":34.48104,"lon":50.40045,"name":"Svaryan","nameLocal":"ایستگاه سواریان","type":"station"},{"id":691708053,"lat":36.03172,"lon":49.54189,"name":"Syah Bagh","nameLocal":"سیاه باغ","type":"station"},{"id":7786409745,"lat":33.61327,"lon":56.89071,"name":"Tabas Railway Station","nameLocal":"ایستگاه راه‌ آهن طبس","type":"station"},{"id":691781800,"lat":38.07186,"lon":46.22819,"name":"Tabriz","nameLocal":"تبریز","type":"station"},{"id":7991978842,"lat":28.97255,"lon":61.55693,"name":"Taftan","nameLocal":"تفتان","type":"station"},{"id":3221986846,"lat":36.0136,"lon":62.71148,"name":"Tagtabazar","type":"station"},{"id":8491234281,"lat":35.116,"lon":49.30437,"name":"Tajarak","nameLocal":"تجرک","type":"station"},{"id":1210829982,"lat":33.46551,"lon":44.25147,"name":"Taji Railway Station","nameLocal":"محطة قطار التاجي","type":"station"},{"id":13383832886,"lat":36.07178,"lon":49.70351,"name":"Takestan","nameLocal":"ایستگاه راه آهن تاکستان","type":"station"},{"id":3221356253,"lat":37.27168,"lon":60.24557,"name":"Takyr","type":"station"},{"id":3221940422,"lat":37.40195,"lon":62.15574,"name":"Talhatanbaba","type":"station"},{"id":8960554733,"lat":31.24311,"lon":54.30801,"name":"Tang-e Chenar Railway Station","nameLocal":"ایستگاه راه آهن تنگ چنار","type":"station"},{"id":4903329967,"lat":35.61125,"lon":51.30578,"name":"Tappeh Sefid","nameLocal":"تپه سفید","type":"station"},{"id":3893014099,"lat":39.49549,"lon":45.02025,"name":"Taşarkh","type":"station"},{"id":11271470419,"lat":35.65812,"lon":51.39781,"name":"Tehran","nameLocal":"ایستگاه راه آهن تهران","type":"station"},{"id":915309675,"lat":37.3846,"lon":60.50057,"name":"Tejen","type":"station"},{"id":13373615204,"lat":37.71582,"lon":46.98734,"name":"Tekmeh Dash","nameLocal":"تکیمه داش","type":"station"},{"id":6591495524,"lat":25.25071,"lon":55.35147,"name":"Terminal 1","nameLocal":"مبنى 1","type":"station"},{"id":540766733,"lat":28.26926,"lon":55.78382,"name":"Tezerj","nameLocal":"ایستگاه راه آهن تذرج","type":"station"},{"id":1232503903,"lat":35.36815,"lon":44.22294,"name":"Thawra Railway Station","nameLocal":"محطة قطار الثورة","type":"station"},{"id":8657568245,"lat":25.12686,"lon":55.12175,"name":"The Pointe","nameLocal":"ذي بوينت","type":"station"},{"id":6479850747,"lat":35.95766,"lon":59.57481,"name":"Torbat Railway Station","nameLocal":"ایستگاه راه آهن تربت","type":"station"},{"id":7786409748,"lat":35.27389,"lon":59.30664,"name":"Torbat-e Heydarieh Railway Station","nameLocal":"ایستگاه راه آهن تربت حیدریه","type":"station"},{"id":671794339,"lat":35.70111,"lon":51.37847,"name":"Towhid metro station","nameLocal":"ایستگاه مترو توحید","type":"station"},{"id":13364300811,"lat":28.80184,"lon":62.27861,"name":"Tozghi","nameLocal":"توزگھئی","type":"station"},{"id":1266619758,"lat":30.47419,"lon":47.49454,"name":"Tuba Railway Station","nameLocal":"محطة  قطار الطوبة","type":"station"},{"id":7025655829,"lat":37.60028,"lon":47.39162,"name":"Turkmanchay","nameLocal":"ترکمانچای","type":"station"},{"id":11961288239,"lat":30.95638,"lon":46.18531,"name":"Ur Railway Station","type":"station"},{"id":9876337367,"lat":37.49742,"lon":45.14468,"name":"Urmia Railway Station","nameLocal":"ایستگاه راه آهن ارومیه","type":"station"},{"id":3188145671,"lat":39.21018,"lon":55.71247,"name":"Uzunsuw","type":"station"},{"id":304665634,"lat":35.33521,"lon":51.64453,"name":"Varamin","nameLocal":"ایستگاه راه آهن ورامین","type":"station"},{"id":5604713689,"lat":35.74383,"lon":51.15063,"name":"Vardavard metro station","nameLocal":"ایستگاه مترو وردآورد","type":"station"},{"id":10886174932,"lat":32.83363,"lon":52.12113,"name":"Vartun","nameLocal":"ورتون","type":"station"},{"id":7786409743,"lat":32.56961,"lon":52.60706,"name":"Varzaneh","nameLocal":"ورزنه","type":"station"},{"id":5604726880,"lat":35.71654,"lon":51.28146,"name":"Varzeshgah-e Azadi","nameLocal":"ایستگاه مترو ورزشگاه آزادی","type":"station"},{"id":1815320196,"lat":35.90665,"lon":52.98577,"name":"Veresk","nameLocal":"ورسک","type":"station"},{"id":4992730387,"lat":28.86534,"lon":61.90827,"name":"Warechah","nameLocal":"وارچا","type":"station"},{"id":3078993776,"lat":39.7159,"lon":47.82891,"name":"Xələc","type":"station"},{"id":8410244690,"lat":36.95916,"lon":54.39612,"name":"Yampi","nameLocal":"یامپی","type":"station"},{"id":3219289453,"lat":39.66976,"lon":55.92821,"name":"Ýasga","type":"station"},{"id":8895975402,"lat":37.76922,"lon":58.90076,"name":"Yashlyk","nameLocal":"Ýaşlyk","type":"station"},{"id":3893018487,"lat":38.9336,"lon":45.74326,"name":"Yaycı","type":"station"},{"id":5685144962,"lat":31.86447,"lon":54.34463,"name":"Yazd","nameLocal":"ایستگاه راه آهن یزد","type":"station"},{"id":6326523485,"lat":31.81769,"lon":54.50023,"name":"YazdGerd","nameLocal":"یزدگرد","type":"station"},{"id":11368513435,"lat":39.74041,"lon":44.82596,"name":"Yeraskh","nameLocal":"Երասխ","type":"station"},{"id":374806526,"lat":39.24253,"lon":58.55118,"name":"Ýerbent","type":"station"},{"id":3221978681,"lat":36.71551,"lon":62.45728,"name":"Ymambaba","type":"station"},{"id":3188119986,"lat":37.2931,"lon":62.35451,"name":"Yoloten","nameLocal":"Ýolöten","type":"station"},{"id":11062959596,"lat":34.71235,"lon":58.4854,"name":"Yunesi","nameLocal":"یونسی","type":"station"},{"id":1227395704,"lat":33.15272,"lon":44.36977,"name":"Yusufiya Railway Station","nameLocal":"محطة قطار اليوسفية","type":"station"},{"id":612533677,"lat":29.43042,"lon":60.91356,"name":"Zahedan New Industrial Town","nameLocal":"ایستگاه راه آهن زاهدان -باری-جدید","type":"station"},{"id":7991945731,"lat":29.48025,"lon":60.87409,"name":"Zahedan Railway Station","nameLocal":"ایستگاه راه آهن زاهدان","type":"station"},{"id":3221379914,"lat":37.775,"lon":62.52962,"name":"Zähmet","type":"station"},{"id":693323865,"lat":38.73056,"lon":45.62301,"name":"Zal","nameLocal":"زال","type":"station"},{"id":8421409893,"lat":38.73057,"lon":45.62311,"name":"Zal","nameLocal":"زال","type":"station"},{"id":391709124,"lat":36.66068,"lon":48.483,"name":"Zanjan","nameLocal":"ایستگاه راه آهن زنجان","type":"station"},{"id":6007553193,"lat":30.81265,"lon":56.58227,"name":"Zarand","nameLocal":"زرند","type":"station"},{"id":474060457,"lat":30.81246,"lon":56.582,"name":"Zarand Station","nameLocal":"ایستگاه راه آهن","type":"station"},{"id":13406384150,"lat":37.90588,"lon":45.94075,"name":"Zareei","nameLocal":"زارعی خاصبان","type":"station"},{"id":13389112454,"lat":35.57097,"lon":52.60323,"name":"Zarindasht","nameLocal":"ایستگاه راه آهن زرین دشت","type":"station"},{"id":5922896616,"lat":33.43283,"lon":52.50968,"name":"Zavareh","nameLocal":"زواره","type":"station"},{"id":7025664304,"lat":37.5027,"lon":47.71073,"name":"Zaviyeh","nameLocal":"ایستگاه راه آهن زاویه","type":"station"},{"id":4902596471,"lat":36.11092,"lon":50.35641,"name":"Ziaran","nameLocal":"زیاران","type":"station"},{"id":684207872,"lat":36.17699,"lon":52.97111,"name":"Zirab","nameLocal":"ایستگاه راه آهن زیراب","type":"station"},{"id":691708066,"lat":36.30034,"lon":49.10934,"name":"Zryn Dje","nameLocal":"زرین دژ","type":"station"},{"id":2487994072,"lat":32.66667,"lon":45.51667,"name":"Zubaida","nameLocal":"زبيدة","type":"station"},{"id":1149390766,"lat":30.38436,"lon":47.69278,"name":"Zubayr Railway Station","nameLocal":"محطة قطار الزبير","type":"station"},{"id":12117384355,"lat":34.98771,"lon":50.61507,"name":"انجیلاوند","type":"station"},{"id":12526496465,"lat":27.93801,"lon":55.71335,"name":"ایستکاه راه آهن زاهد محمود","type":"station"},{"id":5419121298,"lat":35.54016,"lon":53.76359,"name":"ایستگاه آبگرم","type":"halt"},{"id":7304911486,"lat":30.86094,"lon":55.49653,"name":"ایستگاه اضطراری ۲۲","type":"station"},{"id":703745805,"lat":30.43189,"lon":49.07809,"name":"ایستگاه بندر امام خمینی","type":"station"},{"id":7304911585,"lat":30.74722,"lon":55.51433,"name":"ایستگاه بیاض","type":"station"},{"id":9344682994,"lat":30.91436,"lon":52.81811,"name":"ایستگاه بید بیدک","type":"halt"},{"id":703776358,"lat":32.8226,"lon":48.7673,"name":"ایستگاه تله زنگ","type":"station"},{"id":703774997,"lat":32.94412,"lon":48.74594,"name":"ایستگاه تنگ پنج","type":"station"},{"id":703776060,"lat":33.04413,"lon":48.67047,"name":"ایستگاه تنگ هفت","type":"station"},{"id":703775015,"lat":33.16603,"lon":48.76262,"name":"ایستگاه چمسنگر","type":"station"},{"id":696516108,"lat":36.08575,"lon":58.99173,"name":"ایستگاه خیام","type":"station"},{"id":703775653,"lat":32.56036,"lon":48.29713,"name":"ایستگاه دوکوهه","type":"station"},{"id":722943138,"lat":30.49127,"lon":55.60665,"name":"ایستگاه راه آهن احمد آباد","type":"station"},{"id":684207459,"lat":36.77477,"lon":53.95068,"name":"ایستگاه راه آهن بندر گز","type":"station"},{"id":6367921786,"lat":31.74817,"lon":54.92998,"name":"ایستگاه راه آهن تبرکوه","type":"station"},{"id":684208967,"lat":36.72695,"lon":53.72457,"name":"ایستگاه راه آهن تیرتاش","type":"station"},{"id":962176436,"lat":36.60488,"lon":57.58414,"name":"ایستگاه راه آهن جوین","type":"station"},{"id":1472694336,"lat":31.27629,"lon":53.86864,"name":"ایستگاه راه آهن چاه سرخ","type":"station"},{"id":8258493790,"lat":30.36347,"lon":53.3499,"name":"ایستگاه راه آهن دیدگان","type":"station"},{"id":967093094,"lat":37.43437,"lon":45.97901,"name":"ایستگاه راه آهن دیزج رود بناب","type":"station"},{"id":1353023992,"lat":27.93828,"lon":55.71339,"name":"ایستگاه راه آهن زاد محمود","type":"station"},{"id":684208116,"lat":36.55274,"lon":53.05872,"name":"ایستگاه راه آهن ساری","type":"station"},{"id":1383639786,"lat":36.20765,"lon":57.71308,"name":"ایستگاه راه آهن سبزوار ( در حال ساخت )","type":"station"},{"id":1896328824,"lat":33.22222,"lon":48.88283,"name":"ایستگاه راه آهن سپید دشت","type":"station"},{"id":370845736,"lat":37.31926,"lon":46.87961,"name":"ایستگاه راه آهن سراسکند","type":"station"},{"id":695948954,"lat":36.75882,"lon":56.96313,"name":"ایستگاه راه آهن سنخواست","type":"station"},{"id":6024555256,"lat":35.10415,"lon":50.41029,"name":"ایستگاه راه آهن شهر صنعتی کاوه","type":"station"},{"id":9346771372,"lat":31.42529,"lon":52.34632,"name":"ایستگاه راه آهن شورجستان","type":"halt"},{"id":1346791484,"lat":36.29443,"lon":52.88826,"name":"ایستگاه راه آهن شیرگاه","type":"station"},{"id":372034267,"lat":37.37319,"lon":46.98423,"name":"ایستگاه راه آهن صائب","type":"station"},{"id":9346771354,"lat":31.31284,"lon":52.48566,"name":"ایستگاه راه آهن صغاد","type":"halt"},{"id":1896111155,"lat":33.42117,"lon":48.99585,"name":"ایستگاه راه آهن قارون","type":"station"},{"id":12116929579,"lat":34.34426,"lon":60.48528,"name":"ایستگاه راه آهن مبوتک","type":"station"},{"id":3751301481,"lat":31.71292,"lon":55.08135,"name":"ایستگاه راه آهن مهرداد","type":"station"},{"id":1273032964,"lat":38.05,"lon":48.3041,"name":"ایستگاه راه آهن مهماندوست","type":"station"},{"id":1167642409,"lat":37.3833,"lon":47.73901,"name":"ایستگاه راه آهن میانه","type":"station"},{"id":6764719075,"lat":32.22921,"lon":53.92955,"name":"ایستگاه راه آهن میبد","type":"station"},{"id":13534829431,"lat":31.95733,"lon":54.15081,"name":"ایستگاه راه آهن نظرآباد - اشکذر","type":"station"},{"id":703788605,"lat":33.79726,"lon":49.42185,"name":"ایستگاه راه آهن نورآباد","type":"station"},{"id":13137692816,"lat":27.20385,"lon":60.734,"name":"ایستگاه راه‌آهن ایرانشهر","type":"station"},{"id":5953983807,"lat":29.40106,"lon":60.82538,"name":"ایستگاه راه‌آهن شرکت نفت","type":"station"},{"id":704367024,"lat":34.55872,"lon":51.04852,"name":"ایستگاه راه‌آهن محمدیه","type":"station"},{"id":703788199,"lat":33.46419,"lon":49.17377,"name":"ایستگاه رودک","type":"station"},{"id":691707362,"lat":36.50149,"lon":48.79418,"name":"ایستگاه سلطانیه","type":"station"},{"id":703789184,"lat":33.68009,"lon":49.45755,"name":"ایستگاه سمیه","type":"station"},{"id":3144516900,"lat":36.75867,"lon":56.96318,"name":"ایستگاه سنخواست","type":"station"},{"id":4413853645,"lat":31.03266,"lon":55.94472,"name":"ایستگاه سیریز","type":"station"},{"id":5074979607,"lat":32.78308,"lon":48.6545,"name":"ایستگاه شهسوار","type":"station"},{"id":4281015663,"lat":28.97395,"lon":58.85788,"name":"ایستگاه فهرج","type":"station"},{"id":878360938,"lat":30.07883,"lon":55.55342,"name":"ایستگاه قطار میمند","type":"station"},{"id":703775750,"lat":33.13528,"lon":48.64355,"name":"ایستگاه کشور","type":"station"},{"id":302532759,"lat":30.75321,"lon":48.96907,"name":"ایستگاه گرگر","type":"station"},{"id":1004332867,"lat":37.29405,"lon":46.40665,"name":"ایستگاه گل تپه","type":"station"},{"id":3853815286,"lat":29.14011,"lon":55.42415,"name":"ایستگاه گل گهر","type":"station"},{"id":703787912,"lat":33.59047,"lon":49.52057,"name":"ایستگاه مؤمن آباد","type":"station"},{"id":5072947444,"lat":32.78849,"lon":48.51041,"name":"ایستگاه مازو","type":"station"},{"id":704841185,"lat":31.27771,"lon":48.59916,"name":"ایستگاه مترو پردیس","type":"station"},{"id":5419117641,"lat":35.57381,"lon":53.60299,"name":"ایستگاه میاندره","type":"halt"},{"id":7304911485,"lat":31.17579,"lon":55.49805,"name":"ایستگاهدقطار جنت آباد","type":"station"},{"id":4020043514,"lat":31.68781,"lon":48.66871,"name":"بامدژ","type":"station"},{"id":684206415,"lat":36.84519,"lon":53.32079,"name":"بندر امیرآباد","type":"station"},{"id":10973642593,"lat":31.73946,"lon":55.47984,"name":"بیشه در","type":"station"},{"id":6805219938,"lat":36.72549,"lon":57.17431,"name":"جوین","type":"station"},{"id":1880561009,"lat":29.31144,"lon":60.79026,"name":"جیگولی","type":"station"},{"id":1004344427,"lat":37.28753,"lon":46.5779,"name":"چیبینلو","type":"station"},{"id":703746658,"lat":31.0642,"lon":48.82187,"name":"خسروی","type":"station"},{"id":1004344439,"lat":37.33521,"lon":46.35287,"name":"خواجه نصیر","type":"station"},{"id":8372007354,"lat":34.32764,"lon":60.66791,"name":"خوشابه","type":"station"},{"id":667510219,"lat":34.65446,"lon":50.89243,"name":"رضوی","type":"station"},{"id":9803604125,"lat":33.04825,"lon":56.14422,"name":"ریزو","type":"station"},{"id":667510221,"lat":34.64966,"lon":50.88684,"name":"شهید رجایی","type":"station"},{"id":667510222,"lat":34.64598,"lon":50.88199,"name":"شهید مطهری","type":"station"},{"id":1004347745,"lat":37.34612,"lon":47.42539,"name":"شیخ صفی","type":"station"},{"id":11062935201,"lat":34.00949,"lon":56.78951,"name":"شیرگشت","type":"station"},{"id":8418713826,"lat":37.14967,"lon":45.42582,"name":"شیرین بلاغ","type":"station"},{"id":906610235,"lat":37.14984,"lon":45.42611,"name":"شیرین بلاغ","type":"station"},{"id":923044170,"lat":37.39195,"lon":47.57525,"name":"قره داغی","type":"station"},{"id":906610247,"lat":36.99469,"lon":45.88684,"name":"قزقلعه","type":"station"},{"id":9803815920,"lat":33.32437,"lon":56.57818,"name":"کال زرد","type":"station"},{"id":703746101,"lat":30.75309,"lon":48.96892,"name":"گرگر","type":"station"},{"id":10899295170,"lat":32.47669,"lon":54.01087,"name":"گلدانه","type":"station"},{"id":5419103653,"lat":35.32957,"lon":53.08342,"name":"لاهور","type":"halt"},{"id":763348913,"lat":32.71527,"lon":51.63152,"name":"مترو گلستان","type":"station"},{"id":763348916,"lat":32.71581,"lon":51.63113,"name":"مترو گلستان","type":"station"},{"id":1264554445,"lat":30.94367,"lon":46.35508,"name":"محطة قطار الفضليه","type":"station"},{"id":397946283,"lat":30.04238,"lon":47.92884,"name":"محطة قطار ام قصر","type":"station"},{"id":667510223,"lat":34.6359,"lon":50.86598,"name":"مصلی","type":"station"},{"id":906676340,"lat":37.14454,"lon":46.1591,"name":"ملکان","type":"station"},{"id":703746688,"lat":30.92413,"lon":48.88997,"name":"منصوری","type":"station"},{"id":8371927564,"lat":34.34434,"lon":60.48535,"name":"میوتک","type":"station"}]