[{"id":2718634602,"lat":39.88381,"lon":54.02139,"name":"126-njy duralga","type":"station"},{"id":2718407411,"lat":40.017,"lon":53.66441,"name":"129-njy duralga","type":"station"},{"id":3885729051,"lat":39.53526,"lon":62.77248,"name":"170-nji duralga","type":"station"},{"id":1555420594,"lat":38.72909,"lon":65.75628,"name":"4148 км","type":"station"},{"id":8328328365,"lat":39.75633,"lon":64.58769,"name":"42 temir yo'l raz`ezdi","type":"station"},{"id":12201416058,"lat":41.78024,"lon":60.12532,"name":"449 km","type":"station"},{"id":696441314,"lat":38.83453,"lon":63.39929,"name":"50-nji razýezd","type":"station"},{"id":1591202601,"lat":41.5259,"lon":64.26292,"name":"51 km","type":"station"},{"id":696440302,"lat":38.67428,"lon":63.26837,"name":"51-nji razýezd","type":"station"},{"id":530973349,"lat":37.84076,"lon":62.59423,"name":"61-nji duralga","type":"station"},{"id":3884567919,"lat":37.87045,"lon":58.67096,"name":"87-nji duralga","type":"station"},{"id":6354687689,"lat":35.94658,"lon":59.38423,"name":"Abumoslem railroad station","nameLocal":"ایستگاه قطار ابومسلم","type":"station"},{"id":1591158486,"lat":41.34617,"lon":64.01192,"name":"Adjibugut","type":"station"},{"id":3889181263,"lat":39.42839,"lon":55.53562,"name":"Ak ýol","type":"station"},{"id":9787590343,"lat":37.22083,"lon":65.24289,"name":"Akinah","type":"station"},{"id":3883121346,"lat":37.90452,"lon":54.71365,"name":"Akjadepe","type":"station"},{"id":275164301,"lat":39.34901,"lon":55.16917,"name":"Akjaguýma","type":"station"},{"id":374916158,"lat":39.50163,"lon":58.48099,"name":"Akmaýanyň Ýoly","type":"station"},{"id":565003269,"lat":37.72572,"lon":59.00795,"name":"Aksuv station","nameLocal":"Aksuw stansiýasy","type":"station"},{"id":3884475565,"lat":37.4636,"lon":54.6298,"name":"Akýaýla","type":"station"},{"id":7661147183,"lat":40.79077,"lon":62.88909,"name":"Alabuga","type":"station"},{"id":1555266196,"lat":39.19932,"lon":66.04839,"name":"Alato'n","type":"station"},{"id":3221948990,"lat":37.53605,"lon":61.87946,"name":"Altyn Asyr","type":"station"},{"id":205651302,"lat":41.46841,"lon":58.80655,"name":"Altyn Kol","nameLocal":"Altyn köl","type":"station"},{"id":3187132672,"lat":38.52272,"lon":58.50699,"name":"Altyn Menzil","type":"station"},{"id":12331105709,"lat":41.29743,"lon":64.23482,"name":"Amantaytov","type":"station"},{"id":6535085632,"lat":35.91747,"lon":54.20628,"name":"Amravan","nameLocal":"امروان","type":"station"},{"id":3145081581,"lat":37.88531,"lon":65.24965,"name":"Amyderýa","type":"station"},{"id":9787560276,"lat":37.01444,"lon":65.13498,"name":"Andkhoy","nameLocal":"اندخوی","type":"station"},{"id":8896008349,"lat":37.91185,"lon":58.49979,"name":"Änew","type":"station"},{"id":2980026242,"lat":38.59118,"lon":57.13024,"name":"Archman","nameLocal":"Arçman","type":"station"},{"id":3188147897,"lat":39.40509,"lon":55.01008,"name":"Arkaç","type":"station"},{"id":583473452,"lat":37.24958,"lon":59.79131,"name":"Armansagat station","nameLocal":"Armansagat stansiýasy","type":"station"},{"id":3889207121,"lat":40.83771,"lon":55.11927,"name":"Ärsarybaba","type":"station"},{"id":566224361,"lat":37.54922,"lon":59.32619,"name":"Artyk station","nameLocal":"Artyk stansiýasy","type":"station"},{"id":3889184092,"lat":39.57541,"lon":55.68405,"name":"Arzuw","type":"station"},{"id":8895975404,"lat":37.94322,"lon":58.3961,"name":"Ashgabat","nameLocal":"Aşgabat","type":"station"},{"id":2794217340,"lat":36.81812,"lon":61.08444,"name":"Ata","type":"station"},{"id":4912581788,"lat":36.28427,"lon":58.56498,"name":"Attar","nameLocal":"عطار","type":"station"},{"id":13438352527,"lat":40.66187,"lon":55.19034,"name":"Awlamyş","type":"station"},{"id":3188147916,"lat":39.38156,"lon":54.82583,"name":"Aýdyň","type":"station"},{"id":1555201288,"lat":39.35749,"lon":66.19657,"name":"Ayritom","type":"station"},{"id":8411423083,"lat":36.03328,"lon":60.06736,"name":"Azadegan","nameLocal":"آزادگان","type":"station"},{"id":3144516664,"lat":36.74186,"lon":56.74831,"name":"Azadvar","nameLocal":"آزادور","type":"station"},{"id":6968062895,"lat":40.50667,"lon":63.63119,"name":"Azanir","type":"station"},{"id":3885992911,"lat":37.77411,"lon":65.33524,"name":"Azatlyk","type":"station"},{"id":3883328971,"lat":38.08614,"lon":58.14376,"name":"Babarap","type":"station"},{"id":1285981032,"lat":42.02207,"lon":60.44655,"name":"Baday","nameLocal":"Badai","type":"station"},{"id":12179911358,"lat":41.38517,"lon":60.90253,"name":"Bagat","nameLocal":"Bog'ot","type":"station"},{"id":8896037632,"lat":38.08976,"lon":62.80316,"name":"Bagtyyarlyk","nameLocal":"Bagtyýarlyk (Üçaji)","type":"station"},{"id":275232562,"lat":38.4341,"lon":57.43159,"name":"Baherden","nameLocal":"Bäherden","type":"station"},{"id":3883125510,"lat":38.46127,"lon":54.70361,"name":"Balguýy","type":"station"},{"id":274970840,"lat":38.92357,"lon":63.47548,"name":"Balhana","type":"station"},{"id":2442349398,"lat":39.50508,"lon":54.34847,"name":"Balkanabat","type":"station"},{"id":275214357,"lat":38.72866,"lon":56.80478,"name":"Bamy","type":"station"},{"id":684209169,"lat":36.89332,"lon":54.06578,"name":"Bandar-e Torkaman","nameLocal":"بندر ترکمن","type":"station"},{"id":5162991971,"lat":36.27356,"lon":59.60355,"name":"Basij","nameLocal":"بسیج","type":"station"},{"id":648760875,"lat":36.7022,"lon":53.53976,"name":"Behshahr","nameLocal":"بهشهر","type":"station"},{"id":8228911027,"lat":39.93283,"lon":53.84038,"name":"Belek-Turkmenskiy","type":"station"},{"id":2699667319,"lat":39.2454,"lon":55.52141,"name":"Bereket","type":"station"},{"id":4447878494,"lat":39.26748,"lon":55.48976,"name":"Bereket 2","type":"station"},{"id":3889208620,"lat":41.07622,"lon":54.91497,"name":"Berkarar","type":"station"},{"id":8895996369,"lat":37.64039,"lon":59.14085,"name":"Berkarar","type":"station"},{"id":530969630,"lat":37.95218,"lon":62.66203,"name":"Berkarar (Çygaji)","type":"station"},{"id":4910917969,"lat":41.98296,"lon":60.6273,"name":"Beruniy-1","type":"station"},{"id":8371478170,"lat":36.52478,"lon":57.84276,"name":"Beyhaq","nameLocal":"بیهق","type":"station"},{"id":8328307366,"lat":40.08063,"lon":65.28476,"name":"Binokor","nameLocal":"Бинокор","type":"station"},{"id":3889211088,"lat":41.25927,"lon":54.71858,"name":"Bitaraplyk","type":"station"},{"id":5419106162,"lat":35.42937,"lon":53.27852,"name":"Biyabanak","nameLocal":"بیابانک","type":"halt"},{"id":3188028875,"lat":39.20156,"lon":63.30063,"name":"Boýnuzyn","type":"station"},{"id":13438568170,"lat":38.73344,"lon":54.68904,"name":"Bugdaýly","type":"station"},{"id":8328285677,"lat":39.72225,"lon":64.54861,"name":"Bukhara 1","nameLocal":"Buxoro 1","type":"station"},{"id":1588259351,"lat":39.75114,"lon":64.46354,"name":"Bukhara 2","nameLocal":"Buxoro 2","type":"station"},{"id":3886004619,"lat":37.73379,"lon":65.40928,"name":"Burguchy","nameLocal":"Burguçy","type":"station"},{"id":3889185758,"lat":39.94882,"lon":55.79306,"name":"Burgun","type":"station"},{"id":1592361923,"lat":41.4418,"lon":61.5076,"name":"Burgutli","nameLocal":"Бургутли","type":"station"},{"id":3188137295,"lat":38.10263,"lon":58.08036,"name":"Büzmeýin","type":"station"},{"id":3221954730,"lat":35.45361,"lon":62.39969,"name":"Çemenabat","type":"station"},{"id":3188146234,"lat":39.29942,"lon":55.34112,"name":"Çitli","type":"station"},{"id":303841913,"lat":36.15059,"lon":54.37037,"name":"Damghan","nameLocal":"دامغان","type":"station"},{"id":3883136754,"lat":39.16593,"lon":55.14409,"name":"Däneata","type":"station"},{"id":5162609068,"lat":36.32518,"lon":59.5086,"name":"Danesh Amooz","nameLocal":"دانش آموز","type":"station"},{"id":1590421642,"lat":39.26537,"lon":63.15526,"name":"Danev","nameLocal":"Dänew","type":"station"},{"id":3221918126,"lat":40.48998,"lon":62.12742,"name":"Darganata","type":"station"},{"id":3221971699,"lat":36.27488,"lon":62.64223,"name":"Dashkopri","nameLocal":"Daşköpri","type":"station"},{"id":5658728026,"lat":41.84984,"lon":59.97675,"name":"Dashoguz","nameLocal":"Daşoguz","type":"station"},{"id":1586583051,"lat":38.77183,"lon":65.84701,"name":"Dasht","type":"station"},{"id":3886020849,"lat":37.6719,"lon":65.60389,"name":"Daşrabat","type":"station"},{"id":5455046834,"lat":41.20966,"lon":61.92258,"name":"Dáwtóbe","type":"station"},{"id":1646608148,"lat":38.34709,"lon":66.43571,"name":"Dehkanabad","nameLocal":"Dehqonobod","type":"station"},{"id":1592361848,"lat":41.63319,"lon":62.0525,"name":"Do`nglik","nameLocal":"Дунгулюк","type":"station"},{"id":3221364651,"lat":37.61988,"lon":61.29227,"name":"Dörtguýy","type":"station"},{"id":3886602157,"lat":42.27485,"lon":59.26753,"name":"Dostluk","type":"station"},{"id":13438567727,"lat":38.95591,"lon":54.77933,"name":"Döwletýar","type":"station"},{"id":2156280927,"lat":40.64767,"lon":58.40242,"name":"Dueli","nameLocal":"Düýeli","type":"station"},{"id":8895992845,"lat":37.20059,"lon":60.03144,"name":"Dushak","nameLocal":"Duşak","type":"station"},{"id":12168389403,"lat":41.75963,"lon":60.85699,"name":"Ellikqala","type":"station"},{"id":231190487,"lat":41.75985,"lon":60.8574,"name":"Ellikqala","type":"station"},{"id":3415481009,"lat":37.7052,"lon":54.74089,"name":"Etrek","type":"station"},{"id":1588243848,"lat":39.1694,"lon":63.601,"name":"Farap","type":"station"},{"id":6870181924,"lat":36.00102,"lon":59.76391,"name":"Fariman","nameLocal":"ایستگاه فریمان","type":"station"},{"id":9644182230,"lat":36.37331,"lon":58.32636,"name":"Ferdows Railway Station","nameLocal":"ایستگاه راه آهن فردوس","type":"station"},{"id":7819484419,"lat":35.74979,"lon":52.77504,"name":"Firuzkuh","nameLocal":"فیروزکوه","type":"station"},{"id":3188036698,"lat":39.76824,"lon":62.52918,"name":"Gabakly","type":"station"},{"id":3220636997,"lat":35.82418,"lon":52.91723,"name":"Gadok","nameLocal":"ایسگاه راه آهن گدوک","type":"station"},{"id":3188119510,"lat":35.65364,"lon":62.56043,"name":"Galaýmor","type":"station"},{"id":3188031346,"lat":39.31495,"lon":62.99626,"name":"Galkynyş","type":"station"},{"id":684209279,"lat":36.74705,"lon":53.81296,"name":"Galugah","nameLocal":"ایستگاه راه آهن گلوگاه","type":"station"},{"id":3221933028,"lat":38.44387,"lon":64.08055,"name":"Garabekewül","type":"station"},{"id":374833316,"lat":38.71143,"lon":58.49505,"name":"Garagum","type":"station"},{"id":245898168,"lat":40.02125,"lon":53.50598,"name":"Garateňir","type":"station"},{"id":530975491,"lat":38.74397,"lon":63.32519,"name":"Garawulguyy","nameLocal":"Garawülguýy","type":"station"},{"id":3221365881,"lat":37.62101,"lon":61.56356,"name":"Garybata","type":"station"},{"id":581729133,"lat":37.82993,"lon":58.75168,"name":"Gavers Station","nameLocal":"Gäwers stansiýasy","type":"station"},{"id":3145091074,"lat":41.19734,"lon":61.40063,"name":"Gazojak","type":"station"},{"id":3883363583,"lat":41.72319,"lon":59.92979,"name":"Gerogly","nameLocal":"Görogly","type":"station"},{"id":5160831955,"lat":36.25682,"lon":59.6202,"name":"Ghadir","nameLocal":"مترو غدیر","type":"station"},{"id":245595661,"lat":38.63471,"lon":66.25712,"name":"Gʻuzor","type":"station"},{"id":3188022666,"lat":38.86229,"lon":56.55938,"name":"Goç","type":"station"},{"id":1187987268,"lat":38.15995,"lon":57.96547,"name":"Gokdepe","nameLocal":"Gökdepe","type":"station"},{"id":2398687865,"lat":40.32982,"lon":55.49574,"name":"Gökdere","type":"station"},{"id":3221364208,"lat":37.45417,"lon":60.74252,"name":"Göksüýri","type":"station"},{"id":6831473486,"lat":36.4819,"lon":52.89819,"name":"Gooni Bafi","nameLocal":"گونی بافی","type":"station"},{"id":11021092777,"lat":36.85549,"lon":54.42035,"name":"Gorgan","nameLocal":"گرگان","type":"station"},{"id":3886246584,"lat":42.06606,"lon":59.9683,"name":"Gubadag","type":"station"},{"id":4528661445,"lat":37.47384,"lon":64.97763,"name":"Gulistan","type":"station"},{"id":3221374451,"lat":37.68788,"lon":62.35234,"name":"Gurbangala","type":"station"},{"id":8910635472,"lat":41.74801,"lon":59.62516,"name":"Gurbansoltan eje","type":"station"},{"id":13190564919,"lat":41.90022,"lon":60.30599,"name":"Gurlan Temir Yo'l Vokzali","type":"station"},{"id":2700790542,"lat":37.99878,"lon":58.30484,"name":"Gypjak","type":"station"},{"id":3187042055,"lat":40.01752,"lon":53.11387,"name":"Gyuşa","type":"station"},{"id":8241606910,"lat":38.97944,"lon":56.27327,"name":"Gyzylarbat","type":"station"},{"id":3889194703,"lat":40.5365,"lon":55.39928,"name":"Gyzylgaýa","type":"station"},{"id":5162609074,"lat":36.32774,"lon":59.5004,"name":"Haft-e Tir","nameLocal":"هفت تیر","type":"station"},{"id":8896042774,"lat":38.05865,"lon":64.86585,"name":"Halach","nameLocal":"Halaç","type":"station"},{"id":3188035616,"lat":40.07651,"lon":62.37358,"name":"Halkabat","type":"station"},{"id":3889207887,"lat":41.39738,"lon":54.50429,"name":"Hazar","type":"station"},{"id":5162991973,"lat":36.26773,"lon":59.60922,"name":"Hefdah-e Shahrivar","nameLocal":"ایستگاه قطارشهری هفده شهریور","type":"station"},{"id":12053000095,"lat":35.65317,"lon":59.22797,"name":"Hesar Jalal","nameLocal":"حصار جلال","type":"station"},{"id":3886643434,"lat":37.15601,"lon":61.05596,"name":"Howuzhan","type":"station"},{"id":205657042,"lat":40.19505,"lon":58.38801,"name":"Ichoguz","nameLocal":"Içoguz","type":"station"},{"id":2810462167,"lat":36.26013,"lon":59.59335,"name":"Imam Reza Terminal","nameLocal":"پایانه امام رضا","type":"station"},{"id":4025966922,"lat":37.42981,"lon":54.61438,"name":"Incheh Borun","nameLocal":"اینچه برون","type":"station"},{"id":3188143151,"lat":39.07623,"lon":55.93204,"name":"Isgender","type":"station"},{"id":3144515937,"lat":36.70383,"lon":56.52782,"name":"Jajarm","nameLocal":"جاجرم","type":"station"},{"id":12205233198,"lat":41.07653,"lon":62.23318,"name":"Jakasay","type":"station"},{"id":3188139229,"lat":39.02746,"lon":56.13424,"name":"Janahyr","type":"station"},{"id":4526226152,"lat":38.39019,"lon":66.32159,"name":"jarkuduk","nameLocal":"Jarquduq","type":"station"},{"id":275156824,"lat":39.62952,"lon":54.22952,"name":"Jebel","type":"station"},{"id":1553880999,"lat":39.71592,"lon":66.66403,"name":"Juma","type":"station"},{"id":1954455058,"lat":42.05907,"lon":60.2394,"name":"Jumırtaw","type":"station"},{"id":8328613409,"lat":39.72498,"lon":64.57668,"name":"Kagan","type":"station"},{"id":1646601687,"lat":38.53787,"lon":66.12271,"name":"Kajirma","type":"station"},{"id":8896009275,"lat":37.34395,"lon":59.61795,"name":"Kaka","type":"station"},{"id":8364118439,"lat":36.2831,"lon":54.84639,"name":"Kalateh-ye Khan","nameLocal":"کلاتخوان","type":"station"},{"id":12053000078,"lat":35.48028,"lon":59.20561,"name":"Kameh","nameLocal":"کامه","type":"station"},{"id":246497514,"lat":40.27988,"lon":65.042,"name":"Kanimeh","nameLocal":"Канимех","type":"station"},{"id":245571471,"lat":39.50229,"lon":64.79161,"name":"Karaulbazar","nameLocal":"Қоровулбозор","type":"station"},{"id":8360946105,"lat":35.96918,"lon":59.21185,"name":"Kashmar","nameLocal":"کاشمر","type":"station"},{"id":1555221306,"lat":39.90245,"lon":66.24565,"name":"Kattaqo'rg'on","type":"station"},{"id":12373732549,"lat":39.86849,"lon":66.21186,"name":"Kattaqo'rg'on Yangi","type":"station"},{"id":9808631427,"lat":37.7894,"lon":65.93193,"name":"Kazarma","type":"station"},{"id":675672647,"lat":38.28652,"lon":57.7041,"name":"Kelete","type":"station"},{"id":8897270355,"lat":37.36356,"lon":66.31742,"name":"Kelif (Keleft)","type":"station"},{"id":2666729170,"lat":38.46598,"lon":65.79743,"name":"Kengsoy","type":"station"},{"id":8896042393,"lat":37.81676,"lon":65.17553,"name":"Kerki (Atamyrat)","type":"station"},{"id":3885994647,"lat":37.85118,"lon":65.24216,"name":"Kerkiçi","type":"station"},{"id":374804437,"lat":38.99044,"lon":58.51319,"name":"Kerwen","type":"station"},{"id":9104373406,"lat":41.46631,"lon":60.77076,"name":"Khanki","nameLocal":"Ханки","type":"station"},{"id":1584762273,"lat":42.49946,"lon":59.32088,"name":"Khatep","nameLocal":"Xatep","type":"station"},{"id":9104363613,"lat":41.31799,"lon":61.06624,"name":"Khazorasp trainsatiion","nameLocal":"Hazorasp Vagzal","type":"station"},{"id":5793725055,"lat":41.37715,"lon":60.3766,"name":"Khiva","nameLocal":"Xiva","type":"station"},{"id":3221981489,"lat":35.964,"lon":62.72717,"name":"Km 220","type":"station"},{"id":3109376919,"lat":42.29238,"lon":59.14288,"name":"Koneurgench","nameLocal":"Köneürgenç","type":"station"},{"id":4526176086,"lat":38.26495,"lon":66.61115,"name":"Koradahna","type":"station"},{"id":569035268,"lat":37.45215,"lon":59.45559,"name":"Kovshut station","nameLocal":"Gowşut stansiýasy","type":"station"},{"id":1584542559,"lat":37.52566,"lon":66.02502,"name":"Köýtendag","type":"station"},{"id":2470727000,"lat":40.26871,"lon":62.28041,"name":"Kükürty","type":"station"},{"id":3889208111,"lat":41.57744,"lon":54.33678,"name":"Kuwwat","type":"station"},{"id":1588286766,"lat":40.03149,"lon":64.85126,"name":"Kyzyltepa","nameLocal":"Qiziltepa","type":"station"},{"id":2047811478,"lat":42.16789,"lon":59.67763,"name":"Lawak","type":"station"},{"id":3188040450,"lat":41.02788,"lon":61.8507,"name":"Lebap","type":"station"},{"id":424474729,"lat":37.90568,"lon":58.37159,"name":"M1","type":"station"},{"id":424474728,"lat":37.90078,"lon":58.37492,"name":"M2","type":"station"},{"id":424474724,"lat":37.89963,"lon":58.37672,"name":"M3","type":"station"},{"id":435743633,"lat":37.90441,"lon":58.3794,"name":"M4","type":"station"},{"id":424474723,"lat":37.91028,"lon":58.38029,"name":"M5","type":"station"},{"id":424474730,"lat":37.9071,"lon":58.37714,"name":"M6","type":"station"},{"id":428893819,"lat":37.90854,"lon":58.37316,"name":"M7","type":"station"},{"id":424474722,"lat":37.90798,"lon":58.37054,"name":"M8","type":"station"},{"id":13438568179,"lat":38.14461,"lon":54.7142,"name":"Madaw","type":"station"},{"id":684207404,"lat":35.65496,"lon":52.69764,"name":"Mahabad","nameLocal":"مهاباد","type":"station"},{"id":8411445147,"lat":36.08699,"lon":60.46304,"name":"Makhtom Gholy","nameLocal":"مختوم قلی","type":"station"},{"id":8411484086,"lat":36.13028,"lon":60.61142,"name":"Marzdaran","nameLocal":"مرزداران","type":"station"},{"id":3886606914,"lat":42.2547,"lon":59.36048,"name":"Maslahat","type":"station"},{"id":1592345198,"lat":41.96872,"lon":63.43617,"name":"Maylisoy","nameLocal":"Майлисай","type":"station"},{"id":3884317652,"lat":41.64377,"lon":59.20586,"name":"Mian","type":"station"},{"id":2396470761,"lat":41.38014,"lon":61.2642,"name":"Miskin","type":"station"},{"id":3221370129,"lat":37.60351,"lon":61.93586,"name":"Mollanepes","type":"station"},{"id":1555439207,"lat":39.25516,"lon":65.15264,"name":"Mubarek","nameLocal":"Muborak","type":"station"},{"id":8896057139,"lat":37.59894,"lon":65.73258,"name":"Mukry","type":"station"},{"id":1588259331,"lat":39.70737,"lon":64.2802,"name":"Murgak","type":"station"},{"id":1591202781,"lat":41.52971,"lon":64.49547,"name":"Muruntov","type":"station"},{"id":12053000082,"lat":35.78575,"lon":59.13659,"name":"Namaki","nameLocal":"نمکی","type":"station"},{"id":1238436292,"lat":40.07288,"lon":65.3966,"name":"Navoi","nameLocal":"Navoiy","type":"station"},{"id":12492116324,"lat":40.07297,"lon":65.3963,"name":"Navoiy","type":"station"},{"id":1584776333,"lat":42.29612,"lon":59.55235,"name":"Naymankul","type":"station"},{"id":1592487779,"lat":42.36297,"lon":59.96509,"name":"Nazarxan","nameLocal":"Назархан","type":"station"},{"id":448465857,"lat":42.36271,"lon":59.96496,"name":"Nazarxon","nameLocal":"Назархан","type":"station"},{"id":1555410119,"lat":39.05906,"lon":65.88144,"name":"Nekuz","type":"station"},{"id":8914869673,"lat":36.65571,"lon":57.4195,"name":"Neqab","nameLocal":"ایستگاه قطار نقاب","type":"station"},{"id":8360946104,"lat":36.19478,"lon":58.78508,"name":"Neyshabur Railway Station","nameLocal":"ایستگاه راه‌ آهن نیشابور","type":"station"},{"id":1555523175,"lat":38.62596,"lon":65.69731,"name":"Nishan","nameLocal":"Nishon","type":"station"},{"id":12320449309,"lat":41.41121,"lon":63.95949,"name":"No 140","type":"station"},{"id":12320449195,"lat":41.50777,"lon":63.92943,"name":"No 141","type":"station"},{"id":1591120107,"lat":41.86418,"lon":63.817,"name":"No 142","type":"station"},{"id":12350948039,"lat":39.5335,"lon":64.6701,"name":"No 143","type":"station"},{"id":1586931900,"lat":39.43203,"lon":64.93462,"name":"No 145","type":"station"},{"id":1555456344,"lat":39.35063,"lon":65.06745,"name":"No 146","type":"station"},{"id":220232249,"lat":39.35079,"lon":65.06782,"name":"No 146","type":"station"},{"id":1555439184,"lat":39.11345,"lon":65.42887,"name":"No 148","type":"station"},{"id":12456420818,"lat":38.99503,"lon":65.67364,"name":"No 149","type":"station"},{"id":3792693385,"lat":38.35773,"lon":65.61245,"name":"No 154","type":"station"},{"id":12451325385,"lat":37.37745,"lon":66.5375,"name":"No 162","type":"station"},{"id":12170269583,"lat":41.32168,"lon":61.31763,"name":"№ 2 nazorat punkti","type":"station"},{"id":1553890540,"lat":39.77575,"lon":66.49309,"name":"No 23","type":"station"},{"id":1553902932,"lat":39.91607,"lon":66.13321,"name":"No 28","type":"station"},{"id":1553902942,"lat":39.91269,"lon":66.03301,"name":"No 29","type":"station"},{"id":1555385080,"lat":39.93739,"lon":65.83033,"name":"No 30","type":"station"},{"id":1555385089,"lat":39.97602,"lon":65.71987,"name":"No 31","type":"station"},{"id":1591258033,"lat":40.05894,"lon":65.59743,"name":"No 32","type":"station"},{"id":1591258026,"lat":40.06916,"lon":65.53205,"name":"No 33","type":"station"},{"id":1588286758,"lat":40.08056,"lon":65.19713,"name":"No 36","type":"station"},{"id":1588286774,"lat":40.06291,"lon":64.95121,"name":"No 38","type":"station"},{"id":1586949445,"lat":39.97893,"lon":64.76937,"name":"No 39","type":"station"},{"id":1597396473,"lat":39.85135,"lon":64.65859,"name":"No 41","type":"station"},{"id":1591203103,"lat":40.78009,"lon":64.51026,"name":"No139","type":"station"},{"id":1584776373,"lat":42.43771,"lon":59.64289,"name":"Nókis","type":"station"},{"id":6257635515,"lat":36.61011,"lon":53.21002,"name":"Noobakht","nameLocal":"شهید نوبخت","type":"station"},{"id":1553902915,"lat":39.74475,"lon":66.39633,"name":"Nurbulak","nameLocal":"Nurbuloq","type":"station"},{"id":3884323307,"lat":41.14317,"lon":58.60587,"name":"Oguzabat","type":"station"},{"id":2632812048,"lat":37.34179,"lon":61.09313,"name":"Oguzhan","type":"station"},{"id":1588243859,"lat":39.41216,"lon":63.79684,"name":"Olot","type":"station"},{"id":2700992323,"lat":38.12413,"lon":58.36271,"name":"Owadan Depe","type":"station"},{"id":2632812120,"lat":37.51387,"lon":61.03084,"name":"Parahat","type":"station"},{"id":3889214463,"lat":41.74245,"lon":54.21892,"name":"Parahat","type":"station"},{"id":5162991974,"lat":36.26278,"lon":59.61418,"name":"Parvin-e Etessami","nameLocal":"پروین اعتصامی","type":"station"},{"id":401822056,"lat":38.19104,"lon":64.51196,"name":"Pelwert","type":"station"},{"id":2001269626,"lat":38.31576,"lon":62.99557,"name":"Peshhi","nameLocal":"Peşhi","type":"station"},{"id":8411373719,"lat":37.18531,"lon":54.47125,"name":"Petroshimi","nameLocal":"پتروشیمی","type":"station"},{"id":672310957,"lat":41.21571,"lon":61.30838,"name":"Pitnak","type":"station"},{"id":684209769,"lat":36.11511,"lon":53.05624,"name":"Pol-e Sefid","nameLocal":"پل سفید","type":"station"},{"id":3889210530,"lat":41.91747,"lon":54.07195,"name":"Polatly","type":"station"},{"id":5164517834,"lat":36.46282,"lon":52.86311,"name":"Qaem Shahr","nameLocal":"قائمشهر","type":"station"},{"id":471717457,"lat":36.46302,"lon":52.86289,"name":"Qaem Shahr","nameLocal":"ایستگاه راه اهن قائمشهر","type":"station"},{"id":1586572214,"lat":38.82173,"lon":66.45777,"name":"Qamashi","type":"station"},{"id":1555410151,"lat":38.82106,"lon":65.77714,"name":"Qarshi","type":"station"},{"id":1555410134,"lat":38.92521,"lon":65.74478,"name":"Qashqadaryo","type":"station"},{"id":1591113488,"lat":41.60424,"lon":63.93623,"name":"Qizilquduq","nameLocal":"Кызылкудук","type":"station"},{"id":247314590,"lat":39.49635,"lon":63.84672,"name":"Qo'rako'l","type":"station"},{"id":1591203005,"lat":40.97788,"lon":64.38548,"name":"Qorakatta","nameLocal":"Каракатта","type":"station"},{"id":1592460082,"lat":42.10684,"lon":60.37905,"name":"Qorao'zak","nameLocal":"Караозек","type":"station"},{"id":12350948065,"lat":39.5042,"lon":64.72726,"name":"Qorovulbazar neft ombori","type":"station"},{"id":12350948058,"lat":39.51063,"lon":64.71457,"name":"Qorovulbazar neftni qayta ishlash zavodi","type":"station"},{"id":12350948075,"lat":39.50213,"lon":64.77462,"name":"Qorovulbozor-tovar","type":"station"},{"id":247312699,"lat":42.67978,"lon":59.75778,"name":"Qumshumgúl","type":"station"},{"id":1592345241,"lat":41.82888,"lon":62.99718,"name":"Qurali","nameLocal":"Куралы","type":"station"},{"id":684205488,"lat":36.6562,"lon":53.2895,"name":"Railway Station Of Neka","nameLocal":"ایستگاه راه آهن نکا","type":"station"},{"id":2719024516,"lat":39.55647,"lon":54.28091,"name":"Razdelnaya 123","type":"station"},{"id":627111685,"lat":38.1969,"lon":62.89108,"name":"Razyezd № 57","type":"station"},{"id":1584542557,"lat":37.36413,"lon":66.42212,"name":"Razyezd No. 161","type":"station"},{"id":3221868779,"lat":38.56229,"lon":63.17737,"name":"Repetek","type":"station"},{"id":8411454881,"lat":36.0785,"lon":60.23299,"name":"Robat Mahi","nameLocal":"رباط ماهی","type":"station"},{"id":8411528192,"lat":36.18337,"lon":60.81937,"name":"Robat Sharaf","nameLocal":"رباط شرف","type":"station"},{"id":11752239419,"lat":36.68718,"lon":53.41237,"name":"Rostamkola","nameLocal":"ابستگاه راه آهن رستمکلا","type":"station"},{"id":205651306,"lat":40.80493,"lon":58.43775,"name":"Ruhnama","type":"station"},{"id":150984975,"lat":38.25618,"lon":58.4688,"name":"Ruhybelent","type":"station"},{"id":8165100168,"lat":35.39433,"lon":59.27456,"name":"Rukh","nameLocal":"رخ","type":"station"},{"id":3883327243,"lat":38.13799,"lon":58.21594,"name":"Rzd. No 1","type":"station"},{"id":1187827845,"lat":38.49959,"lon":57.32978,"name":"Rzd. No 100","type":"station"},{"id":3883321423,"lat":38.78015,"lon":56.71124,"name":"Rzd. No 105","type":"station"},{"id":3883318357,"lat":38.93331,"lon":56.42109,"name":"Rzd. No 108","type":"station"},{"id":3883144727,"lat":39.1188,"lon":55.8693,"name":"Rzd. No 112","type":"station"},{"id":2718798393,"lat":39.71968,"lon":54.19579,"name":"Rzd. No 124","type":"station"},{"id":2465558926,"lat":40.00702,"lon":53.01996,"name":"Rzd. No 132","type":"station"},{"id":1555523201,"lat":38.14659,"lon":65.50266,"name":"Rzd. No 155","type":"station"},{"id":1584542558,"lat":37.44438,"lon":66.1723,"name":"Rzd. No 160","type":"station"},{"id":3885821435,"lat":40.67874,"lon":62.01269,"name":"Rzd. No 174","type":"station"},{"id":1585869746,"lat":41.15549,"lon":61.49913,"name":"Rzd. No 176","type":"station"},{"id":3886257529,"lat":42.01384,"lon":59.8313,"name":"Rzd. No 178","type":"station"},{"id":3885156287,"lat":35.33893,"lon":62.40314,"name":"Rzd. No 199","type":"station"},{"id":374918480,"lat":40.02566,"lon":58.40482,"name":"Rzd. No 2","type":"station"},{"id":205651303,"lat":40.9567,"lon":58.52968,"name":"Rzd. No 4","type":"station"},{"id":1588243852,"lat":39.25793,"lon":63.67705,"name":"Rzd. No 48","type":"station"},{"id":3884321155,"lat":41.32578,"lon":58.73114,"name":"Rzd. No 5","type":"station"},{"id":3885349297,"lat":38.42809,"lon":63.10827,"name":"Rzd. No 54","type":"station"},{"id":3221378144,"lat":37.61725,"lon":62.03076,"name":"Rzd. No 64","type":"station"},{"id":3221362751,"lat":37.61687,"lon":61.75391,"name":"Rzd. No 66","type":"station"},{"id":2632812364,"lat":37.5583,"lon":61.08421,"name":"Rzd. No 69","type":"station"},{"id":3884581999,"lat":37.22421,"lon":60.1362,"name":"Rzd. No 76","type":"station"},{"id":3884580223,"lat":37.2086,"lon":59.89295,"name":"Rzd. No 79","type":"station"},{"id":577870093,"lat":37.29633,"lon":59.69182,"name":"Rzd. No 80","type":"station"},{"id":1187987196,"lat":38.24694,"lon":57.79471,"name":"Rzd. No 96","type":"station"},{"id":3883322921,"lat":38.33462,"lon":57.61118,"name":"Rzd. No 97","type":"station"},{"id":7659925527,"lat":38.65221,"lon":56.98689,"name":"Rzd. No. 103","type":"station"},{"id":205654048,"lat":40.48619,"lon":58.37182,"name":"Rzd. No. 5","type":"station"},{"id":835399921,"lat":37.47818,"lon":60.84429,"name":"Rzd. No. 72","type":"station"},{"id":3426301007,"lat":36.88679,"lon":54.21363,"name":"Sabz Dasht","nameLocal":"سبزدشت","type":"station"},{"id":8371063323,"lat":36.45032,"lon":58.08151,"name":"Sabzevar Railway Station","nameLocal":"ایستگاه راه آهن سبزوار","type":"station"},{"id":5162609081,"lat":36.33008,"lon":59.4929,"name":"Sadaf","nameLocal":"صدف","type":"station"},{"id":374917720,"lat":39.83239,"lon":58.41657,"name":"Sähra","type":"station"},{"id":205651301,"lat":41.58407,"lon":59.05675,"name":"Şamülki","type":"station"},{"id":3188128695,"lat":36.53829,"lon":62.55402,"name":"Sandykgaçy","type":"station"},{"id":3889214045,"lat":42.19875,"lon":53.84357,"name":"Şanly","type":"station"},{"id":2157556488,"lat":42.36505,"lon":58.8004,"name":"Saparmurat Turkmenbashy","nameLocal":"Saparmyrat Türkmenbaşy","type":"station"},{"id":2945785088,"lat":36.52846,"lon":61.19782,"name":"Sarahs","type":"station"},{"id":3849836297,"lat":36.47051,"lon":61.10471,"name":"Sarakhs","nameLocal":"سرخس","type":"station"},{"id":3188126161,"lat":36.46299,"lon":62.59359,"name":"Saryýazy","type":"station"},{"id":3883339843,"lat":41.65144,"lon":59.38408,"name":"Şasenem","type":"station"},{"id":6735414917,"lat":36.01877,"lon":53.04454,"name":"Savadkuh","nameLocal":"ایستگاه راه آهن سوادکوه","type":"station"},{"id":3885978840,"lat":38.72878,"lon":63.85599,"name":"Saýat","type":"station"},{"id":1585882935,"lat":41.11015,"lon":61.74531,"name":"Sazakly","type":"station"},{"id":3221948474,"lat":37.49216,"lon":61.97046,"name":"Semenik","type":"station"},{"id":8360946103,"lat":35.55255,"lon":53.40497,"name":"Semnan","nameLocal":"راه آهن سمنان","type":"station"},{"id":2945770452,"lat":35.28292,"lon":62.3443,"name":"Serhetabat","type":"station"},{"id":2398686424,"lat":42.27636,"lon":53.65532,"name":"Serhetýaka","type":"station"},{"id":1555439201,"lat":39.19144,"lon":65.26459,"name":"Serniy Zavod","nameLocal":"Серный Завод","type":"station"},{"id":9191743021,"lat":39.40951,"lon":62.88981,"name":"Seýdi","type":"station"},{"id":5162609065,"lat":36.32255,"lon":59.51703,"name":"Seyyed Razi","nameLocal":"سید رضی","type":"station"},{"id":679964489,"lat":35.1655,"lon":59.10002,"name":"Shadmehr Train Station","nameLocal":"ایستگاه قطار شادمهر","type":"station"},{"id":688670899,"lat":36.03012,"lon":59.81955,"name":"Shahid Motahary","nameLocal":"شهید مطهری","type":"station"},{"id":263264374,"lat":36.30456,"lon":59.62419,"name":"Shahid Raeisi Railway Station","nameLocal":"ایستگاه راه آهن شهید رئیسی مشهد","type":"station"},{"id":8364095070,"lat":36.40011,"lon":55.00121,"name":"Shahrud","nameLocal":"ایستگاه شاهرود","type":"station"},{"id":5162991969,"lat":36.2911,"lon":59.586,"name":"Shariati","nameLocal":"شریعتی","type":"station"},{"id":9808853340,"lat":37.67072,"lon":66.64445,"name":"Sherobod Sement","type":"station"},{"id":1586583046,"lat":38.70757,"lon":65.96258,"name":"Shoʻrtan","type":"station"},{"id":1584762220,"lat":42.60723,"lon":59.19994,"name":"Shumanay","nameLocal":"Shomanay","type":"station"},{"id":13389112423,"lat":35.52068,"lon":52.50133,"name":"Simindasht","nameLocal":"سیمین دشت","type":"station"},{"id":3222000778,"lat":37.12376,"lon":62.45001,"name":"Soltanbent","type":"station"},{"id":684206722,"lat":35.95427,"lon":53.00598,"name":"Sorkhabad","nameLocal":"سرخ آباد","type":"station"},{"id":5419099942,"lat":35.27117,"lon":52.87914,"name":"Sorkhdasht","nameLocal":"سرخ دشت","type":"halt"},{"id":12211522986,"lat":40.93254,"lon":62.56535,"name":"Sozakdar","type":"station"},{"id":3221986846,"lat":36.0136,"lon":62.71148,"name":"Tagtabazar","type":"station"},{"id":1584776336,"lat":42.26523,"lon":59.57933,"name":"Tahýadaş","type":"station"},{"id":1257213611,"lat":42.34678,"lon":59.56367,"name":"Takhiatash-Pristan","nameLocal":"Taqıyatas-Pristan","type":"station"},{"id":3221356253,"lat":37.27168,"lon":60.24557,"name":"Takyr","type":"station"},{"id":3221940422,"lat":37.40195,"lon":62.15574,"name":"Talhatanbaba","type":"station"},{"id":1555523192,"lat":38.27896,"lon":65.55886,"name":"Tallymerjen","type":"station"},{"id":1584776374,"lat":42.57619,"lon":59.72968,"name":"Taqırkól","type":"station"},{"id":449641302,"lat":42.5778,"lon":59.73109,"name":"Taqırkól","type":"station"},{"id":1586605162,"lat":38.67285,"lon":66.06764,"name":"Tashguzar","nameLocal":"Toshgʻuzor","type":"station"},{"id":915309675,"lat":37.3846,"lon":60.50057,"name":"Tejen","type":"station"},{"id":6479850747,"lat":35.95766,"lon":59.57481,"name":"Torbat Railway Station","nameLocal":"ایستگاه راه آهن تربت","type":"station"},{"id":7786409748,"lat":35.27389,"lon":59.30664,"name":"Torbat-e Heydarieh Railway Station","nameLocal":"ایستگاه راه آهن تربت حیدریه","type":"station"},{"id":1592362133,"lat":41.57059,"lon":61.03278,"name":"Tórtkúl","type":"station"},{"id":1586949432,"lat":39.91551,"lon":64.69456,"name":"Tudakul","nameLocal":"To'dako'l","type":"station"},{"id":8896035430,"lat":39.10264,"lon":63.57018,"name":"Türkmenabat","type":"station"},{"id":1588224382,"lat":39.09478,"lon":63.5375,"name":"Türkmenabat 2","type":"station"},{"id":2945761272,"lat":40.00374,"lon":52.99517,"name":"Türkmenbaşy","type":"station"},{"id":5684574273,"lat":40.3088,"lon":63.89103,"name":"Tuztepa","type":"station"},{"id":6477400925,"lat":40.66152,"lon":63.22075,"name":"Uchachik","type":"station"},{"id":1585865853,"lat":41.53642,"lon":60.63214,"name":"Urgench","nameLocal":"Ургенч","type":"station"},{"id":3889198322,"lat":40.13157,"lon":55.57517,"name":"Uzboý","type":"station"},{"id":3188145671,"lat":39.21018,"lon":55.71247,"name":"Uzunsuw","type":"station"},{"id":1815320196,"lat":35.90665,"lon":52.98577,"name":"Veresk","nameLocal":"ورسک","type":"station"},{"id":1584762347,"lat":42.40471,"lon":59.43666,"name":"Xojeli","type":"station"},{"id":245607832,"lat":38.98054,"lon":66.6733,"name":"Yakkabog'","nameLocal":"Yakkabogʻ","type":"station"},{"id":1588243893,"lat":39.64672,"lon":64.07132,"name":"Yakkatut","type":"station"},{"id":8410244690,"lat":36.95916,"lon":54.39612,"name":"Yampi","nameLocal":"یامپی","type":"station"},{"id":246454045,"lat":41.56799,"lon":64.172,"name":"Yangi Zarafshan","nameLocal":"Yangi Zarafshon","type":"station"},{"id":8228056715,"lat":40.02063,"lon":53.342,"name":"Ýaňyajy","type":"station"},{"id":3219289453,"lat":39.66976,"lon":55.92821,"name":"Ýasga","type":"station"},{"id":8895975402,"lat":37.76922,"lon":58.90076,"name":"Yashlyk","nameLocal":"Ýaşlyk","type":"station"},{"id":374806526,"lat":39.24253,"lon":58.55118,"name":"Ýerbent","type":"station"},{"id":12320654682,"lat":41.25879,"lon":64.12813,"name":"Yetimtov","type":"station"},{"id":3221978681,"lat":36.71551,"lon":62.45728,"name":"Ymambaba","type":"station"},{"id":9787590349,"lat":37.26311,"lon":65.22894,"name":"Ymamnazar","type":"station"},{"id":3188119986,"lat":37.2931,"lon":62.35451,"name":"Yoloten","nameLocal":"Ýolöten","type":"station"},{"id":1591224130,"lat":40.53356,"lon":64.7417,"name":"Zafarabad","nameLocal":"Zafarobod","type":"station"},{"id":3221379914,"lat":37.775,"lon":62.52962,"name":"Zähmet","type":"station"},{"id":13389112454,"lat":35.57097,"lon":52.60323,"name":"Zarindasht","nameLocal":"ایستگاه راه آهن زرین دشت","type":"station"},{"id":1584776360,"lat":42.06261,"lon":59.78346,"name":"Zarpçy","type":"station"},{"id":263420890,"lat":39.00229,"lon":63.55462,"name":"Zerger","type":"station"},{"id":1591258075,"lat":40.02788,"lon":65.65866,"name":"Ziadin","nameLocal":"Зиевуддин","type":"station"},{"id":684207872,"lat":36.17699,"lon":52.97111,"name":"Zirab","nameLocal":"ایستگاه راه آهن زیراب","type":"station"},{"id":1555385066,"lat":39.91603,"lon":65.92775,"name":"Zirabulak","nameLocal":"Зирабулак","type":"station"},{"id":6968062893,"lat":41.33805,"lon":61.53009,"name":"Акчука","type":"station"},{"id":2398686449,"lat":42.35099,"lon":53.50521,"name":"Бестортколь","type":"station"},{"id":4049889222,"lat":42.33011,"lon":53.67673,"name":"Болашақ","type":"station"},{"id":1592361777,"lat":41.75253,"lon":62.4709,"name":"Бузаубай","type":"station"},{"id":1555201267,"lat":39.62494,"lon":66.54427,"name":"Гумбаз","type":"station"},{"id":245560090,"lat":39.45825,"lon":66.30611,"name":"Джам","type":"station"},{"id":1555523181,"lat":38.4375,"lon":65.63129,"name":"Жайрон","type":"station"},{"id":2448739533,"lat":41.27231,"lon":61.17702,"name":"Истиклол","type":"station"},{"id":1083455223,"lat":39.72483,"lon":64.57633,"name":"Каган","type":"station"},{"id":12335025845,"lat":40.13649,"lon":65.21911,"name":"Кармана","type":"station"},{"id":1555439182,"lat":39.06388,"lon":65.57833,"name":"Касан","type":"station"},{"id":3740955456,"lat":42.26249,"lon":60.18612,"name":"Койбак","type":"station"},{"id":1588286752,"lat":40.07802,"lon":65.09388,"name":"Малик","type":"station"},{"id":6968062910,"lat":40.08535,"lon":64.09523,"name":"Машак","type":"station"},{"id":1591202866,"lat":41.17588,"lon":64.24035,"name":"Мустакиллик","type":"station"},{"id":1555260951,"lat":39.60533,"lon":66.28637,"name":"Нурабад","type":"station"},{"id":247261141,"lat":41.20794,"lon":61.33711,"name":"Питняк","type":"station"},{"id":7466446005,"lat":39.7072,"lon":64.49176,"name":"Разъезд № 43","type":"station"},{"id":3740987088,"lat":41.07422,"lon":64.33403,"name":"рзд. 306 км","type":"station"},{"id":9808631441,"lat":37.81624,"lon":66.03076,"name":"станция","type":"station"},{"id":2398686444,"lat":42.66078,"lon":53.31318,"name":"Тайгыр","type":"station"},{"id":12334354107,"lat":40.87738,"lon":64.4003,"name":"Таракиёт. рзд. 304 км","type":"station"},{"id":9112487713,"lat":41.23417,"lon":64.59074,"name":"Ташкура","type":"station"},{"id":246498193,"lat":40.08884,"lon":65.31986,"name":"Тинчлик","type":"station"},{"id":1555201245,"lat":39.54132,"lon":66.40712,"name":"Улус","type":"station"},{"id":1592211596,"lat":42.1175,"lon":63.65708,"name":"Учкудук","type":"station"},{"id":1592345175,"lat":42.0195,"lon":63.73282,"name":"Учкудук 2","type":"station"},{"id":1588243863,"lat":39.32728,"lon":63.74593,"name":"Ходжадавлет","type":"station"},{"id":1584776372,"lat":41.70716,"lon":60.27572,"name":"Шават","type":"station"},{"id":255653005,"lat":42.60705,"lon":59.19965,"name":"Шуманай","type":"station"},{"id":6477405847,"lat":39.85623,"lon":64.17102,"name":"Янгиабад","type":"station"},{"id":5419121298,"lat":35.54016,"lon":53.76359,"name":"ایستگاه آبگرم","type":"halt"},{"id":696516108,"lat":36.08575,"lon":58.99173,"name":"ایستگاه خیام","type":"station"},{"id":684207459,"lat":36.77477,"lon":53.95068,"name":"ایستگاه راه آهن بندر گز","type":"station"},{"id":684208967,"lat":36.72695,"lon":53.72457,"name":"ایستگاه راه آهن تیرتاش","type":"station"},{"id":962176436,"lat":36.60488,"lon":57.58414,"name":"ایستگاه راه آهن جوین","type":"station"},{"id":684208116,"lat":36.55274,"lon":53.05872,"name":"ایستگاه راه آهن ساری","type":"station"},{"id":1383639786,"lat":36.20765,"lon":57.71308,"name":"ایستگاه راه آهن سبزوار ( در حال ساخت )","type":"station"},{"id":695948954,"lat":36.75882,"lon":56.96313,"name":"ایستگاه راه آهن سنخواست","type":"station"},{"id":1346791484,"lat":36.29443,"lon":52.88826,"name":"ایستگاه راه آهن شیرگاه","type":"station"},{"id":3144516900,"lat":36.75867,"lon":56.96318,"name":"ایستگاه سنخواست","type":"station"},{"id":5419117641,"lat":35.57381,"lon":53.60299,"name":"ایستگاه میاندره","type":"halt"},{"id":684206415,"lat":36.84519,"lon":53.32079,"name":"بندر امیرآباد","type":"station"},{"id":6805219938,"lat":36.72549,"lon":57.17431,"name":"جوین","type":"station"},{"id":5419103653,"lat":35.32957,"lon":53.08342,"name":"لاهور","type":"halt"}]