[{"id":7080022790,"lat":42.96218,"lon":71.32766,"name":"14 км","type":"halt"},{"id":3885729051,"lat":39.53526,"lon":62.77248,"name":"170-nji duralga","type":"station"},{"id":7080029623,"lat":42.97611,"lon":71.29296,"name":"19 км","type":"halt"},{"id":7080061865,"lat":43.00984,"lon":71.20879,"name":"27 км","type":"halt"},{"id":7084733168,"lat":42.42914,"lon":68.968,"name":"3227 км ПК2","type":"halt"},{"id":7084746080,"lat":42.47897,"lon":70.39944,"name":"3392 км","type":"halt"},{"id":7082272878,"lat":42.48992,"lon":70.56512,"name":"3409 км","type":"halt"},{"id":7080052573,"lat":43.04074,"lon":71.10077,"name":"35 км","type":"halt"},{"id":3908302360,"lat":40.27492,"lon":72.0481,"name":"38 km","type":"station"},{"id":7080065606,"lat":43.06372,"lon":70.97818,"name":"41 км","type":"halt"},{"id":1555420594,"lat":38.72909,"lon":65.75628,"name":"4148 км","type":"station"},{"id":8328328365,"lat":39.75633,"lon":64.58769,"name":"42 temir yo'l raz`ezdi","type":"station"},{"id":12201416058,"lat":41.78024,"lon":60.12532,"name":"449 km","type":"station"},{"id":7070428807,"lat":42.28669,"lon":69.65118,"name":"5 км","type":"station"},{"id":696441314,"lat":38.83453,"lon":63.39929,"name":"50-nji razýezd","type":"station"},{"id":1591202601,"lat":41.5259,"lon":64.26292,"name":"51 km","type":"station"},{"id":696440302,"lat":38.67428,"lon":63.26837,"name":"51-nji razýezd","type":"station"},{"id":7080076450,"lat":43.09657,"lon":70.86736,"name":"56 км","type":"halt"},{"id":530973349,"lat":37.84076,"lon":62.59423,"name":"61-nji duralga","type":"station"},{"id":2422743053,"lat":43.15441,"lon":70.58988,"name":"80 км","type":"station"},{"id":3884567919,"lat":37.87045,"lon":58.67096,"name":"87-nji duralga","type":"station"},{"id":246835697,"lat":43.69639,"lon":57.81007,"name":"Abadan","type":"station"},{"id":1591158486,"lat":41.34617,"lon":64.01192,"name":"Adjibugut","type":"station"},{"id":573257079,"lat":40.90678,"lon":69.65243,"name":"Ahangaran","nameLocal":"Ohangaron","type":"station"},{"id":1588746841,"lat":40.45659,"lon":71.75166,"name":"Ahunbabaev","nameLocal":"Oxunboboyev","type":"station"},{"id":695496119,"lat":41.26982,"lon":69.26579,"name":"Airport","nameLocal":"Aeroport","type":"station"},{"id":1583678274,"lat":43.52217,"lon":57.96062,"name":"Ájiniyaz","type":"station"},{"id":1545604251,"lat":40.60518,"lon":68.7313,"name":"Akaltyn","nameLocal":"Oqoltin","type":"station"},{"id":12875051024,"lat":40.93098,"lon":69.84861,"name":"Akcha","type":"station"},{"id":9787590343,"lat":37.22083,"lon":65.24289,"name":"Akinah","type":"station"},{"id":2205273978,"lat":41.41551,"lon":69.52065,"name":"Akkavak","nameLocal":"Oqqovoq","type":"station"},{"id":374916158,"lat":39.50163,"lon":58.48099,"name":"Akmaýanyň Ýoly","type":"station"},{"id":565003269,"lat":37.72572,"lon":59.00795,"name":"Aksuv station","nameLocal":"Aksuw stansiýasy","type":"station"},{"id":3788871522,"lat":42.98895,"lon":72.10581,"name":"Akyrtobe","nameLocal":"Ақыртөбе","type":"station"},{"id":7661147183,"lat":40.79077,"lon":62.88909,"name":"Alabuga","type":"station"},{"id":1555266196,"lat":39.19932,"lon":66.04839,"name":"Alato'n","type":"station"},{"id":2241548839,"lat":40.96237,"lon":68.85856,"name":"Almazar","nameLocal":"Olmazor","type":"station"},{"id":1583790673,"lat":42.83112,"lon":58.99803,"name":"Altinkul","nameLocal":"Altınkól","type":"station"},{"id":3221948990,"lat":37.53605,"lon":61.87946,"name":"Altyn Asyr","type":"station"},{"id":205651302,"lat":41.46841,"lon":58.80655,"name":"Altyn Kol","nameLocal":"Altyn köl","type":"station"},{"id":3187132672,"lat":38.52272,"lon":58.50699,"name":"Altyn Menzil","type":"station"},{"id":12331105709,"lat":41.29743,"lon":64.23482,"name":"Amantaytov","type":"station"},{"id":12448326576,"lat":37.20351,"lon":67.79467,"name":"Amu-Zang","type":"station"},{"id":3145081581,"lat":37.88531,"lon":65.24965,"name":"Amyderýa","type":"station"},{"id":296078271,"lat":40.76334,"lon":72.35054,"name":"Andijon 1","type":"station"},{"id":1588664348,"lat":40.81407,"lon":72.35549,"name":"Andijon 2","type":"station"},{"id":304753099,"lat":40.75656,"lon":72.44768,"name":"Andijon-Janubiy","type":"station"},{"id":1588654125,"lat":40.70548,"lon":72.27537,"name":"Andijon-Shimoliy","type":"station"},{"id":8896008349,"lat":37.91185,"lon":58.49979,"name":"Änew","type":"station"},{"id":1412998292,"lat":40.99897,"lon":70.08292,"name":"Angren","type":"station"},{"id":2528990876,"lat":41.01889,"lon":70.13671,"name":"Angren","type":"station"},{"id":1583651502,"lat":44.53371,"lon":56.58667,"name":"Aq-Tóbe","type":"station"},{"id":1212920520,"lat":41.50483,"lon":69.62008,"name":"Aranchi","nameLocal":"Oronchi","type":"station"},{"id":2281742610,"lat":41.52855,"lon":69.65025,"name":"Aranchi","nameLocal":"Oronchi","type":"station"},{"id":2980026242,"lat":38.59118,"lon":57.13024,"name":"Archman","nameLocal":"Arçman","type":"station"},{"id":12435265071,"lat":37.69032,"lon":67.49282,"name":"Arlyaki","type":"halt"},{"id":583473452,"lat":37.24958,"lon":59.79131,"name":"Armansagat station","nameLocal":"Armansagat stansiýasy","type":"station"},{"id":566224361,"lat":37.54922,"lon":59.32619,"name":"Artyk station","nameLocal":"Artyk stansiýasy","type":"station"},{"id":3788752163,"lat":43.032,"lon":71.14995,"name":"Asa","nameLocal":"Аса","type":"station"},{"id":8895975404,"lat":37.94322,"lon":58.3961,"name":"Ashgabat","nameLocal":"Aşgabat","type":"station"},{"id":1588631402,"lat":40.65515,"lon":72.206,"name":"Assake","nameLocal":"Asaka","type":"station"},{"id":304200676,"lat":44.12433,"lon":57.26509,"name":"Ayapbergen","type":"station"},{"id":1555201288,"lat":39.35749,"lon":66.19657,"name":"Ayritom","type":"station"},{"id":6968062895,"lat":40.50667,"lon":63.63119,"name":"Azanir","type":"station"},{"id":3885992911,"lat":37.77411,"lon":65.33524,"name":"Azatlyk","type":"station"},{"id":3883328971,"lat":38.08614,"lon":58.14376,"name":"Babarap","type":"station"},{"id":1285981032,"lat":42.02207,"lon":60.44655,"name":"Baday","nameLocal":"Badai","type":"station"},{"id":12179911358,"lat":41.38517,"lon":60.90253,"name":"Bagat","nameLocal":"Bog'ot","type":"station"},{"id":8896037632,"lat":38.08976,"lon":62.80316,"name":"Bagtyyarlyk","nameLocal":"Bagtyýarlyk (Üçaji)","type":"station"},{"id":275232562,"lat":38.4341,"lon":57.43159,"name":"Baherden","nameLocal":"Bäherden","type":"station"},{"id":12436906624,"lat":37.33978,"lon":67.3856,"name":"Baktriya","type":"station"},{"id":274970840,"lat":38.92357,"lon":63.47548,"name":"Balhana","type":"station"},{"id":275214357,"lat":38.72866,"lon":56.80478,"name":"Bamy","type":"station"},{"id":2985537230,"lat":41.56992,"lon":69.73162,"name":"Barraj","type":"station"},{"id":1583713629,"lat":43.35006,"lon":58.08189,"name":"Barsa-kelmes","type":"station"},{"id":1545604240,"lat":40.71097,"lon":68.69888,"name":"Baxt","type":"station"},{"id":1596543477,"lat":38.10454,"lon":67.19883,"name":"Baysun","nameLocal":"Boysun","type":"station"},{"id":8343551105,"lat":40.21465,"lon":69.22834,"name":"Bekobod","type":"station"},{"id":8895996369,"lat":37.64039,"lon":59.14085,"name":"Berkarar","type":"station"},{"id":530969630,"lat":37.95218,"lon":62.66203,"name":"Berkarar (Çygaji)","type":"station"},{"id":4910917969,"lat":41.98296,"lon":60.6273,"name":"Beruniy-1","type":"station"},{"id":8328307366,"lat":40.08063,"lon":65.28476,"name":"Binokor","nameLocal":"Бинокор","type":"station"},{"id":1584542556,"lat":37.40157,"lon":66.73066,"name":"Boldir","type":"station"},{"id":3788745560,"lat":42.6218,"lon":70.77035,"name":"Borandy station","nameLocal":"Боранды","type":"station"},{"id":1583651503,"lat":44.4079,"lon":56.79671,"name":"Bostan","type":"station"},{"id":3188028875,"lat":39.20156,"lon":63.30063,"name":"Boýnuzyn","type":"station"},{"id":1545611977,"lat":40.44158,"lon":68.78119,"name":"Boyovut","type":"station"},{"id":2205274013,"lat":41.44631,"lon":69.57539,"name":"Bozsu","nameLocal":"Bo‘zsuv","type":"station"},{"id":8328285677,"lat":39.72225,"lon":64.54861,"name":"Bukhara 1","nameLocal":"Buxoro 1","type":"station"},{"id":1588259351,"lat":39.75114,"lon":64.46354,"name":"Bukhara 2","nameLocal":"Buxoro 2","type":"station"},{"id":8336380506,"lat":39.76366,"lon":67.26693,"name":"Bulungʻur","type":"station"},{"id":3886004619,"lat":37.73379,"lon":65.40928,"name":"Burguchy","nameLocal":"Burguçy","type":"station"},{"id":1592361923,"lat":41.4418,"lon":61.5076,"name":"Burgutli","nameLocal":"Бургутли","type":"station"},{"id":3788754833,"lat":42.93477,"lon":71.39585,"name":"Buryl station","nameLocal":"Бурыл","type":"station"},{"id":295841333,"lat":40.68938,"lon":71.04836,"name":"Buvayda","type":"station"},{"id":3188137295,"lat":38.10263,"lon":58.08036,"name":"Büzmeýin","type":"station"},{"id":5882021285,"lat":41.07721,"lon":70.6941,"name":"Chadak","nameLocal":"Chodak","type":"station"},{"id":12578942824,"lat":40.24372,"lon":67.94294,"name":"Chamanzar","nameLocal":"Chamanzor","type":"station"},{"id":1646616368,"lat":38.2984,"lon":66.69302,"name":"Chashmaihafizon","type":"station"},{"id":3788770727,"lat":43.57505,"lon":69.98516,"name":"Chebakti","nameLocal":"Чебакты","type":"station"},{"id":1592460694,"lat":42.92225,"lon":59.81457,"name":"Chimbay","nameLocal":"Shımbay","type":"station"},{"id":12618008915,"lat":41.62404,"lon":69.93762,"name":"Chinarkent","nameLocal":"Chinorkent","type":"station"},{"id":2173166179,"lat":40.94658,"lon":68.75104,"name":"Chinaz","nameLocal":"Chinoz","type":"station"},{"id":1227748147,"lat":41.4789,"lon":69.59775,"name":"Chirchik","nameLocal":"Чирчик","type":"station"},{"id":295848559,"lat":41.07287,"lon":71.82256,"name":"Chortoq","type":"station"},{"id":2203073383,"lat":41.37556,"lon":69.24548,"name":"Chukursay (Shumilov)","nameLocal":"Chuqursoy","type":"station"},{"id":1587386149,"lat":40.88292,"lon":71.24122,"name":"Chust","type":"station"},{"id":8324415481,"lat":41.19277,"lon":69.11835,"name":"Daliguzar","nameLocal":"Daliguz'or","type":"station"},{"id":1590421642,"lat":39.26537,"lon":63.15526,"name":"Danev","nameLocal":"Dänew","type":"station"},{"id":1598983780,"lat":38.17593,"lon":67.03508,"name":"Darband","type":"station"},{"id":3221918126,"lat":40.48998,"lon":62.12742,"name":"Darganata","type":"station"},{"id":5658728026,"lat":41.84984,"lon":59.97675,"name":"Dashoguz","nameLocal":"Daşoguz","type":"station"},{"id":1586583051,"lat":38.77183,"lon":65.84701,"name":"Dasht","type":"station"},{"id":1546816307,"lat":40.13325,"lon":68.4984,"name":"Dashtabad","nameLocal":"Dashtobod","type":"station"},{"id":3886020849,"lat":37.6719,"lon":65.60389,"name":"Daşrabat","type":"station"},{"id":5455046834,"lat":41.20966,"lon":61.92258,"name":"Dáwtóbe","type":"station"},{"id":1646608148,"lat":38.34709,"lon":66.43571,"name":"Dehkanabad","nameLocal":"Dehqonobod","type":"station"},{"id":245671270,"lat":38.27216,"lon":67.90639,"name":"Denow","nameLocal":"Denov","type":"station"},{"id":4905872782,"lat":37.78345,"lon":67.54317,"name":"Dhalair","type":"halt"},{"id":1592361848,"lat":41.63319,"lon":62.0525,"name":"Do`nglik","nameLocal":"Дунгулюк","type":"station"},{"id":3221364651,"lat":37.61988,"lon":61.29227,"name":"Dörtguýy","type":"station"},{"id":3886602157,"lat":42.27485,"lon":59.26753,"name":"Dostluk","type":"station"},{"id":2156280927,"lat":40.64767,"lon":58.40242,"name":"Dueli","nameLocal":"Düýeli","type":"station"},{"id":8895992845,"lat":37.20059,"lon":60.03144,"name":"Dushak","nameLocal":"Duşak","type":"station"},{"id":252791512,"lat":38.55671,"lon":68.79973,"name":"Dushanbe Train Station","nameLocal":"Вокзали роҳи оҳани Душанбе","type":"station"},{"id":8335637354,"lat":40.52357,"lon":68.04076,"name":"Dustlik","nameLocal":"Дустлик","type":"station"},{"id":449118457,"lat":37.94335,"lon":67.71755,"name":"Elbayon","type":"station"},{"id":12168389403,"lat":41.75963,"lon":60.85699,"name":"Ellikqala","type":"station"},{"id":231190487,"lat":41.75985,"lon":60.8574,"name":"Ellikqala","type":"station"},{"id":12430518727,"lat":37.87767,"lon":67.63011,"name":"Elobod","type":"halt"},{"id":2197208283,"lat":41.22698,"lon":69.17853,"name":"Erkin","type":"station"},{"id":449118430,"lat":37.47769,"lon":67.40112,"name":"Etimshak","type":"halt"},{"id":1588243848,"lat":39.1694,"lon":63.601,"name":"Farap","type":"station"},{"id":8343443849,"lat":40.2245,"lon":69.07121,"name":"Farhod","type":"station"},{"id":299428601,"lat":40.39511,"lon":71.75479,"name":"Fergana 1","nameLocal":"Farg‘ona 1","type":"station"},{"id":1588631180,"lat":40.38813,"lon":71.80808,"name":"Fergana 2","nameLocal":"Farg‘ona 2","type":"station"},{"id":246197715,"lat":40.45788,"lon":71.21225,"name":"Furqoat","type":"station"},{"id":3188036698,"lat":39.76824,"lon":62.52918,"name":"Gabakly","type":"station"},{"id":1585384089,"lat":37.25328,"lon":67.38905,"name":"Galaba","nameLocal":"G'alaba","type":"station"},{"id":3188031346,"lat":39.31495,"lon":62.99626,"name":"Galkynyş","type":"station"},{"id":8338343431,"lat":40.03289,"lon":67.5883,"name":"Gallaaral","nameLocal":"Gʻallaorol","type":"station"},{"id":3221933028,"lat":38.44387,"lon":64.08055,"name":"Garabekewül","type":"station"},{"id":374833316,"lat":38.71143,"lon":58.49505,"name":"Garagum","type":"station"},{"id":530975491,"lat":38.74397,"lon":63.32519,"name":"Garawulguyy","nameLocal":"Garawülguýy","type":"station"},{"id":3221365881,"lat":37.62101,"lon":61.56356,"name":"Garybata","type":"station"},{"id":581729133,"lat":37.82993,"lon":58.75168,"name":"Gavers Station","nameLocal":"Gäwers stansiýasy","type":"station"},{"id":1227744897,"lat":41.56795,"lon":69.77267,"name":"Gazalkent","nameLocal":"Gʻazalkent","type":"station"},{"id":222672525,"lat":41.56792,"lon":69.77266,"name":"Gazalkent","nameLocal":"Gʻazalkent","type":"station"},{"id":3145091074,"lat":41.19734,"lon":61.40063,"name":"Gazojak","type":"station"},{"id":3883363583,"lat":41.72319,"lon":59.92979,"name":"Gerogly","nameLocal":"Görogly","type":"station"},{"id":245595661,"lat":38.63471,"lon":66.25712,"name":"Gʻuzor","type":"station"},{"id":3188022666,"lat":38.86229,"lon":56.55938,"name":"Goç","type":"station"},{"id":1187987268,"lat":38.15995,"lon":57.96547,"name":"Gokdepe","nameLocal":"Gökdepe","type":"station"},{"id":3221364208,"lat":37.45417,"lon":60.74252,"name":"Göksüýri","type":"station"},{"id":3886246584,"lat":42.06606,"lon":59.9683,"name":"Gubadag","type":"station"},{"id":4528661445,"lat":37.47384,"lon":64.97763,"name":"Gulistan","type":"station"},{"id":8343551120,"lat":40.49612,"lon":68.76461,"name":"Gulistan","nameLocal":"Guliston","type":"station"},{"id":3221374451,"lat":37.68788,"lon":62.35234,"name":"Gurbangala","type":"station"},{"id":8910635472,"lat":41.74801,"lon":59.62516,"name":"Gurbansoltan eje","type":"station"},{"id":13190564919,"lat":41.90022,"lon":60.30599,"name":"Gurlan Temir Yo'l Vokzali","type":"station"},{"id":1594361497,"lat":40.72167,"lon":72.64239,"name":"Guruchmozor","type":"station"},{"id":2700790542,"lat":37.99878,"lon":58.30484,"name":"Gypjak","type":"station"},{"id":8241606910,"lat":38.97944,"lon":56.27327,"name":"Gyzylarbat","type":"station"},{"id":9014392563,"lat":37.21493,"lon":67.41928,"name":"Hairitan","nameLocal":"حیرتان","type":"station"},{"id":8896042774,"lat":38.05865,"lon":64.86585,"name":"Halach","nameLocal":"Halaç","type":"station"},{"id":3188035616,"lat":40.07651,"lon":62.37358,"name":"Halkabat","type":"station"},{"id":8321719332,"lat":41.26747,"lon":69.30703,"name":"Hamza","type":"station"},{"id":300134664,"lat":40.91936,"lon":72.13421,"name":"Haqqulobod","type":"station"},{"id":205657042,"lat":40.19505,"lon":58.38801,"name":"Ichoguz","nameLocal":"Içoguz","type":"station"},{"id":8432496987,"lat":40.13464,"lon":70.6231,"name":"Isfara","nameLocal":"Исфара","type":"station"},{"id":12205233198,"lat":41.07653,"lon":62.23318,"name":"Jakasay","type":"station"},{"id":1212935883,"lat":41.17657,"lon":69.26034,"name":"Jaloir","type":"station"},{"id":8336333503,"lat":39.69851,"lon":67.09766,"name":"Jambay","nameLocal":"Jomboy","type":"station"},{"id":1214675519,"lat":41.35964,"lon":69.26542,"name":"Jami","nameLocal":"Jomiy","type":"station"},{"id":3188139229,"lat":39.02746,"lon":56.13424,"name":"Janahyr","type":"station"},{"id":4025962074,"lat":43.90053,"lon":67.24668,"name":"Jañaqorğan","nameLocal":"Жаңақорған","type":"station"},{"id":4526226152,"lat":38.39019,"lon":66.32159,"name":"jarkuduk","nameLocal":"Jarquduq","type":"station"},{"id":1584496330,"lat":37.50131,"lon":67.40467,"name":"Jarqo'rg'on","type":"station"},{"id":246831930,"lat":43.97163,"lon":57.48974,"name":"Jaslyk","nameLocal":"Jaslıq","type":"station"},{"id":662679837,"lat":40.76069,"lon":68.33605,"name":"Jetysai","nameLocal":"Жетысай","type":"station"},{"id":8327788744,"lat":40.09821,"lon":67.84245,"name":"Jizzakh","nameLocal":"Jizzax","type":"station"},{"id":1553581402,"lat":40.11654,"lon":67.89001,"name":"Jizzax 2","type":"station"},{"id":2094286214,"lat":41.72137,"lon":69.01751,"name":"Jılğa","nameLocal":"Жылға","type":"station"},{"id":1553880999,"lat":39.71592,"lon":66.66403,"name":"Juma","type":"station"},{"id":1954455058,"lat":42.05907,"lon":60.2394,"name":"Jumırtaw","type":"station"},{"id":1134060172,"lat":41.37364,"lon":69.42296,"name":"Kadyriya","nameLocal":"Qodiriya","type":"station"},{"id":8328613409,"lat":39.72498,"lon":64.57668,"name":"Kagan","type":"station"},{"id":1646601687,"lat":38.53787,"lon":66.12271,"name":"Kajirma","type":"station"},{"id":8896009275,"lat":37.34395,"lon":59.61795,"name":"Kaka","type":"station"},{"id":246197713,"lat":40.48121,"lon":71.04685,"name":"Kakir","nameLocal":"Qaqir","type":"station"},{"id":246497514,"lat":40.27988,"lon":65.042,"name":"Kanimeh","nameLocal":"Канимех","type":"station"},{"id":4979868363,"lat":44.76617,"lon":56.19454,"name":"Karakalpakstan","nameLocal":"Qaraqalpaqstan","type":"station"},{"id":1478894572,"lat":40.91226,"lon":69.78643,"name":"Karakhtay","nameLocal":"Qaraxtay","type":"station"},{"id":1124471576,"lat":41.59856,"lon":69.86838,"name":"Karankul","nameLocal":"Qoronqul","type":"station"},{"id":299465979,"lat":40.71086,"lon":72.87918,"name":"Karasu-Uzbekskiy","nameLocal":"Карасу-Узбекский","type":"station"},{"id":245571471,"lat":39.50229,"lon":64.79161,"name":"Karaulbazar","nameLocal":"Қоровулбозор","type":"station"},{"id":1555221306,"lat":39.90245,"lon":66.24565,"name":"Kattaqo'rg'on","type":"station"},{"id":12373732549,"lat":39.86849,"lon":66.21186,"name":"Kattaqo'rg'on Yangi","type":"station"},{"id":9808631427,"lat":37.7894,"lon":65.93193,"name":"Kazarma","type":"station"},{"id":2201442488,"lat":41.40683,"lon":69.2059,"name":"Keles","type":"station"},{"id":675672647,"lat":38.28652,"lon":57.7041,"name":"Kelete","type":"station"},{"id":8897270355,"lat":37.36356,"lon":66.31742,"name":"Kelif (Keleft)","type":"station"},{"id":2666729170,"lat":38.46598,"lon":65.79743,"name":"Kengsoy","type":"station"},{"id":8896042393,"lat":37.81676,"lon":65.17553,"name":"Kerki (Atamyrat)","type":"station"},{"id":3885994647,"lat":37.85118,"lon":65.24216,"name":"Kerkiçi","type":"station"},{"id":374804437,"lat":38.99044,"lon":58.51319,"name":"Kerwen","type":"station"},{"id":304534916,"lat":40.80373,"lon":72.97348,"name":"Khanabad","nameLocal":"Xonobod","type":"station"},{"id":9104373406,"lat":41.46631,"lon":60.77076,"name":"Khanki","nameLocal":"Ханки","type":"station"},{"id":1584762273,"lat":42.49946,"lon":59.32088,"name":"Khatep","nameLocal":"Xatep","type":"station"},{"id":3893904713,"lat":37.8522,"lon":68.87196,"name":"Khation","nameLocal":"Хатлон","type":"station"},{"id":1545661674,"lat":40.21071,"lon":68.83597,"name":"Khavast","nameLocal":"Xovos","type":"station"},{"id":9104363613,"lat":41.31799,"lon":61.06624,"name":"Khazorasp trainsatiion","nameLocal":"Hazorasp Vagzal","type":"station"},{"id":5793725055,"lat":41.37715,"lon":60.3766,"name":"Khiva","nameLocal":"Xiva","type":"station"},{"id":1124471506,"lat":41.61759,"lon":69.91722,"name":"Khojikent","nameLocal":"Xo'jakent","type":"station"},{"id":1587275101,"lat":40.22516,"lon":69.72895,"name":"Khujand","nameLocal":"Хуҷанд","type":"station"},{"id":245607879,"lat":39.0903,"lon":66.83731,"name":"Kitab","nameLocal":"Kitob","type":"station"},{"id":1587385859,"lat":40.51896,"lon":70.92841,"name":"Kokand 1","nameLocal":"Qoʻqon 1","type":"station"},{"id":4521144431,"lat":40.97627,"lon":70.74468,"name":"Kon","type":"station"},{"id":3109376919,"lat":42.29238,"lon":59.14288,"name":"Koneurgench","nameLocal":"Köneürgenç","type":"station"},{"id":4526176086,"lat":38.26495,"lon":66.61115,"name":"Koradahna","type":"station"},{"id":569035268,"lat":37.45215,"lon":59.45559,"name":"Kovshut station","nameLocal":"Gowşut stansiýasy","type":"station"},{"id":1584542559,"lat":37.52566,"lon":66.02502,"name":"Köýtendag","type":"station"},{"id":1212942959,"lat":41.01281,"lon":69.2354,"name":"Kuchlyuk","nameLocal":"Kuchluk","type":"station"},{"id":3613544821,"lat":38.40464,"lon":68.0618,"name":"Kudukli","type":"station"},{"id":2470727000,"lat":40.26871,"lon":62.28041,"name":"Kükürty","type":"station"},{"id":3893900430,"lat":37.89196,"lon":69.77581,"name":"Kulob Train Station","nameLocal":"Кӯлоб","type":"station"},{"id":1584517037,"lat":37.83432,"lon":67.59147,"name":"Kumkurgan","nameLocal":"Qumqo‘rg‘on","type":"station"},{"id":1583746274,"lat":43.04077,"lon":58.84135,"name":"Kungrad","nameLocal":"Qon'ırat","type":"station"},{"id":1583713687,"lat":43.10975,"lon":58.34802,"name":"Kunxoja","type":"station"},{"id":1583713656,"lat":43.1502,"lon":58.2068,"name":"Kyrykkyz","nameLocal":"Qırıqqız","type":"station"},{"id":8491994152,"lat":40.25828,"lon":72.11975,"name":"Kyzyl-Kiya","nameLocal":"Кызыл-Кия","type":"station"},{"id":4029732481,"lat":44.85473,"lon":65.49539,"name":"Kyzylorda","nameLocal":"Қызылорда","type":"station"},{"id":1588286766,"lat":40.03149,"lon":64.85126,"name":"Kyzyltepa","nameLocal":"Qiziltepa","type":"station"},{"id":1553853810,"lat":39.93648,"lon":67.45198,"name":"Lalmikor","type":"station"},{"id":2047811478,"lat":42.16789,"lon":59.67763,"name":"Lawak","type":"station"},{"id":3188040450,"lat":41.02788,"lon":61.8507,"name":"Lebap","type":"station"},{"id":4030109523,"lat":42.94598,"lon":72.7473,"name":"Lugovoy","nameLocal":"Луговой","type":"station"},{"id":424474729,"lat":37.90568,"lon":58.37159,"name":"M1","type":"station"},{"id":424474728,"lat":37.90078,"lon":58.37492,"name":"M2","type":"station"},{"id":424474724,"lat":37.89963,"lon":58.37672,"name":"M3","type":"station"},{"id":435743633,"lat":37.90441,"lon":58.3794,"name":"M4","type":"station"},{"id":424474723,"lat":37.91028,"lon":58.38029,"name":"M5","type":"station"},{"id":424474730,"lat":37.9071,"lon":58.37714,"name":"M6","type":"station"},{"id":428893819,"lat":37.90854,"lon":58.37316,"name":"M7","type":"station"},{"id":424474722,"lat":37.90798,"lon":58.37054,"name":"M8","type":"station"},{"id":246213673,"lat":40.44248,"lon":71.72317,"name":"Margilan","nameLocal":"Margʻilon","type":"station"},{"id":3886606914,"lat":42.2547,"lon":59.36048,"name":"Maslahat","type":"station"},{"id":1592345198,"lat":41.96872,"lon":63.43617,"name":"Maylisoy","nameLocal":"Майлисай","type":"station"},{"id":13019406350,"lat":41.08057,"lon":72.0912,"name":"Mehnatobod","type":"station"},{"id":3884317652,"lat":41.64377,"lon":59.20586,"name":"Mian","type":"station"},{"id":2396470761,"lat":41.38014,"lon":61.2642,"name":"Miskin","type":"station"},{"id":3221370129,"lat":37.60351,"lon":61.93586,"name":"Mollanepes","type":"station"},{"id":1555439207,"lat":39.25516,"lon":65.15264,"name":"Mubarek","nameLocal":"Muborak","type":"station"},{"id":8896057139,"lat":37.59894,"lon":65.73258,"name":"Mukry","type":"station"},{"id":1588259331,"lat":39.70737,"lon":64.2802,"name":"Murgak","type":"station"},{"id":1591202781,"lat":41.52971,"lon":64.49547,"name":"Muruntov","type":"station"},{"id":301722995,"lat":40.99965,"lon":71.64399,"name":"Namangan","type":"station"},{"id":2608557791,"lat":40.17032,"lon":69.34934,"name":"Nau","nameLocal":"Нов","type":"station"},{"id":1238436292,"lat":40.07288,"lon":65.3966,"name":"Navoi","nameLocal":"Navoiy","type":"station"},{"id":12492116324,"lat":40.07297,"lon":65.3963,"name":"Navoiy","type":"station"},{"id":1584776333,"lat":42.29612,"lon":59.55235,"name":"Naymankul","type":"station"},{"id":244879504,"lat":41.29466,"lon":69.12047,"name":"Nazarbek","type":"station"},{"id":1592487779,"lat":42.36297,"lon":59.96509,"name":"Nazarxan","nameLocal":"Назархан","type":"station"},{"id":448465857,"lat":42.36271,"lon":59.96496,"name":"Nazarxon","nameLocal":"Назархан","type":"station"},{"id":1555410119,"lat":39.05906,"lon":65.88144,"name":"Nekuz","type":"station"},{"id":1555523175,"lat":38.62596,"lon":65.69731,"name":"Nishan","nameLocal":"Nishon","type":"station"},{"id":8329137262,"lat":40.08238,"lon":67.71111,"name":"No 13","type":"station"},{"id":1546827935,"lat":40.06527,"lon":67.65016,"name":"No 14","type":"station"},{"id":12320449309,"lat":41.41121,"lon":63.95949,"name":"No 140","type":"station"},{"id":12320449195,"lat":41.50777,"lon":63.92943,"name":"No 141","type":"station"},{"id":1591120107,"lat":41.86418,"lon":63.817,"name":"No 142","type":"station"},{"id":12350948039,"lat":39.5335,"lon":64.6701,"name":"No 143","type":"station"},{"id":1586931900,"lat":39.43203,"lon":64.93462,"name":"No 145","type":"station"},{"id":1555456344,"lat":39.35063,"lon":65.06745,"name":"No 146","type":"station"},{"id":220232249,"lat":39.35079,"lon":65.06782,"name":"No 146","type":"station"},{"id":1555439184,"lat":39.11345,"lon":65.42887,"name":"No 148","type":"station"},{"id":12456420818,"lat":38.99503,"lon":65.67364,"name":"No 149","type":"station"},{"id":3792693385,"lat":38.35773,"lon":65.61245,"name":"No 154","type":"station"},{"id":246039423,"lat":40.02259,"lon":67.44833,"name":"No 16","type":"station"},{"id":12451325385,"lat":37.37745,"lon":66.5375,"name":"No 162","type":"station"},{"id":12435265100,"lat":37.60612,"lon":67.45646,"name":"No 165","type":"station"},{"id":1553853821,"lat":39.88139,"lon":67.44921,"name":"No 18","type":"station"},{"id":8336380380,"lat":39.82761,"lon":67.41849,"name":"No 19","type":"station"},{"id":12170269583,"lat":41.32168,"lon":61.31763,"name":"№ 2 nazorat punkti","type":"station"},{"id":8336380391,"lat":39.78606,"lon":67.32568,"name":"No 20","type":"station"},{"id":8336333318,"lat":39.72697,"lon":67.18772,"name":"No 21","type":"station"},{"id":7080021604,"lat":44.21635,"lon":66.64782,"name":"№ 21","type":"station"},{"id":1553890540,"lat":39.77575,"lon":66.49309,"name":"No 23","type":"station"},{"id":2714060728,"lat":43.82895,"lon":67.28551,"name":"№ 26 темір жол айрығы","type":"station"},{"id":1553902932,"lat":39.91607,"lon":66.13321,"name":"No 28","type":"station"},{"id":1553902942,"lat":39.91269,"lon":66.03301,"name":"No 29","type":"station"},{"id":1555385080,"lat":39.93739,"lon":65.83033,"name":"No 30","type":"station"},{"id":7080019048,"lat":43.48884,"lon":67.83677,"name":"№ 30","type":"station"},{"id":1555385089,"lat":39.97602,"lon":65.71987,"name":"No 31","type":"station"},{"id":1591258033,"lat":40.05894,"lon":65.59743,"name":"No 32","type":"station"},{"id":7080018354,"lat":43.33407,"lon":68.12448,"name":"№ 32","type":"halt"},{"id":1591258026,"lat":40.06916,"lon":65.53205,"name":"No 33","type":"station"},{"id":1588286758,"lat":40.08056,"lon":65.19713,"name":"No 36","type":"station"},{"id":1588286774,"lat":40.06291,"lon":64.95121,"name":"No 38","type":"station"},{"id":1586949445,"lat":39.97893,"lon":64.76937,"name":"No 39","type":"station"},{"id":1597396473,"lat":39.85135,"lon":64.65859,"name":"No 41","type":"station"},{"id":1546816323,"lat":40.06419,"lon":68.33548,"name":"No 6","type":"station"},{"id":1546816350,"lat":40.09157,"lon":68.03936,"name":"No 9","type":"station"},{"id":7069392424,"lat":45.58598,"lon":63.95834,"name":"№107-А","type":"station"},{"id":7069407978,"lat":44.90505,"lon":65.40036,"name":"№11-темір жол айрығы","type":"halt"},{"id":3788742150,"lat":42.49331,"lon":70.44819,"name":"№115 басып озу пункті","type":"station"},{"id":1591203103,"lat":40.78009,"lon":64.51026,"name":"No139","type":"station"},{"id":7418937994,"lat":44.56705,"lon":66.12712,"name":"№16 жол айрығы","type":"station"},{"id":3788144774,"lat":44.40767,"lon":66.32539,"name":"№18 темір жол айрығы","type":"station"},{"id":2628530255,"lat":44.27469,"lon":66.56141,"name":"№20-темір жол айрығы","type":"station"},{"id":7085896599,"lat":44.12891,"lon":66.82086,"name":"№22-темір жол айрығы","type":"halt"},{"id":2713854888,"lat":42.74267,"lon":68.50582,"name":"№37 Остановочный Пункт","type":"station"},{"id":9757334677,"lat":42.9232,"lon":72.89072,"name":"№9-темір жол айрығы","type":"station"},{"id":1584776373,"lat":42.43771,"lon":59.64289,"name":"Nókis","type":"station"},{"id":1260508616,"lat":37.3837,"lon":67.09811,"name":"Noushaxar","type":"station"},{"id":1553902915,"lat":39.74475,"lon":66.39633,"name":"Nurbulak","nameLocal":"Nurbuloq","type":"station"},{"id":2531884579,"lat":40.97963,"lon":70.02312,"name":"Obliq","type":"station"},{"id":3884323307,"lat":41.14317,"lon":58.60587,"name":"Oguzabat","type":"station"},{"id":2632812048,"lat":37.34179,"lon":61.09313,"name":"Oguzhan","type":"station"},{"id":4525724131,"lat":37.88824,"lon":67.53887,"name":"Okjar","type":"station"},{"id":4526029172,"lat":38.21498,"lon":66.8898,"name":"Oknazar","type":"station"},{"id":2444933330,"lat":38.2609,"lon":66.8296,"name":"Okrabot","type":"station"},{"id":1588243859,"lat":39.41216,"lon":63.79684,"name":"Olot","type":"station"},{"id":1588579034,"lat":40.42567,"lon":71.5094,"name":"Oltiariq","type":"station"},{"id":4521082618,"lat":41.15789,"lon":70.44331,"name":"Orzu","type":"station"},{"id":304542946,"lat":40.54434,"lon":72.80791,"name":"Osh-1","nameLocal":"Ош-1","type":"station"},{"id":1360144237,"lat":40.57686,"lon":72.8136,"name":"Osh-2","nameLocal":"Ош-2","type":"station"},{"id":2700992323,"lat":38.12413,"lon":58.36271,"name":"Owadan Depe","type":"station"},{"id":1542147659,"lat":40.93679,"lon":69.51398,"name":"Ozodlik","type":"station"},{"id":8325569878,"lat":41.01486,"lon":68.94616,"name":"Pakhta","nameLocal":"Paxta","type":"station"},{"id":1587386136,"lat":40.85719,"lon":71.14948,"name":"Pap-1","nameLocal":"Pop-1","type":"station"},{"id":4316118221,"lat":40.84904,"lon":71.12151,"name":"Pap-2","nameLocal":"Pop-2","type":"station"},{"id":2632812120,"lat":37.51387,"lon":61.03084,"name":"Parahat","type":"station"},{"id":1212921360,"lat":41.54508,"lon":69.67986,"name":"Pargos","type":"station"},{"id":12384346428,"lat":39.80308,"lon":67.36623,"name":"Paxtaboshi","type":"station"},{"id":1978482103,"lat":40.31376,"lon":67.96717,"name":"Paxtakor","type":"station"},{"id":401822056,"lat":38.19104,"lon":64.51196,"name":"Pelwert","type":"station"},{"id":2001269626,"lat":38.31576,"lon":62.99557,"name":"Peshhi","nameLocal":"Peşhi","type":"station"},{"id":672310957,"lat":41.21571,"lon":61.30838,"name":"Pitnak","type":"station"},{"id":1588713697,"lat":40.90047,"lon":72.24703,"name":"Poytugʻ","type":"station"},{"id":8343551038,"lat":40.17105,"lon":69.50033,"name":"Proletar","nameLocal":"Пролетарск","type":"station"},{"id":4233550993,"lat":38.09141,"lon":67.34428,"name":"Pulhakim","nameLocal":"Pulhokim","type":"station"},{"id":1586572214,"lat":38.82173,"lon":66.45777,"name":"Qamashi","type":"station"},{"id":1555410151,"lat":38.82106,"lon":65.77714,"name":"Qarshi","type":"station"},{"id":1555410134,"lat":38.92521,"lon":65.74478,"name":"Qashqadaryo","type":"station"},{"id":1588631059,"lat":40.43799,"lon":71.80706,"name":"Qirguli","type":"station"},{"id":1591113488,"lat":41.60424,"lon":63.93623,"name":"Qizilquduq","nameLocal":"Кызылкудук","type":"station"},{"id":4032412887,"lat":41.07158,"lon":70.27055,"name":"Qo‘l","type":"station"},{"id":247314590,"lat":39.49635,"lon":63.84672,"name":"Qo'rako'l","type":"station"},{"id":5293519556,"lat":40.84145,"lon":70.9161,"name":"Qo‘shminor","type":"station"},{"id":1911502412,"lat":41.0168,"lon":72.10106,"name":"Qo`g`ay","nameLocal":"Qo'g'ay","type":"station"},{"id":1591203005,"lat":40.97788,"lon":64.38548,"name":"Qorakatta","nameLocal":"Каракатта","type":"station"},{"id":1592460082,"lat":42.10684,"lon":60.37905,"name":"Qorao'zak","nameLocal":"Караозек","type":"station"},{"id":12350948065,"lat":39.5042,"lon":64.72726,"name":"Qorovulbazar neft ombori","type":"station"},{"id":12350948058,"lat":39.51063,"lon":64.71457,"name":"Qorovulbazar neftni qayta ishlash zavodi","type":"station"},{"id":12350948075,"lat":39.50213,"lon":64.77462,"name":"Qorovulbozor-tovar","type":"station"},{"id":10943558665,"lat":37.47924,"lon":68.32241,"name":"Qubodiyon Train Stop","nameLocal":"Қубодиён","type":"station"},{"id":247312699,"lat":42.67978,"lon":59.75778,"name":"Qumshumgúl","type":"station"},{"id":1592345241,"lat":41.82888,"lon":62.99718,"name":"Qurali","nameLocal":"Куралы","type":"station"},{"id":295704056,"lat":40.55991,"lon":72.07553,"name":"Quva","type":"station"},{"id":1589870902,"lat":40.30274,"lon":71.97137,"name":"Quvasoy","type":"station"},{"id":1587315796,"lat":40.44341,"lon":70.63404,"name":"Rapkan","nameLocal":"Rapkon","type":"station"},{"id":2794036697,"lat":40.98054,"lon":71.58838,"name":"Raustan","nameLocal":"Rovuston","type":"station"},{"id":1583713750,"lat":43.11936,"lon":58.62468,"name":"Rawshan","type":"station"},{"id":627111685,"lat":38.1969,"lon":62.89108,"name":"Razyezd № 57","type":"station"},{"id":1584542557,"lat":37.36413,"lon":66.42212,"name":"Razyezd No. 161","type":"station"},{"id":3242382505,"lat":38.50933,"lon":68.23287,"name":"Regar","nameLocal":"Регар","type":"station"},{"id":3221868779,"lat":38.56229,"lon":63.17737,"name":"Repetek","type":"station"},{"id":2010209211,"lat":40.2526,"lon":68.68618,"name":"Robot","type":"station"},{"id":205651306,"lat":40.80493,"lon":58.43775,"name":"Ruhnama","type":"station"},{"id":150984975,"lat":38.25618,"lon":58.4688,"name":"Ruhybelent","type":"station"},{"id":3883327243,"lat":38.13799,"lon":58.21594,"name":"Rzd. No 1","type":"station"},{"id":1187827845,"lat":38.49959,"lon":57.32978,"name":"Rzd. No 100","type":"station"},{"id":3883321423,"lat":38.78015,"lon":56.71124,"name":"Rzd. No 105","type":"station"},{"id":3883318357,"lat":38.93331,"lon":56.42109,"name":"Rzd. No 108","type":"station"},{"id":1555523201,"lat":38.14659,"lon":65.50266,"name":"Rzd. No 155","type":"station"},{"id":1584542558,"lat":37.44438,"lon":66.1723,"name":"Rzd. No 160","type":"station"},{"id":3885821435,"lat":40.67874,"lon":62.01269,"name":"Rzd. No 174","type":"station"},{"id":1585869746,"lat":41.15549,"lon":61.49913,"name":"Rzd. No 176","type":"station"},{"id":3886257529,"lat":42.01384,"lon":59.8313,"name":"Rzd. No 178","type":"station"},{"id":374918480,"lat":40.02566,"lon":58.40482,"name":"Rzd. No 2","type":"station"},{"id":205651303,"lat":40.9567,"lon":58.52968,"name":"Rzd. No 4","type":"station"},{"id":1588243852,"lat":39.25793,"lon":63.67705,"name":"Rzd. No 48","type":"station"},{"id":3884321155,"lat":41.32578,"lon":58.73114,"name":"Rzd. No 5","type":"station"},{"id":3885349297,"lat":38.42809,"lon":63.10827,"name":"Rzd. No 54","type":"station"},{"id":3221378144,"lat":37.61725,"lon":62.03076,"name":"Rzd. No 64","type":"station"},{"id":3221362751,"lat":37.61687,"lon":61.75391,"name":"Rzd. No 66","type":"station"},{"id":2632812364,"lat":37.5583,"lon":61.08421,"name":"Rzd. No 69","type":"station"},{"id":3884581999,"lat":37.22421,"lon":60.1362,"name":"Rzd. No 76","type":"station"},{"id":3884580223,"lat":37.2086,"lon":59.89295,"name":"Rzd. No 79","type":"station"},{"id":577870093,"lat":37.29633,"lon":59.69182,"name":"Rzd. No 80","type":"station"},{"id":1187987196,"lat":38.24694,"lon":57.79471,"name":"Rzd. No 96","type":"station"},{"id":3883322921,"lat":38.33462,"lon":57.61118,"name":"Rzd. No 97","type":"station"},{"id":7659925527,"lat":38.65221,"lon":56.98689,"name":"Rzd. No. 103","type":"station"},{"id":205654048,"lat":40.48619,"lon":58.37182,"name":"Rzd. No. 5","type":"station"},{"id":835399921,"lat":37.47818,"lon":60.84429,"name":"Rzd. No. 72","type":"station"},{"id":2197339744,"lat":41.24914,"lon":69.20841,"name":"Sabir Rakhimov","nameLocal":"Sobir Rahimov","type":"station"},{"id":374917720,"lat":39.83239,"lon":58.41657,"name":"Sähra","type":"station"},{"id":2205021829,"lat":41.32267,"lon":69.31366,"name":"Salar","nameLocal":"Salor","type":"station"},{"id":2279305298,"lat":39.686,"lon":66.92903,"name":"Samarkand","nameLocal":"Samarqand","type":"station"},{"id":205651301,"lat":41.58407,"lon":59.05675,"name":"Şamülki","type":"station"},{"id":2157556488,"lat":42.36505,"lon":58.8004,"name":"Saparmurat Turkmenbashy","nameLocal":"Saparmyrat Türkmenbaşy","type":"station"},{"id":1553680966,"lat":41.26034,"lon":67.93388,"name":"Şardara","nameLocal":"Шардара","type":"station"},{"id":245671297,"lat":38.36716,"lon":68.00872,"name":"Sariasia","nameLocal":"Sariosiyo","type":"station"},{"id":4041813395,"lat":41.46507,"lon":69.14757,"name":"Sarıağaş","nameLocal":"Сарыағаш","type":"station"},{"id":3883339843,"lat":41.65144,"lon":59.38408,"name":"Şasenem","type":"station"},{"id":299465988,"lat":40.7184,"lon":72.76018,"name":"Savay","type":"station"},{"id":3885978840,"lat":38.72878,"lon":63.85599,"name":"Saýat","type":"station"},{"id":1585882935,"lat":41.11015,"lon":61.74531,"name":"Sazakly","type":"station"},{"id":3221948474,"lat":37.49216,"lon":61.97046,"name":"Semenik","type":"station"},{"id":2206373339,"lat":41.2041,"lon":69.24678,"name":"Sergeli","type":"station"},{"id":888864488,"lat":41.22064,"lon":69.20884,"name":"Sergeli","type":"station"},{"id":1555439201,"lat":39.19144,"lon":65.26459,"name":"Serniy Zavod","nameLocal":"Серный Завод","type":"station"},{"id":9191743021,"lat":39.40951,"lon":62.88981,"name":"Seýdi","type":"station"},{"id":3896817157,"lat":37.26586,"lon":68.16447,"name":"Shahrtuz Train Station","nameLocal":"Шаҳртуз","type":"station"},{"id":2285894612,"lat":41.16968,"lon":72.1724,"name":"Shamaldy-Say","nameLocal":"Шамалды-Сай","type":"station"},{"id":1588654004,"lat":40.70445,"lon":72.06151,"name":"Sharikhan","nameLocal":"Shahrixon","type":"station"},{"id":1584542553,"lat":37.41591,"lon":66.99374,"name":"Sherobod","type":"station"},{"id":9808853340,"lat":37.67072,"lon":66.64445,"name":"Sherobod Sement","type":"station"},{"id":449118464,"lat":38.01683,"lon":67.78921,"name":"Sho'rchi","type":"station"},{"id":1586583046,"lat":38.70757,"lon":65.96258,"name":"Shoʻrtan","type":"station"},{"id":2624400786,"lat":43.21077,"lon":68.25381,"name":"Shojtobe","nameLocal":"Шойтобе","type":"station"},{"id":3788737432,"lat":42.77891,"lon":71.28145,"name":"Sholdala","nameLocal":"Шөлдала","type":"station"},{"id":1584762220,"lat":42.60723,"lon":59.19994,"name":"Shumanay","nameLocal":"Shomanay","type":"station"},{"id":1765563050,"lat":38.20348,"lon":66.96474,"name":"Shurob","type":"station"},{"id":2753413127,"lat":42.29871,"lon":69.6103,"name":"Shymkent","nameLocal":"Чимкент","type":"station"},{"id":2628533161,"lat":44.17229,"lon":66.73544,"name":"Şïeli","nameLocal":"Шиелі","type":"station"},{"id":12451267171,"lat":37.40379,"lon":66.74859,"name":"Sovxoz Nabiev","type":"halt"},{"id":12211522986,"lat":40.93254,"lon":62.56535,"name":"Sozakdar","type":"station"},{"id":12430518734,"lat":37.90316,"lon":67.6529,"name":"Surhon","type":"halt"},{"id":449118440,"lat":37.73588,"lon":67.50722,"name":"Surhony","type":"station"},{"id":1587315754,"lat":40.36981,"lon":70.45155,"name":"Suvonobod","type":"station"},{"id":1545604235,"lat":40.82934,"lon":68.67156,"name":"Syrdarya","nameLocal":"Sirdaryo","type":"station"},{"id":1584776336,"lat":42.26523,"lon":59.57933,"name":"Tahýadaş","type":"station"},{"id":1257213611,"lat":42.34678,"lon":59.56367,"name":"Takhiatash-Pristan","nameLocal":"Taqıyatas-Pristan","type":"station"},{"id":3221356253,"lat":37.27168,"lon":60.24557,"name":"Takyr","type":"station"},{"id":3221940422,"lat":37.40195,"lon":62.15574,"name":"Talhatanbaba","type":"station"},{"id":12433135008,"lat":38.12436,"lon":67.86508,"name":"Tally","type":"halt"},{"id":1555523192,"lat":38.27896,"lon":65.55886,"name":"Tallymerjen","type":"station"},{"id":1596492740,"lat":37.98825,"lon":67.46045,"name":"Tangimush","type":"station"},{"id":1586558886,"lat":39.04206,"lon":66.73168,"name":"Tanxoz","nameLocal":"Танхоз","type":"station"},{"id":1584776374,"lat":42.57619,"lon":59.72968,"name":"Taqırkól","type":"station"},{"id":449641302,"lat":42.5778,"lon":59.73109,"name":"Taqırkól","type":"station"},{"id":1586605162,"lat":38.67285,"lon":66.06764,"name":"Tashguzar","nameLocal":"Toshgʻuzor","type":"station"},{"id":2204812766,"lat":41.29098,"lon":69.2874,"name":"Tashkent-Passenger","nameLocal":"Toshkent-Yo'lovchi","type":"station"},{"id":1508880378,"lat":41.29772,"lon":69.30465,"name":"Tashkent-Tovarny","nameLocal":"Ташкент-Товарный","type":"station"},{"id":8321581319,"lat":41.259,"lon":69.2263,"name":"Tashkent-Yuzhny","nameLocal":"Toshkent-Janubiy","type":"station"},{"id":915309675,"lat":37.3846,"lon":60.50057,"name":"Tejen","type":"station"},{"id":4521163706,"lat":40.88619,"lon":70.78141,"name":"Temiryo'lobod","type":"station"},{"id":1588713805,"lat":40.92892,"lon":72.48658,"name":"Tentyaksay","nameLocal":"Тентаксай","type":"station"},{"id":2587843690,"lat":45.05615,"lon":64.9879,"name":"Terenozek","nameLocal":"Терень-Узяк","type":"station"},{"id":1584479577,"lat":37.25123,"lon":67.28608,"name":"Termiz","type":"station"},{"id":1587386295,"lat":40.93904,"lon":71.49944,"name":"Toʻraqoʻrgʻon","type":"station"},{"id":1592362133,"lat":41.57059,"lon":61.03278,"name":"Tórtkúl","type":"station"},{"id":1212946213,"lat":41.00142,"lon":69.36014,"name":"Toytepa","nameLocal":"To'ytepa","type":"station"},{"id":1586949432,"lat":39.91551,"lon":64.69456,"name":"Tudakul","nameLocal":"To'dako'l","type":"station"},{"id":2197464147,"lat":41.26537,"lon":69.25049,"name":"Tukimachi","nameLocal":"To'qimachi","type":"station"},{"id":4031286688,"lat":42.49008,"lon":70.28425,"name":"Tulkibas","nameLocal":"Түлкібас","type":"station"},{"id":1326669039,"lat":43.2857,"lon":68.213,"name":"Turkestan","nameLocal":"Түркістан","type":"station"},{"id":8896035430,"lat":39.10264,"lon":63.57018,"name":"Türkmenabat","type":"station"},{"id":1588224382,"lat":39.09478,"lon":63.5375,"name":"Türkmenabat 2","type":"station"},{"id":5684574273,"lat":40.3088,"lon":63.89103,"name":"Tuztepa","type":"station"},{"id":6477400925,"lat":40.66152,"lon":63.22075,"name":"Uchachik","type":"station"},{"id":1584542552,"lat":37.31883,"lon":67.21177,"name":"Uchqizil","type":"station"},{"id":247041544,"lat":41.11575,"lon":72.08536,"name":"Uchqoʻrgʻon","type":"station"},{"id":1585865853,"lat":41.53642,"lon":60.63214,"name":"Urgench","nameLocal":"Ургенч","type":"station"},{"id":8324464134,"lat":41.18971,"lon":69.14026,"name":"Urtaaul","nameLocal":"Oʻrtaovul","type":"station"},{"id":1598545284,"lat":41.08615,"lon":71.96651,"name":"Uychi","type":"station"},{"id":8324521609,"lat":41.16187,"lon":69.10336,"name":"Uzbekistan","nameLocal":"Oʻzbekiston","type":"station"},{"id":245675370,"lat":38.17363,"lon":67.89503,"name":"Xayrobod","type":"station"},{"id":295847255,"lat":40.92269,"lon":71.41052,"name":"Xo'jakent","type":"station"},{"id":1584762347,"lat":42.40471,"lon":59.43666,"name":"Xojeli","type":"station"},{"id":245607832,"lat":38.98054,"lon":66.6733,"name":"Yakkabog'","nameLocal":"Yakkabogʻ","type":"station"},{"id":1588243893,"lat":39.64672,"lon":64.07132,"name":"Yakkatut","type":"station"},{"id":2460220976,"lat":40.92855,"lon":68.68376,"name":"Yangi Chinoz","type":"station"},{"id":12430752417,"lat":37.97079,"lon":67.74726,"name":"Yangi Elboyan","type":"halt"},{"id":246454045,"lat":41.56799,"lon":64.172,"name":"Yangi Zarafshan","nameLocal":"Yangi Zarafshon","type":"station"},{"id":12435265076,"lat":37.66909,"lon":67.48228,"name":"Yangi-Kishlak","type":"halt"},{"id":1589851836,"lat":41.09319,"lon":71.99008,"name":"Yangiariq","type":"station"},{"id":8343455277,"lat":40.29628,"lon":68.82526,"name":"Yangiyer railway station","nameLocal":"Yangiyer temir yo'l vokzali","type":"station"},{"id":13274344998,"lat":40.29627,"lon":68.82489,"name":"Yangiyer temiryo'l vokzali","type":"station"},{"id":7456901287,"lat":40.37236,"lon":68.80127,"name":"Yangiyer-New","nameLocal":"Янгиер-Новый","type":"station"},{"id":4720198689,"lat":40.25984,"lon":68.83622,"name":"Yangiyer-Yuzhny","nameLocal":"Yangiyer janubi","type":"halt"},{"id":2209501413,"lat":41.11678,"lon":69.06075,"name":"Yangiyul","nameLocal":"Yangiyo'l","type":"station"},{"id":8895975402,"lat":37.76922,"lon":58.90076,"name":"Yashlyk","nameLocal":"Ýaşlyk","type":"station"},{"id":1587385735,"lat":40.48721,"lon":70.76883,"name":"Yaypan","type":"station"},{"id":374806526,"lat":39.24253,"lon":58.55118,"name":"Ýerbent","type":"station"},{"id":12320654682,"lat":41.25879,"lon":64.12813,"name":"Yetimtov","type":"station"},{"id":9787590349,"lat":37.26311,"lon":65.22894,"name":"Ymamnazar","type":"station"},{"id":3188119986,"lat":37.2931,"lon":62.35451,"name":"Yoloten","nameLocal":"Ýolöten","type":"station"},{"id":2446902157,"lat":38.30538,"lon":68.94692,"name":"Yovon","nameLocal":"Ёвон","type":"station"},{"id":12433916172,"lat":38.31912,"lon":67.9403,"name":"Yurchi","type":"halt"},{"id":1591224130,"lat":40.53356,"lon":64.7417,"name":"Zafarabad","nameLocal":"Zafarobod","type":"station"},{"id":3221379914,"lat":37.775,"lon":62.52962,"name":"Zähmet","type":"station"},{"id":8335804652,"lat":39.69618,"lon":67.01379,"name":"Zarafshan","nameLocal":"Zarafshon","type":"station"},{"id":1546816346,"lat":40.07473,"lon":68.16394,"name":"Zarbdar","nameLocal":"Zarbdor","type":"station"},{"id":12430518747,"lat":37.92075,"lon":67.67468,"name":"Zaribdor","type":"halt"},{"id":1584776360,"lat":42.06261,"lon":59.78346,"name":"Zarpçy","type":"station"},{"id":263420890,"lat":39.00229,"lon":63.55462,"name":"Zerger","type":"station"},{"id":1591258075,"lat":40.02788,"lon":65.65866,"name":"Ziadin","nameLocal":"Зиевуддин","type":"station"},{"id":1555385066,"lat":39.91603,"lon":65.92775,"name":"Zirabulak","nameLocal":"Зирабулак","type":"station"},{"id":7066131789,"lat":42.48772,"lon":70.47629,"name":"Абайыл","type":"station"},{"id":288394526,"lat":38.53366,"lon":68.66772,"name":"Айни","type":"station"},{"id":7067967378,"lat":45.0362,"lon":65.19867,"name":"Айтек","type":"halt"},{"id":2624400776,"lat":42.49342,"lon":68.73952,"name":"Акдала","type":"station"},{"id":2714060328,"lat":43.70976,"lon":67.41907,"name":"Аккум","type":"station"},{"id":2796075144,"lat":42.42843,"lon":69.82112,"name":"Аксукент","type":"station"},{"id":7068017831,"lat":44.97003,"lon":65.35301,"name":"Актайлак","type":"halt"},{"id":6968062893,"lat":41.33805,"lon":61.53009,"name":"Акчука","type":"station"},{"id":2714084934,"lat":44.10364,"lon":66.8708,"name":"Ақмая","type":"station"},{"id":2420708073,"lat":42.21226,"lon":68.94059,"name":"Ақтас","type":"station"},{"id":3788769456,"lat":43.28746,"lon":70.30015,"name":"Ақтаутас","type":"station"},{"id":2624378245,"lat":42.90142,"lon":68.39341,"name":"Ақшоқат","type":"station"},{"id":2839364728,"lat":43.00414,"lon":71.80066,"name":"Ақшолақ","type":"station"},{"id":2620965493,"lat":45.45033,"lon":64.16449,"name":"Ана-Куль","type":"station"},{"id":4021927562,"lat":42.41928,"lon":68.79353,"name":"Арыс 1","type":"station"},{"id":4021927563,"lat":42.43798,"lon":68.80005,"name":"Арыс-2","type":"station"},{"id":2420760814,"lat":42.37797,"lon":69.25176,"name":"Бадам","type":"station"},{"id":3239063787,"lat":38.44566,"lon":68.96908,"name":"Бахор","type":"station"},{"id":2587836290,"lat":44.31247,"lon":66.47571,"name":"Бәйгеқұм","type":"station"},{"id":2620995220,"lat":44.8093,"lon":65.58964,"name":"Белкуль","type":"station"},{"id":2722871635,"lat":43.5883,"lon":67.64599,"name":"Беш-Арык","type":"station"},{"id":3788109125,"lat":44.77146,"lon":65.7457,"name":"Бирказан","type":"station"},{"id":2714060780,"lat":43.76367,"lon":67.3489,"name":"Боройнак","type":"station"},{"id":2714084939,"lat":43.98669,"lon":67.10698,"name":"Бөртескен","type":"station"},{"id":1592361777,"lat":41.75253,"lon":62.4709,"name":"Бузаубай","type":"station"},{"id":7068034783,"lat":44.80212,"lon":65.67533,"name":"Буребай","type":"station"},{"id":3896831896,"lat":37.52827,"lon":68.46725,"name":"Бурёбоф","type":"station"},{"id":5071940676,"lat":38.50838,"lon":69.03782,"name":"Бустан","type":"station"},{"id":288394956,"lat":38.53991,"lon":69.01644,"name":"Вахдат","type":"station"},{"id":3242169408,"lat":38.01261,"lon":68.85931,"name":"Вахш","type":"station"},{"id":2126687012,"lat":39.92528,"lon":69.62116,"name":"Восточная","type":"station"},{"id":1555201267,"lat":39.62494,"lon":66.54427,"name":"Гумбаз","type":"station"},{"id":3896842614,"lat":38.05205,"lon":69.28122,"name":"Данғара","type":"station"},{"id":4046956030,"lat":41.56944,"lon":69.08869,"name":"Дарбаза","type":"station"},{"id":3892609118,"lat":40.31723,"lon":70.41463,"name":"Деваштич","type":"station"},{"id":2581971224,"lat":45.07689,"lon":64.68112,"name":"Джалагаш","type":"station"},{"id":1404219284,"lat":40.92088,"lon":73.00194,"name":"Джалал-Абад","type":"station"},{"id":3896836071,"lat":37.61806,"lon":68.62463,"name":"Джалолиддини Руми","type":"station"},{"id":245560090,"lat":39.45825,"lon":66.30611,"name":"Джам","type":"station"},{"id":4749028898,"lat":38.55841,"lon":68.70512,"name":"Душанбе-II","type":"station"},{"id":2714084943,"lat":44.07549,"lon":66.92721,"name":"Екпінді","type":"station"},{"id":1555523181,"lat":38.4375,"lon":65.63129,"name":"Жайрон","type":"station"},{"id":2714084949,"lat":43.94705,"lon":67.18545,"name":"Жайылма","type":"station"},{"id":4034464665,"lat":43.56135,"lon":69.72805,"name":"Жаңатас","type":"station"},{"id":7082264265,"lat":42.71375,"lon":71.26215,"name":"Жоон-Дөбө","type":"station"},{"id":4022911772,"lat":45.49119,"lon":64.08693,"name":"Жосалы","type":"station"},{"id":3788758957,"lat":43.08174,"lon":70.91196,"name":"Жұма","type":"station"},{"id":1545713630,"lat":40.663,"lon":68.18768,"name":"Ирджарская","type":"station"},{"id":2448739533,"lat":41.27231,"lon":61.17702,"name":"Истиклол","type":"station"},{"id":7069406645,"lat":45.06863,"lon":64.92912,"name":"Кабылкуль","type":"station"},{"id":1083455223,"lat":39.72483,"lon":64.57633,"name":"Каган","type":"station"},{"id":7070407160,"lat":42.27853,"lon":69.66802,"name":"Казыкурт","type":"station"},{"id":1587299659,"lat":40.22223,"lon":69.94667,"name":"Кайраккум","type":"station"},{"id":7069390016,"lat":45.23202,"lon":64.44334,"name":"Кайршакты","type":"halt"},{"id":3788732687,"lat":42.3932,"lon":69.04635,"name":"Калаш","type":"station"},{"id":4025962071,"lat":44.99727,"lon":65.27822,"name":"Кара-Узяк","type":"station"},{"id":3787089679,"lat":45.09038,"lon":64.5896,"name":"Караирим","type":"station"},{"id":4025962079,"lat":45.18655,"lon":64.52107,"name":"Каракеткен","type":"station"},{"id":1587299686,"lat":40.25357,"lon":70.06523,"name":"Каракчикум","type":"station"},{"id":12335025845,"lat":40.13649,"lon":65.21911,"name":"Кармана","type":"station"},{"id":1555439182,"lat":39.06388,"lon":65.57833,"name":"Касан","type":"station"},{"id":1404219288,"lat":40.61734,"lon":72.82224,"name":"Кашгар","type":"station"},{"id":9831544331,"lat":43.51595,"lon":68.52502,"name":"Кентау","type":"station"},{"id":3788140078,"lat":44.6698,"lon":65.95966,"name":"Керкелмес","type":"station"},{"id":3788753266,"lat":42.35377,"lon":69.71602,"name":"Кзыл-Сай","type":"station"},{"id":3787103099,"lat":45.31441,"lon":64.34819,"name":"Кизил-Там","type":"station"},{"id":3740955456,"lat":42.26249,"lon":60.18612,"name":"Койбак","type":"station"},{"id":4064729700,"lat":42.37674,"lon":69.36554,"name":"Кокбулак","type":"station"},{"id":7069400516,"lat":45.13411,"lon":64.53274,"name":"Коктонды","type":"halt"},{"id":2126648053,"lat":39.97689,"lon":69.55491,"name":"Кольцо","type":"station"},{"id":1587299792,"lat":40.31709,"lon":70.37045,"name":"Конибодом","type":"station"},{"id":7080005776,"lat":44.35485,"lon":66.40733,"name":"Коскаракум","type":"halt"},{"id":7072139034,"lat":42.49683,"lon":70.22084,"name":"Көктерек","type":"station"},{"id":441678600,"lat":43.11025,"lon":58.34825,"name":"Кунходжа","type":"station"},{"id":2624378294,"lat":43.1389,"lon":68.278,"name":"Куншагыр","type":"station"},{"id":3788745646,"lat":42.66329,"lon":71.09279,"name":"Күркіреусу","type":"station"},{"id":2420708058,"lat":42.26079,"lon":68.90365,"name":"Қабылсай","type":"station"},{"id":2747032735,"lat":42.61383,"lon":68.61438,"name":"Қарақоңыр","type":"station"},{"id":2422743327,"lat":43.17646,"lon":70.47323,"name":"Қаратау","type":"station"},{"id":12364504754,"lat":43.1013,"lon":72.99318,"name":"Қорағаты","type":"station"},{"id":7072098389,"lat":42.31458,"lon":69.54389,"name":"Қорғасын","type":"station"},{"id":2747032742,"lat":42.55186,"lon":68.68446,"name":"Қостүйін","type":"station"},{"id":3788749509,"lat":42.83006,"lon":71.30835,"name":"Құмшағал","type":"station"},{"id":1587299766,"lat":40.27243,"lon":70.29379,"name":"Маданият","type":"station"},{"id":3788634958,"lat":41.8633,"lon":68.99061,"name":"Майбұлақ","type":"station"},{"id":7069418716,"lat":45.0329,"lon":65.09397,"name":"Майлыкум","type":"halt"},{"id":3788109049,"lat":44.51345,"lon":66.18944,"name":"Майлытоғай","type":"station"},{"id":7072043672,"lat":42.67744,"lon":71.20999,"name":"Маймак","type":"station"},{"id":3788869534,"lat":42.9881,"lon":72.32657,"name":"Малдыбай","type":"station"},{"id":1588286752,"lat":40.07802,"lon":65.09388,"name":"Малик","type":"station"},{"id":1553880986,"lat":39.69396,"lon":66.74306,"name":"Мароканд","type":"station"},{"id":288393746,"lat":38.56801,"lon":68.74316,"name":"Масложиркомбинат","type":"station"},{"id":1587299726,"lat":40.24376,"lon":70.1921,"name":"Махрам","type":"station"},{"id":11250451562,"lat":40.92268,"lon":68.11226,"name":"Махталы","type":"station"},{"id":6968062910,"lat":40.08535,"lon":64.09523,"name":"Машак","type":"station"},{"id":4518956492,"lat":42.53959,"lon":70.0629,"name":"Менлибай","type":"station"},{"id":3788630021,"lat":42.08866,"lon":68.96898,"name":"Монтайтас","type":"station"},{"id":1591202866,"lat":41.17588,"lon":64.24035,"name":"Мустакиллик","type":"station"},{"id":5792432801,"lat":42.90714,"lon":73.01241,"name":"Мүңке","type":"station"},{"id":4264573137,"lat":45.31583,"lon":56.02478,"name":"Ноғайты темір жол айрығы","type":"station"},{"id":1555260951,"lat":39.60533,"lon":66.28637,"name":"Нурабад","type":"station"},{"id":2624378273,"lat":43.04123,"lon":68.31088,"name":"Отрабат","type":"station"},{"id":4064729702,"lat":42.41864,"lon":68.85351,"name":"Парковый","type":"station"},{"id":2224406816,"lat":38.46828,"lon":68.14016,"name":"Пахтаабад","type":"station"},{"id":1545707154,"lat":40.83871,"lon":68.51569,"name":"Пахтаарал","type":"station"},{"id":6176812915,"lat":38.51187,"lon":68.24627,"name":"Пекарня","type":"halt"},{"id":247261141,"lat":41.20794,"lon":61.33711,"name":"Питняк","type":"station"},{"id":2126675537,"lat":40.1705,"lon":69.50577,"name":"Пролетарск 2","type":"station"},{"id":7466446005,"lat":39.7072,"lon":64.49176,"name":"Разъезд № 43","type":"station"},{"id":3788135867,"lat":44.70952,"lon":65.86955,"name":"Разъезд №14","type":"station"},{"id":3740987088,"lat":41.07422,"lon":64.33403,"name":"рзд. 306 км","type":"station"},{"id":1527974431,"lat":38.54794,"lon":68.87806,"name":"Рохаты","type":"station"},{"id":7070413217,"lat":42.25567,"lon":69.73243,"name":"Сайрам","type":"station"},{"id":3896842580,"lat":38.00775,"lon":69.07518,"name":"Сангтуда","type":"station"},{"id":2796075145,"lat":42.54877,"lon":69.99843,"name":"Састобе","type":"station"},{"id":7064865231,"lat":43.53993,"lon":67.74137,"name":"Сатымсай","type":"halt"},{"id":2795883629,"lat":43.44093,"lon":67.92454,"name":"Сауран","type":"station"},{"id":3788109551,"lat":44.6343,"lon":66.04744,"name":"Соло-Тюбе","type":"station"},{"id":1904025276,"lat":42.33762,"lon":69.59353,"name":"Спортивная","type":"station"},{"id":9808631441,"lat":37.81624,"lon":66.03076,"name":"станция","type":"station"},{"id":5792663986,"lat":42.96676,"lon":72.61033,"name":"станция Кумарык","type":"station"},{"id":3788745960,"lat":42.65874,"lon":70.97878,"name":"Сурум","type":"station"},{"id":2422743238,"lat":43.38819,"lon":70.22283,"name":"Табақбұлақ","type":"station"},{"id":2582433819,"lat":43.64746,"lon":67.52869,"name":"Талап","type":"station"},{"id":3788870964,"lat":42.92029,"lon":71.47896,"name":"Талас","type":"station"},{"id":2420708072,"lat":42.37195,"lon":68.84077,"name":"Талдықұдық","type":"station"},{"id":4057490819,"lat":42.86968,"lon":71.37892,"name":"Тараз","type":"station"},{"id":12334354107,"lat":40.87738,"lon":64.4003,"name":"Таракиёт. рзд. 304 км","type":"station"},{"id":3788112266,"lat":44.45527,"lon":66.25722,"name":"Тартоғай","type":"station"},{"id":9112487713,"lat":41.23417,"lon":64.59074,"name":"Ташкура","type":"station"},{"id":7070409229,"lat":42.25255,"lon":69.6593,"name":"Текесу","type":"station"},{"id":288393909,"lat":38.56228,"lon":68.78156,"name":"Текстиль","type":"station"},{"id":4072001994,"lat":42.82651,"lon":68.44181,"name":"Темір","type":"station"},{"id":1095951341,"lat":42.82641,"lon":68.4415,"name":"Темір  ауылдық ЖД вогзал","type":"station"},{"id":1215279499,"lat":45.05613,"lon":64.98783,"name":"тереңөзек","type":"station"},{"id":246498193,"lat":40.08884,"lon":65.31986,"name":"Тинчлик","type":"station"},{"id":2126674389,"lat":39.93299,"lon":69.5607,"name":"Товарная","type":"station"},{"id":7070411722,"lat":42.22136,"lon":69.80785,"name":"Тоғыс","type":"station"},{"id":2714084927,"lat":44.02755,"lon":67.02027,"name":"Төменарық","type":"station"},{"id":465869559,"lat":44.02745,"lon":67.01993,"name":"Төменарық","type":"station"},{"id":1904025277,"lat":42.37277,"lon":69.62592,"name":"Тулпар","type":"station"},{"id":7062977473,"lat":45.45699,"lon":56.11406,"name":"Тұрыш","type":"station"},{"id":1553880976,"lat":39.6983,"lon":66.83747,"name":"Улугбек","type":"station"},{"id":1555201245,"lat":39.54132,"lon":66.40712,"name":"Улус","type":"station"},{"id":2714136916,"lat":45.54697,"lon":64.0165,"name":"Урдазы","type":"station"},{"id":240471692,"lat":42.97841,"lon":71.57905,"name":"Уч-Булак","type":"station"},{"id":1592211596,"lat":42.1175,"lon":63.65708,"name":"Учкудук","type":"station"},{"id":1592345175,"lat":42.0195,"lon":63.73282,"name":"Учкудук 2","type":"station"},{"id":2754733225,"lat":42.96771,"lon":68.35339,"name":"Ұзынқұдық","type":"station"},{"id":252852167,"lat":38.53113,"lon":68.54637,"name":"Ханака","type":"station"},{"id":6417656824,"lat":38.51029,"lon":68.23782,"name":"Хлоп Завод","type":"halt"},{"id":1588243863,"lat":39.32728,"lon":63.74593,"name":"Ходжадавлет","type":"station"},{"id":3730269821,"lat":38.52994,"lon":68.33528,"name":"Чептура","type":"station"},{"id":3788734307,"lat":42.35922,"lon":69.45631,"name":"Черноводский","type":"station"},{"id":3788743214,"lat":42.53741,"lon":70.61547,"name":"Чокпак","type":"station"},{"id":1584776372,"lat":41.70716,"lon":60.27572,"name":"Шават","type":"station"},{"id":2420708074,"lat":42.17257,"lon":68.97532,"name":"Шағыр","type":"station"},{"id":4041217731,"lat":42.95316,"lon":71.34994,"name":"Шайқорық","type":"station"},{"id":3788632319,"lat":41.97765,"lon":69.03937,"name":"Шанақ","type":"station"},{"id":4030794164,"lat":43.3876,"lon":68.02413,"name":"Шорнак","type":"station"},{"id":255653005,"lat":42.60705,"lon":59.19965,"name":"Шуманай","type":"station"},{"id":3896504952,"lat":40.03883,"lon":70.54181,"name":"Шураб","type":"station"},{"id":3788750968,"lat":42.53927,"lon":69.94025,"name":"Ынтымақ","type":"station"},{"id":6477405847,"lat":39.85623,"lon":64.17102,"name":"Янгиабад","type":"station"}]